Name,Postcode,Latitude,Longitude
Sainsburys Local SW11 3BX,SW11 3BX,51.47085433,-0.170324704
Tesco Express SE13 6RT,SE13 6RT,51.44846329,-0.003753197
Sainsburys Local W2 1HB,W2 1HB,51.51905329,-0.179819814
Marks and Spencer Hospital NW3 2QG,NW3 2QG,51.5531882,-0.165299286
Budgens SE6 1TP,SE6 1TP,51.43340482,0.009206876
Little Waitrose Shell W5 3HJ,W5 3HJ,51.51634563,-0.290986835
Budgens HA5 2ET,HA5 2ET,51.58438416,-0.407711404
The Co-operative Food E5 9BQ,E5 9BQ,51.56404091,-0.052002366
Tesco Express SE1 8EQ,SE1 8EQ,51.50024289,-0.104318515
The Co-operative Food E1 4NX,E1 4NX,51.52544,-0.03838
Budgens SE27 9QY,SE27 9QY,51.42712598,-0.088705092
Sainsburys Local E3 3NT,E3 3NT,51.52455063,-0.011624206
Sainsburys Local N4 2UX,N4 2UX,51.56263765,-0.092158469
Tesco Express E14 9AB,E14 9AB,51.50192265,-0.025599786
Sainsburys Local NW1 9UJ,NW1 9UJ,51.54250593,-0.125862347
Tesco Express E14 3NX,E14 3NX,51.49937773,-0.009609103
Marks and Spencer BP CR2 8JH,CR2 8JH,51.35340332,-0.038093026
Sainsburys Local EC1R 4AE,EC1R 4AE,51.52805335,-0.104974366
Tesco Express RM10 8AJ,RM10 8AJ,51.54338105,0.165156516
Tesco Express SE1 7AA,SE1 7AA,51.49972034,-0.111976681
The Co-operative Food CR0 7NN,CR0 7NN,51.38562738,-0.040219627
Marks and Spencer BP TW5 0BT,TW5 0BT,51.47904051,-0.361911408
Tesco Express Esso EN3 5UT,EN3 5UT,51.66571033,-0.043029396
Sainsburys Local SW8 5BP,SW8 5BP,51.4815004,-0.138540222
Tesco Express Esso HA2 9DL,HA2 9DL,51.56478252,-0.366663747
Tesco Express Esso IG11 9BG,IG11 9BG,51.53340865,0.10555744
Tesco Express SW1P 2BW,SW1P 2BW,51.49654123,-0.130614162
Marks and Spencer BP SW20 8LR,SW20 8LR,51.40871959,-0.214274934
Sainsburys Local W3 6NR,W3 6NR,51.51505108,-0.268970219
Tesco Express Esso CR0 6AD,CR0 6AD,51.37935266,-0.083595214
Tesco Express Esso CR0 7ER,CR0 7ER,51.38156952,-0.062928611
Sainsburys Local E1 8NN,E1 8NN,51.51325374,-0.069898985
Sainsburys Local E1 8AA,E1 8AA,51.51335369,-0.073105943
Tesco Express E1 8AL,E1 8AL,51.5119556,-0.073450292
Tesco Express EC3A 7DH,EC3A 7DH,51.51449469,-0.07694846
The Co-operative Food SE9 2HB,SE9 2HB,51.44557,0.07773
Sainsburys Local SW12 8SY,SW12 8SY,51.4517548,-0.152880887
Waitrose W2 3HJ,W2 3HJ,51.51077453,-0.184029287
Tesco Express SE6 4LG,SE6 4LG,51.43567573,-0.034002903
The Co-operative Food SE16 4AU,SE16 4AU,51.49623008,-0.067633031
The Co-operative Food SE1 2DE,SE1 2DE,51.50030327,-0.073057067
Tesco Express E3 3QG,E3 3QG,51.51889864,-0.017088428
Tesco Express CR0 2JJ,CR0 2JJ,51.38669722,-0.096963489
The Co-operative Food SE4 2BN,SE4 2BN,51.45879857,-0.043876059
The Co-operative Food SE6 2RP,SE6 2RP,51.42902719,-0.013452006
Sainsburys Local SE6 4RE,SE6 4RE,51.44458589,-0.025577995
Sainsburys Local SE7 7AG,SE7 7AG,51.4866625,0.032367461
The Co-operative Food BR7 6AZ,BR7 6AZ,51.42104272,0.069044849
Sainsburys Local SW4 8EU,SW4 8EU,51.44945487,-0.131072366
Sainsburys Local EC1M 3HA,EC1M 3HA,51.5191535,-0.10575231
Tesco Express EC1V 4DU,EC1V 4DU,51.52391289,-0.102547735
Tesco Express NW9 5AA,NW9 5AA,51.59632061,-0.242919718
The Co-operative Food RM5 2PU,RM5 2PU,51.60533839,0.158182864
Tesco Express Esso UB8 2HL,UB8 2HL,51.52574233,-0.482372949
Sainsburys Local CR0 1QD,CR0 1QD,51.37175654,-0.100285473
Tesco Express CR9 2BY,CR9 2BY,51.3796582,-0.099382088
Tesco Express N1 3JE,N1 3JE,51.53810544,-0.085814632
Sainsburys Local SE8 3BU,SE8 3BU,51.4810545,-0.021889675
Sainsburys Local W5 4QT,W5 4QT,51.50225339,-0.306629192
Tesco Express E3 4LU,E3 4LU,51.52628608,-0.028354067
Tesco Express SE9 6SX,SE9 6SX,51.45973844,0.049237618
Marks and Spencer BP N12 0AP,N12 0AP,51.60102938,-0.174778944
Marks and Spencer BP RM11 3UJ,RM11 3UJ,51.57983022,0.240395044
Sainsburys Local SM6 7HW,SM6 7HW,51.37925625,-0.155753493
Tesco Express UB1 2QQ,UB1 2QQ,51.53185058,-0.372342634
Marks and Spencer BP UB6 8ST,UB6 8ST,51.53503492,-0.346639891
Sainsburys Local SE10 0FY,SE10 0FY,51.486013,0.009328732
The Co-operative Food SE10 0FE,SE10 0FE,51.48754793,0.002540428
Tesco Express SE5 0RW,SE5 0RW,51.47454476,-0.095060555
Tesco Express SE5 7EJ,SE5 7EJ,51.47789521,-0.081491616
Tesco Express Esso SE23 3PE,SE23 3PE,51.44081994,-0.059475106
Tesco Express SE10 0ES,SE10 0ES,51.50075768,0.006058587
The Co-operative Food SE10 0ER,SE10 0ER,51.49703974,0.011771928
Sainsburys Local E15 4JF,E15 4JF,51.5440532,0.013179184
Tesco Express E8 1LA,E8 1LA,51.5486304,-0.061238011
Marks and Spencer BP W6 8BJ,W6 8BJ,51.49064082,-0.218294065
Tesco Express W6 9LH,W6 9LH,51.48772673,-0.225934387
Tesco Express Esso EN8 7RS,EN8 7RS,51.68050388,-0.03444986
Tesco Express SW6 6BW,SW6 6BW,51.48134043,-0.212754963
Tesco Express TW13 6AH,TW13 6AH,51.44083159,-0.388304752
Budgens SW16 6SJ,SW16 6SJ,51.42511364,-0.148261472
Tesco Express HA1 4HS,HA1 4HS,51.58267389,-0.354008939
Marks and Spencer BP HA1 3BS,HA1 3BS,51.57897509,-0.341626735
Tesco Express UB3 4BH,UB3 4BH,51.50366304,-0.419622565
Tesco Express SE24 9QH,SE24 9QH,51.46233489,-0.098120598
Marks and Spencer BP TW5 9BA,TW5 9BA,51.47609614,-0.396056787
Sainsburys Local TW5 0PT,TW5 0PT,51.4803624,-0.373322955
Tesco Express E17 6JR,E17 6JR,51.58727999,-0.03703533
Sainsburys Local DA7 6HJ,DA7 6HJ,51.46695529,0.157986882
Tesco Express SM1 3EH,SM1 3EH,51.37534042,-0.193578574
Sainsburys Local EN4 0DB,EN4 0DB,51.64815075,-0.147979337
Tesco Express SE10 8EF,SE10 8EF,51.47397005,-0.020887798
Sainsburys Local N7 6LE,N7 6LE,51.56015259,-0.123418139
The Co-operative Food PFS N8 8SE,N8 8SE,51.58230497,-0.119803483
Sainsburys Local SW17 8BS,SW17 8BS,51.43535508,-0.157289849
The Co-operative Food N1 6SU,N1 6SU,51.53569944,-0.089132241
The Co-operative Food SW20 0AX,SW20 0AX,51.40957736,-0.231905705
Tesco Express E2 7QU,E2 7QU,51.52925244,-0.075509043
Tesco Express SE11 6HR,SE11 6HR,51.48960793,-0.111546332
Sainsburys Local E1 7HS,E1 7HS,51.5177536,-0.076344913
The Co-operative Food SE18 4LP,SE18 4LP,51.47266326,0.04590062
The Co-operative Food KT2 5JG,KT2 5JG,51.41916814,-0.293501828
Tesco Express E14 7LW,E14 7LW,51.51285815,-0.037977249
The Co-operative Food N7 9DF,N7 9DF,51.54767466,-0.125660982
Sainsburys Local N7 9BA,N7 9BA,51.54835289,-0.11826123
Sainsburys Local N7 9SU,N7 9SU,51.55345277,-0.113712368
Tesco Express W1U 8NN,W1U 8NN,51.51740966,-0.156563755
Marks and Spencer BP NW7 2PT,NW7 2PT,51.61546573,-0.242010009
The Co-operative Food PFS EC1V 1JQ,EC1V 1JQ,51.52929292,-0.094726179
Sainsburys Local SM4 5RL,SM4 5RL,51.3952243,-0.194122799
Tesco Express E14 9NA,E14 9NA,51.49777638,-0.018645311
Marks and Spencer BP SE9 4QN,SE9 4QN,51.43783396,0.043052805
Marks and Spencer BP EN5 1EQ,EN5 1EQ,51.6468599,-0.188688561
Sainsburys Local KT2 7AZ,KT2 7AZ,51.41265531,-0.283441202
Marks and Spencer BP W3 0TE,W3 0TE,51.52693413,-0.277700644
Tesco Express DA8 3PL,DA8 3PL,51.47331864,0.181550205
Sainsburys Local UB5 5HF,UB5 5HF,51.54623158,-0.37020251
Tesco Express UB2 5SE,UB2 5SE,51.49185842,-0.380965138
Marks and Spencer Hospital HA1 3UJ,HA1 3UJ,51.57540677,-0.321887505
Tesco Express EC1V 3AF,EC1V 3AF,51.52579911,-0.096644073
The Co-operative Food PFS N1 0SL,N1 0SL,51.53791148,-0.116929964
Sainsburys Local SW1W 8QN,SW1W 8QN,51.488154,-0.150681225
Marks and Spencer BP W5 4LR,W5 4LR,51.50103457,-0.286082443
The Co-operative Food SM6 9HG,SM6 9HG,51.35341038,-0.134563582
Sainsburys Local NW6 6RG,NW6 6RG,51.5373529,-0.206248367
The Co-operative Food NW6 6RG,NW6 6RG,51.53710078,-0.206145578
Asda PFS E1 5BW,E1 5BW,51.52215323,-0.064032042
Tesco Express HA8 5QH,HA8 5QH,51.59799946,-0.279866093
Tesco Express Esso HA7 1JN,HA7 1JN,51.59629761,-0.29418105
Marks and Spencer BP W6 9TQ,W6 9TQ,51.49111978,-0.238684104
Tesco Express Esso RM1 3BT,RM1 3BT,51.5821875,0.187059349
Sainsburys Local SE1 2HZ,SE1 2HZ,51.50310431,-0.077419241
Sainsburys Local SE16 7ED,SE16 7ED,51.49835401,-0.049518228
Tesco Express SE16 7UD,SE16 7UD,51.49271452,-0.037954032
The Co-operative Food SE16 5EF,SE16 5EF,51.50673816,-0.041651157
The Co-operative Food SE8 5EN,SE8 5EN,51.49091898,-0.039190297
Marks and Spencer BP HA4 7TW,HA4 7TW,51.58813537,-0.43656523
Tesco Express N1 9TT,N1 9TT,51.53167465,-0.112745188
Tesco Express IG2 7RX,IG2 7RX,51.56343755,0.082050036
Tesco Express Esso IG1 1XR,IG1 1XR,51.56001913,0.093457061
Tesco Express N7 8TP,N7 8TP,51.54929155,-0.117612385
Sainsburys Local E1 2PS,E1 2PS,51.51448396,-0.054416305
Sainsburys Local W12 9AX,W12 9AX,51.50175356,-0.241079584
Tesco Express N7 8GA,N7 8GA,51.55227245,-0.113379236
Sainsburys Local E1 6HT,E1 6HT,51.52405349,-0.073148876
Budgens DA8 2ED,DA8 2ED,51.47214598,0.190120508
Sainsburys Local E8 4RB,E8 4RB,51.53525322,-0.057502387
Sainsburys Local SE25 4PJ,SE25 4PJ,51.39585614,-0.069030187
Tesco Express SE1 0NZ,SE1 0NZ,51.5048791,-0.10124844
The Co-operative Food SE1 0DG,SE1 0DG,51.5004844,-0.09932246
Sainsburys Local SE1 8EZ,SE1 8EZ,51.50165392,-0.10432816
Sainsburys Local SE1 0UG,SE1 0UG,51.50485376,-0.101277303
Tesco Express N1 8SY,N1 8SY,51.53980887,-0.094125663
Tesco Express SE1 0AJ,SE1 0AJ,51.4992424,-0.100411507
Tesco Express SE28 0NY,SE28 0NY,51.49893819,0.090199246
Sainsburys Local E1 4PE,E1 4PE,51.52285364,-0.039725633
Tesco Express SW9 6BD,SW9 6BD,51.47663864,-0.112925194
Tesco Express SW99 0HP,SW99 0HP,51.47599891,-0.118095539
Tesco Express Esso SW9 7AA,SW9 7AA,51.46872648,-0.113225611
Tesco Express E15 2NE,E15 2NE,51.53523145,-0.006267463
Tesco Express E15 4EH,E15 4EH,51.54320844,0.011841916
Marks and Spencer BP BR7 6HB,BR7 6HB,51.41780563,0.092076616
Tesco Express HA0 2LL,HA0 2LL,51.55349866,-0.314743813
Tesco Express Esso SW2 2QB,SW2 2QB,51.44785169,-0.112601777
Tesco Express SM1 4QW,SM1 4QW,51.36549724,-0.185304396
Tesco Express NW6 4RY,NW6 4RY,51.54204397,-0.178885292
The Co-operative Food NW3 3RA,NW3 3RA,51.5429352,-0.166684102
Marks and Spencer Hospital CR7 7YE,CR7 7YE,51.3889478,-0.109689381
Sainsburys Local SE1 4YF,SE1 4YF,51.49746599,-0.089957493
Sainsburys Local SE1 3UN,SE1 3UN,51.497454,-0.080504741
Sainsburys Local KT6 7AZ,KT6 7AZ,51.38315587,-0.288730925
Marks and Spencer Simply Food SW17 0QT,SW17 0QT,51.42574751,-0.175612591
Sainsburys Local SW17 9NN,SW17 9NN,51.42315534,-0.16109661
Tesco Express N17 9NE,N17 9NE,51.58854753,-0.059314263
Tesco Express Esso E17 9DZ,E17 9DZ,51.57882772,-0.006962223
The Co-operative Food PFS E17 4JD,E17 4JD,51.59149971,-0.007014822
Tesco Express NW10 8LT,NW10 8LT,51.54145044,-0.26054864
Tesco Express SW8 2JW,SW8 2JW,51.48508549,-0.12614991
Sainsburys Local SW1P 1BT,SW1P 1BT,51.49620287,-0.135389266
Marks and Spencer BP CR0 3RN,CR0 3RN,51.37899278,-0.111217658
Sainsburys Local SM6 0AT,SM6 0AT,51.36095671,-0.149972489
The Co-operative Food PFS E17 8BQ,E17 8BQ,51.57587263,-0.030116153
Sainsburys Local SW18 1GE,SW18 1GE,51.46117902,-0.196156517
Tesco Express SW18 1TW,SW18 1TW,51.46363538,-0.186123334
Marks and Spencer BP BR1 3AX,BR1 3AX,51.40690514,0.028361304
Marks and Spencer BP NW9 8SD,NW9 8SD,51.56501664,-0.264474676
Sainsburys Local HA9 0NP,HA9 0NP,51.55919349,-0.281329485
Sainsburys Local UB7 9GL,UB7 9GL,51.50458508,-0.458816172
Tesco Express UB7 7SF,UB7 7SF,51.50301028,-0.466445163
Tesco Express SW16 3JG,SW16 3JG,51.42291359,-0.106755888
Sainsburys Local W12 7DH,W12 7DH,51.5109809,-0.235197978
Sainsburys Local SW19 8DZ,SW19 8DZ,51.43905495,-0.197757057
Tesco Express Esso N21 2SA,N21 2SA,51.63315599,-0.093776438
Asda PFS N17 7LY,N17 7LY,51.60655715,-0.091142297
Tesco Express N22 8JD,N22 8JD,51.60692851,-0.11136947
Tesco Express SE18 6TF,SE18 6TF,51.49272963,0.07119046
Sainsburys Local SE18 6FL,SE18 6FL,51.49169931,0.07044036
Marks and Spencer BP KT17 2PT,KT17 2PT,51.35427747,-0.244854153
Tesco Express E5 0QJ,E5 0QJ,51.55520549,-0.054361809
The Co-operative Food PFS SW8 3LT,SW8 3LT,51.46903104,-0.142625756
The Co-operative Food PFS SW15 3DX,SW15 3DX,51.44013305,-0.245029289
The Co-operative Food EN1 1XH,EN1 1XH,51.64288547,-0.066304103
Tesco Express E1 6BF,E1 6BF,51.51532871,-0.072316509
Marks and Spencer BP SE9 2NL,SE9 2NL,51.45114106,0.080226274
The Co-operative Food E3 4QS,E3 4QS,51.52492646,-0.035468247
The Co-operative Food E17 5DT,E17 5DT,51.59973828,-0.026603329
The Co-operative Food SW19 8GT,SW19 8GT,51.428873,-0.190372283
The Co-operative Food SW9 6AQ,SW9 6AQ,51.47158696,-0.112219532
The Co-operative Food TW1 3AW,TW1 3AW,51.4495868,-0.323028514
The Co-operative Food CR0 2BX,CR0 2BX,51.37660384,-0.096046851
Sainsburys Local SE1 8XA,SE1 8XA,51.49582428,-0.074219585
Sainsburys Local CR0 0XT,CR0 0XT,51.37500286,-0.091064795
Sainsburys Local UB3 3HJ,UB3 3HJ,51.51143711,-0.412718031
Sainsburys Local SE1 4PN,SE1 4PN,51.49943533,-0.085833566
Sainsburys Local NW9 5ZN,NW9 5ZN,51.59700738,-0.245290126
Sainsburys Local CR7 6BB,CR7 6BB,51.39175863,-0.119081544
Sainsburys Local SE15 7DJ,SE15 7DJ,51.46432615,-0.015438816
Tesco Express N15 3QR,N15 3QR,51.58632085,-0.0914155
Marks and Spencer Hospital SM5 1AA,SM5 1AA,51.38015319,-0.183383591
The Co-operative Food E16 2QJ,E16 2QJ,51.50620548,0.076499772
Marks and Spencer BP EN4 0DZ,EN4 0DZ,51.65215988,-0.150049676
The Co-operative Food NW9 5HE,NW9 5HE,51.59476236,-0.249981362
The Co-operative Food NW2 2DT,NW2 2DT,51.56018954,-0.208676246
Marks and Spencer Food To Go E1 6EG,E1 6EG,51.51973765,-0.077141297
The Co-operative Food RM2 5TD,RM2 5TD,51.57707614,0.207660837
Asda PFS UB5 5AW,UB5 5AW,51.54317267,-0.379923944
Tesco Express TW7 4HL,TW7 4HL,51.47496224,-0.343994317
Sainsburys Local SE5 8UH,SE5 8UH,51.47389623,-0.080998702
Sainsburys Local SE15 2EZ,SE15 2EZ,51.47413518,-0.060821324
Sainsburys Local TW11 8HU,TW11 8HU,51.42758748,-0.325784554
Marks and Spencer Hospital SE5 9RS,SE5 9RS,51.46788845,-0.09350544
Sainsburys Local NW9 5WU,NW9 5WU,51.59539787,-0.250705011
Sainsburys Local W3 6UP,W3 6UP,51.52331799,-0.260755127
Sainsburys Local KT1 2EQ,KT1 2EQ,51.40222777,-0.304264924
Sainsburys Local E16 2PG,E16 2PG,51.50060608,0.029674227
Tesco Express SE10 9SW,SE10 9SW,51.48129448,-0.011408822
Marks and Spencer Hospital E11 1NR,E11 1NR,51.57627897,0.004103145
Marks and Spencer Simply Food TW7 6AF,TW7 6AF,51.4734867,-0.325185631
Morrisons E16 1ED,E16 1ED,51.51496339,0.010649896
The Co-operative Food HA9 0FR,HA9 0FR,51.55897735,-0.278894964
The Co-operative Food W2 1BF,W2 1BF,51.51912122,-0.171201431
The Co-operative Food W4 5RP,W4 5RP,51.49270942,-0.274921131
Budgens E16 1HU,E16 1HU,51.51296549,0.011897305
Budgens KT3 6HF,KT3 6HF,51.39869257,-0.243632075
Marks and Spencer BP N11 1NH,N11 1NH,51.6170906,-0.141681694
Sainsburys Local TW8 0ES,TW8 0ES,51.48865372,-0.288128593
Sainsburys Local TW8 0GB,TW8 0GB,51.49055505,-0.302561837
The Co-operative Food TW8 9GB,TW8 9GB,51.4889717,-0.314290987
Tesco Express Esso HA8 8AF,HA8 8AF,51.6218008,-0.291772143
Tesco Express Esso SW10 9UZ,SW10 9UZ,51.48268268,-0.185982933
Marks and Spencer Simply Food SE1 7EH,SE1 7EH,51.49889114,-0.118046849
Sainsburys Local SW15 6JP,SW15 6JP,51.46405391,-0.233045767
Tesco Express TW4 5LF,TW4 5LF,51.4573648,-0.372563459
Tesco Express SE20 7TY,SE20 7TY,51.40558746,-0.06511615
Tesco Express SW5 9JF,SW5 9JF,51.48855385,-0.192994055
Spar PFS TW14 0HW,TW14 0HW,51.45857999,-0.402504887
Marks and Spencer Foodhall SE1 7ND,SE1 7ND,51.50303779,-0.116146951
Marks and Spencer Food To Go TW1 1BD,TW1 1BD,51.45011267,-0.330547818
Tesco Express HA5 5JX,HA5 5JX,51.58524826,-0.380463273
The Co-operative Food N1C 4PF,N1C 4PF,51.5378441,-0.130722107
Lidl NW1 3AA,NW1 3AA,51.52422896,-0.137318839
Sainsburys Local W1T 3JG,W1T 3JG,51.51815342,-0.138592717
Lidl E6 5YA,E6 5YA,51.51580741,0.054206145
Aldi CR5 2NH,CR5 2NH,51.32094827,-0.137721353
Asda Supermarket E5 9AG,E5 9AG,51.57360689,-0.071037681
Budgens KT19 0SH,KT19 0SH,51.36440329,-0.257934754
Lidl SE17 1TY,SE17 1TY,51.49205913,-0.083406311
Budgens UB5 6LN,UB5 6LN,51.53638382,-0.392242527
Lidl EN3 6PS,EN3 6PS,51.67193575,-0.041409277
Tesco Express SW17 0PZ,SW17 0PZ,51.43579833,-0.17715584
Lidl SE2 9RQ,SE2 9RQ,51.49591478,0.119005535
Lidl RM8 2DB,RM8 2DB,51.55203192,0.11333592
Marks and Spencer Simply Food NW3 2PS,NW3 2PS,51.55384608,-0.165011581
The Co-operative Food DA15 9PS,DA15 9PS,51.45106727,0.104566549
Asda Supermarket DA6 8EQ,DA6 8EQ,51.45833044,0.130133391
Sainsburys Local SW2 1QW,SW2 1QW,51.45535483,-0.119538591
Tesco SW4 9DE,SW4 9DE,51.45298422,-0.146417158
Tesco Metro W3 7XA,W3 7XA,51.50643648,-0.248827908
Aldi EN4 8SL,EN4 8SL,51.64461953,-0.163850499
Lidl KT9 2HY,KT9 2HY,51.36069521,-0.310279296
Lidl NW2 6ND,NW2 6ND,51.56247108,-0.220590612
Little Waitrose SW15 2TD,SW15 2TD,51.45937858,-0.211465507
Tesco RM12 5AF,RM12 5AF,51.54379173,0.208288452
Lidl SE8 5AW,SE8 5AW,51.48978383,-0.043837645
Little Waitrose TW12 2HQ,TW12 2HQ,51.41557752,-0.373598566
Sainsburys TW12 3YH,TW12 3YH,51.42643984,-0.377600018
Lidl E9 7QX,E9 7QX,51.54075513,-0.053882658
The Co-operative Food W11 4BU,W11 4BU,51.51074063,-0.21645885
The Co-operative Food W10 8UG,W10 8UG,51.51312391,-0.217920538
Aldi TW3 3HY,TW3 3HY,51.46762917,-0.372083122
Tesco Express TW3 3JS,TW3 3JS,51.46736157,-0.366903904
Aldi SE3 9PP,SE3 9PP,51.46388579,0.029227128
Lidl SE13 5PT,SE13 5PT,51.46050195,-0.005389854
Lidl E14 7DL,E14 7DL,51.51458666,-0.028776299
Marks and Spencer W2 1DU,W2 1DU,51.51957556,-0.168973809
The Co-operative Food BR1 5HR,BR1 5HR,51.42711862,0.01237503
The Co-operative Food E14 9LQ,E14 9LQ,51.4988233,-0.021603948
Lidl CR4 3ED,CR4 3ED,51.40580875,-0.166232397
Budgens N10 1QB,N10 1QB,51.59524341,-0.145282392
Lidl SW16 3LH,SW16 3LH,51.41435157,-0.123759466
Lidl UB5 5PQ,UB5 5PQ,51.53523313,-0.390056194
Waitrose SW6 4TH,SW6 4TH,51.47417704,-0.200915722
The Food Warehouse SE15 1NZ,SE15 1NZ,51.48019753,-0.057463169
Iceland E13 8QB,E13 8QB,51.52372417,0.02607068
Marks and Spencer Foodhall NW6 6BF,NW6 6BF,51.5337021,-0.203805081
Iceland RM7 9NA,RM7 9NA,51.57480872,0.164264967
Tesco Metro SE16 4BA,SE16 4BA,51.49823823,-0.06972789
Tesco W1D 3RF,W1D 3RF,51.51560854,-0.133488693
Sainsburys SW2 2TP,SW2 2TP,51.45480176,-0.113933689
Lidl UB8 2AG,UB8 2AG,51.53535908,-0.482868945
Lidl SW9 0QE,SW9 0QE,51.47350454,-0.120421772
Budgens CR0 4RE,CR0 4RE,51.36422148,-0.11857816
Budgens SW2 4PB,SW2 4PB,51.43909604,-0.129948711
Budgens HA0 2SF,HA0 2SF,51.55933437,-0.328108586
Tesco Express SW6 2TW,SW6 2TW,51.47411104,-0.182940516
Lidl SW17 9HW,SW17 9HW,51.41970085,-0.163828001
Iceland E8 1HY,E8 1HY,51.54694946,-0.055519275
Lidl DA16 3HF,DA16 3HF,51.46437961,0.107500058
Tesco Metro E1 1ES,E1 1ES,51.51672043,-0.066238336
Lidl SE6 4DD,SE6 4DD,51.42633747,-0.026329955
Iceland N22 6TN,N22 6TN,51.59401508,-0.111109663
Lidl SE18 6LW,SE18 6LW,51.49268714,0.065926904
Marks and Spencer Foodhall SE18 6FL,SE18 6FL,51.4916489,0.07091233
Lidl CR4 2AD,CR4 2AD,51.4117,-0.158799988
Lidl KT3 4AH,KT3 4AH,51.40020725,-0.25396761
Aldi SE15 1NQ,SE15 1NQ,51.47876142,-0.055677389
Lidl SE15 5BA,SE15 5BA,51.47247509,-0.071330073
Sainsburys N21 1UJ,N21 1UJ,51.645813,-0.111100194
Budgens RM7 9QA,RM7 9QA,51.57515688,0.17565754
Waitrose SW20 0BS,SW20 0BS,51.40929013,-0.233315921
Lidl IG6 2SU,IG6 2SU,51.60364339,0.084876525
Little Waitrose EC4N 8AF,EC4N 8AF,51.51204191,-0.09023016
Sainsburys Local WC2H 0NE,WC2H 0NE,51.51217362,-0.128719013
The Co-operative Food N7 7BQ,N7 7BQ,51.5532567,-0.109700281
Budgens E6 3RR,E6 3RR,51.52419115,0.057138773
The Co-operative Food SW11 3SE,SW11 3SE,51.46571258,-0.181596165
The Co-operative Food KT3 5PN,KT3 5PN,51.38495912,-0.26237011
The Co-operative Food NW1 4SA,NW1 4SA,51.52521727,-0.160090682
The Co-operative Food SE12 9HT,SE12 9HT,51.44857762,0.013404062
Asda Supermarket SE13 7SD,SE13 7SD,51.46523905,-0.016817439
Sainsburys SE1 6TJ,SE1 6TJ,51.49443642,-0.097673644
Budgens RM3 0AB,RM3 0AB,51.59739971,0.217026515
Budgens SW2 4PB,SW2 4PB,51.43269697,-0.117153053
The Co-operative Food E5 8HH,E5 8HH,51.54971666,-0.058157106
Lidl RM3 8AE,RM3 8AE,51.60583174,0.224285062
Lidl DA17 6FB,DA17 6FB,51.4967,0.156300013
Lidl TW14 9BG,TW14 9BG,51.44830296,-0.409553277
Waitrose BR3 1SD,BR3 1SD,51.41162744,-0.026376825
Tesco EN1 1RT,EN1 1RT,51.65102458,-0.076774916
Costco E4 8GP,E4 8GP,51.60921095,-0.031683246
Tesco TW13 4EX,TW13 4EX,51.44373864,-0.413203208
Waitrose SW12 9BN,SW12 9BN,51.44565247,-0.151753261
Tesco IG6 1HY,IG6 1HY,51.5860213,0.081916303
Morrisons RM10 7RA,RM10 7RA,51.55947207,0.148410138
Tesco Metro E3 5GS,E3 5GS,51.53258873,-0.029217939
Sainsburys E4 8HH,E4 8HH,51.61655259,-0.019322393
Waitrose SE10 9DD,SE10 9DD,51.48205332,-0.01561006
Tesco W6 7NL,W6 7NL,51.4977101,-0.224131151
Waitrose BR2 9HD,BR2 9HD,51.39900312,0.019348765
Sainsburys SW17 0RN,SW17 0RN,51.42709637,-0.168052283
Tesco W14 8PB,W14 8PB,51.4929032,-0.201930824
Tesco E9 6ND,E9 6ND,51.54693593,-0.052746338
Lidl UB3 2BN,UB3 2BN,51.50884448,-0.420285133
Sainsburys N8 7SA,N8 7SA,51.58839914,-0.116870917
Tesco SE11 5QU,SE11 5QU,51.4865716,-0.115398304
Sainsburys IG1 2AA,IG1 2AA,51.55650419,0.069892678
Tesco E3 3DA,E3 3DA,51.52659759,-0.009766121
Tesco N3 1XP,N3 1XP,51.60324283,-0.192174686
Tesco SE13 7PY,SE13 7PY,51.46639378,-0.012568514
Waitrose NW7 1GU,NW7 1GU,51.60724265,-0.209071441
Lidl SW16 5HX,SW16 5HX,51.41118212,-0.139293417
Asda Supermarket CR4 3EB,CR4 3EB,51.40743839,-0.16829079
Asda Supermarket KT2 6QL,KT2 6QL,51.41123105,-0.290101279
Sainsburys W13 9BZ,W13 9BZ,51.5092539,-0.325405308
Morrisons N13 4YD,N13 4YD,51.61761215,-0.110494627
Tesco HA5 2AG,HA5 2AG,51.59699639,-0.395446426
Aldi RM7 8AD,RM7 8AD,51.58165661,0.163286512
Sainsburys CR2 8LA,CR2 8LA,51.34235377,-0.062829918
Aldi SE25 5AJ,SE25 5AJ,51.39771672,-0.076541391
Lidl HA4 0QQ,HA4 0QQ,51.55675564,-0.393930302
Tesco N15 4AJ,N15 4AJ,51.58479177,-0.071367008
Morrisons N16 5SR,N16 5SR,51.56667529,-0.073764254
Tesco IG11 7BS,IG11 7BS,51.53640956,0.070802036
Tesco BR1 2UE,BR1 2UE,51.40002468,0.031622302
Waitrose SW19 7JY,SW19 7JY,51.42503323,-0.201791878
Sainsburys SE18 6QW,SE18 6QW,51.49113103,0.063567667
Tesco SW2 5RS,SW2 5RS,51.45985939,-0.119593848
Waitrose SW8 5DN,SW8 5DN,51.4825497,-0.134353163
Morrisons DA14 6BF,DA14 6BF,51.42492217,0.102964889
Morrisons NW9 9RL,NW9 9RL,51.5919331,-0.284614806
Morrisons TW8 0JG,TW8 0JG,51.48383747,-0.305712193
Sainsburys HA7 4DA,HA7 4DA,51.61708876,-0.310966885
Sainsburys W4 5UT,W4 5UT,51.49348589,-0.265091005
Sainsburys SW6 2GD,SW6 2GD,51.46748884,-0.187237776
Sainsburys NW9 6JX,NW9 6JX,51.58181585,-0.243963792
Sainsburys SE2 9NU,SE2 9NU,51.49242051,0.120662091
Asda Superstore IG11 8FJ,IG11 8FJ,51.53725377,0.077209996
Asda Superstore CR0 4XS,CR0 4XS,51.37685924,-0.130176509
Makro CR0 4UQ,CR0 4UQ,51.37489643,-0.123693079
Lidl DA6 7LN,DA6 7LN,51.45573298,0.152371171
Makro SE7 7RZ,SE7 7RZ,51.48863949,0.029396276
Asda Superstore N9 0AL,N9 0AL,51.62249022,-0.059573488
Sainsburys DA1 4HW,DA1 4HW,51.44915928,0.178949245
Sainsburys SW7 4EJ,SW7 4EJ,51.4952854,-0.188439256
Tesco BR3 4AA,BR3 4AA,51.39670317,-0.050235779
Sainsburys N4 1UJ,N4 1UJ,51.57725524,-0.095542832
Morrisons HA1 4HX,HA1 4HX,51.58051293,-0.344735038
Morrisons HA5 4QT,HA5 4QT,51.60804241,-0.364910255
Sainsburys HA0 1PF,HA0 1PF,51.53878272,-0.303369751
Sainsburys SE22 8BB,SE22 8BB,51.46202567,-0.085112871
Morrisons DA8 2AH,DA8 2AH,51.48014249,0.184616893
Tesco DA14 5BN,DA14 5BN,51.41254379,0.122643941
Tesco Extra TW7 7JY,TW7 7JY,51.45897848,-0.337466114
Sainsburys E6 6JF,E6 6JF,51.52142187,0.065908501
Sainsburys TW9 4LT,TW9 4LT,51.46662537,-0.286481849
Sainsburys TW12 1AW,TW12 1AW,51.43419434,-0.375224866
Sainsburys HA3 0JA,HA3 0JA,51.5814776,-0.3152031
Sainsburys KT2 5NZ,KT2 5NZ,51.41571683,-0.303011607
Sainsburys SW8 2LF,SW8 2LF,51.48064106,-0.128240112
Tesco E11 1HT,E11 1HT,51.57182287,0.013846138
Sainsburys N1 0RW,N1 0RW,51.53422235,-0.107533567
Asda Superstore E14 3BT,E14 3BT,51.49394694,-0.013096872
Spar UB6 9RP,UB6 9RP,51.53236797,-0.371025571
Sainsburys SE7 7SA,SE7 7SA,51.48919085,0.026389576
Tesco Extra RM11 1PY,RM11 1PY,51.56585398,0.191840174
Makro NW10 6DD,NW10 6DD,51.52912101,-0.252916467
Costco UB2 5XX,UB2 5XX,51.49699125,-0.402695387
Asda Superstore SW15 3DT,SW15 3DT,51.43964929,-0.245882997
Sainsburys EN4 8RQ,EN4 8RQ,51.64949783,-0.171760191
Sainsburys SM3 9AA,SM3 9AA,51.3718042,-0.224839475
Tesco UB6 8DW,UB6 8DW,51.53386994,-0.318778091
Morrisons NW1 8AA,NW1 8AA,51.54127425,-0.149619339
Tesco Extra CR8 2HA,CR8 2HA,51.33693281,-0.117033726
Tesco Extra RM13 9YZ,RM13 9YZ,51.52007385,0.190736656
Morrisons E4 8SA,E4 8SA,51.60759111,-0.021861029
Sainsburys E4 8ST,E4 8ST,51.60418624,-0.020893596
Sainsburys SW16 3PY,SW16 3PY,51.41964573,-0.129255865
Tesco Extra SW16 6HP,SW16 6HP,51.42484134,-0.131573899
Tesco CR7 8RX,CR7 8RX,51.39909762,-0.099633313
Tesco Extra KT3 4PJ,KT3 4PJ,51.40233344,-0.240014623
Morrisons CR0 4NZ,CR0 4NZ,51.36481852,-0.120269164
Tesco DA16 1TH,DA16 1TH,51.46161214,0.10987476
Asda Superstore HA9 9EX,HA9 9EX,51.56474431,-0.275787002
Sainsburys E1 5SD,E1 5SD,51.52116635,-0.05863264
Sainsburys N21 3RS,N21 3RS,51.62940423,-0.098431093
Tesco Extra SE18 6HQ,SE18 6HQ,51.48855352,0.065288733
Tesco UB7 7XL,UB7 7XL,51.51562548,-0.477323917
Sainsburys N17 0TX,N17 0TX,51.605089,-0.066521206
Sainsburys W10 5AA,W10 5AA,51.52631629,-0.217654612
Tesco Extra N12 0SH,N12 0SH,51.607166,-0.154773661
Costco HA9 0YJ,HA9 0YJ,51.55624621,-0.272270843
Asda Superstore UB3 4AZ,UB3 4AZ,51.50068801,-0.425596855
Sainsburys UB8 1QW,UB8 1QW,51.54866128,-0.474676946
Tesco NW2 1LZ,NW2 1LZ,51.57429133,-0.21481143
Asda Superstore DA17 6DF,DA17 6DF,51.4915343,0.154406432
Tesco Extra TW7 5NZ,TW7 5NZ,51.48569861,-0.330142774
Tesco TW14 0LH,TW14 0LH,51.45930565,-0.414983686
Tesco Metro WC2E 9EQ,WC2E 9EQ,51.51100534,-0.125205132
Sainsburys Local CR0 1PE,CR0 1PE,51.37405646,-0.096314554
Tesco Express CR0 1LA,CR0 1LA,51.37376916,-0.098685594
Lidl CR0 2RF,CR0 2RF,51.3806933,-0.105691933
Sainsburys CR0 1UP,CR0 1UP,51.37659569,-0.100433592
Iceland CR0 1RG,CR0 1RG,51.37324328,-0.102203276
Lidl CR0 1RB,CR0 1RB,51.37378151,-0.103636665
Sainsburys Local CR0 2RE,CR0 2RE,51.3787564,-0.103593439
Waitrose CR0 1LG,CR0 1LG,51.37451892,-0.096041191
Marks and Spencer CR9 1SH,CR9 1SH,51.3775431,-0.101522514
Tesco Express KT2 5EB,KT2 5EB,51.41247687,-0.300506355
Sainsburys KT1 1BU,KT1 1BU,51.40971132,-0.303405819
Aldi KT1 1DF,KT1 1DF,51.41028069,-0.301207297
Waitrose KT1 1TG,KT1 1TG,51.4112864,-0.306075015
Marks and Spencer KT1 1NU,KT1 1NU,51.41020865,-0.304022943
Sainsburys Local BR1 1LE,BR1 1LE,51.40116382,0.016749926
Tesco Express BR1 1LF,BR1 1LF,51.40046054,0.017347009
Lidl BR1 1EZ,BR1 1EZ,51.4043,0.014800013
Iceland BR1 1TR,BR1 1TR,51.40251121,0.017418272
Sainsburys BR1 1TP,BR1 1TP,51.40661309,0.014435196
Marks and Spencer BR1 1JL,BR1 1JL,51.4039752,0.015832691
The Co-operative Food RM1 1SS,RM1 1SS,51.57529113,0.182940297
Tesco Express RM1 1RX,RM1 1RX,51.5762321,0.181958254
Aldi RM1 3AB,RM1 3AB,51.58004588,0.182198833
Iceland RM1 3AB,RM1 3AB,51.57975285,0.181892077
Lidl RM1 1TB,RM1 1TB,51.57378986,0.183145342
Marks and Spencer RM1 1NT,RM1 1NT,51.5774779,0.181923105
Sainsburys RM1 1AU,RM1 1AU,51.57491518,0.179965448
Asda Superstore RM1 3EE,RM1 3EE,51.57947253,0.185560239
Tesco Express Esso SE12 8BL,SE12 8BL,51.45069219,0.029711418
The Co-operative Food PFS E3 2AN,E3 2AN,51.52803834,-0.021906275
Lidl SE7 7ST,SE7 7ST,51.48969709,0.024828077
Marks and Spencer SE7 7FA,SE7 7FA,51.48818443,0.024835931
Aldi SE7 7FR,SE7 7FR,51.49086079,0.022353155
Tesco Express IG7 4DN,IG7 4DN,51.60840573,0.106176212
Marks and Spencer Travel SF WC2N 5HS,WC2N 5HS,51.50797555,-0.124640545
Sainsburys Local KT6 6AW,KT6 6AW,51.38897865,-0.297412688
Marks and Spencer BP CR0 8SS,CR0 8SS,51.37637632,-0.05893798
Asda Supermarket E1 4UJ,E1 4UJ,51.52207541,-0.050142904
The Co-operative Food W7 1JH,W7 1JH,51.52270346,-0.34002129
Asda Supermarket HA2 8JN,HA2 8JN,51.55776485,-0.360880583
Spar TW14 8RD,TW14 8RD,51.44836488,-0.44751601
Asda Supermarket TW7 7DY,TW7 7DY,51.45929095,-0.331988378
Sainsburys Local NW1 3DP,NW1 3DP,51.52595328,-0.138861658
Budgens EN1 4SB,EN1 4SB,51.68042093,-0.048611267
Tesco Express CR0 3PB,CR0 3PB,51.3857888,-0.110511573
Marks and Spencer BP UB10 0LQ,UB10 0LQ,51.53279921,-0.451934004
Tesco Express E10 5NA,E10 5NA,51.56189413,-0.010607754
Sainsburys Local E10 5QN,E10 5QN,51.55965288,-0.008835546
Budgens N1 1RL,N1 1RL,51.5435342,-0.10365345
Iceland RM8 1FB,RM8 1FB,51.56215329,0.147873842
Sainsburys Local SW19 6NL,SW19 6NL,51.4444548,-0.20715284
Tesco Express SW18 5LS,SW18 5LS,51.44464411,-0.205067899
Marks and Spencer Simply Food SW18 5RJ,SW18 5RJ,51.44530239,-0.20558648
Sainsburys Local SW13 9LW,SW13 9LW,51.47355408,-0.249008287
Marks and Spencer Foodhall SW13 9LW,SW13 9LW,51.47349139,-0.250230754
Sainsburys Local NW1 8AN,NW1 8AN,51.54345291,-0.151168674
Iceland CR2 8LD,CR2 8LD,51.34373361,-0.061838574
Aldi CR2 8LE,CR2 8LE,51.34493662,-0.059131614
Iceland DA8 1SE,DA8 1SE,51.48046773,0.180648175
Farmfoods DA8 1TA,DA8 1TA,51.47971522,0.179631638
Sainsburys Local RM12 4RX,RM12 4RX,51.55105368,0.198425609
Tesco Express RM12 4SB,RM12 4SB,51.55143868,0.199513484
The Co-operative Food RM12 5AB,RM12 5AB,51.5488984,0.199226027
Tesco Express N16 9BS,N16 9BS,51.55261923,-0.08757017
Budgens SE5 9PZ,SE5 9PZ,51.46926263,-0.097724543
Tesco Express TW1 1RG,TW1 1RG,51.45552332,-0.320637382
Tesco Express HA2 6EH,HA2 6EH,51.58823792,-0.363142361
The Co-operative Food SW6 4LX,SW6 4LX,51.47233436,-0.203460167
Sainsburys Local EC1Y 1BD,EC1Y 1BD,51.52485348,-0.087385752
Marks and Spencer Simply Food EC1V 9QN,EC1V 9QN,51.52563645,-0.089969214
The Co-operative Food EC1V 9NP,EC1V 9NP,51.52569291,-0.090523696
The Co-operative Food E2 9NN,E2 9NN,51.53236372,-0.056738154
Tesco Express E2 9EG,E2 9EG,51.53210352,-0.059308546
Tesco Metro SE1 2TH,SE1 2TH,51.5043015,-0.0816428
Iceland SE18 1JQ,SE18 1JQ,51.48728637,0.092393309
Marks and Spencer Simply Food SE1 2DA,SE1 2DA,51.50513357,-0.08292878
Tesco Express UB4 0RU,UB4 0RU,51.52045869,-0.414523967
Lidl UB4 0SB,UB4 0SB,51.5189594,-0.40965314
Tesco Express SW7 4SS,SW7 4SS,51.49437753,-0.182262517
Waitrose SW7 4SF,SW7 4SF,51.49467825,-0.183452599
Sainsburys Local SW17 7EF,SW17 7EF,51.44415494,-0.167459641
Sainsburys Local IG8 0HQ,IG8 0HQ,51.60795205,0.033746439
The Co-operative Food IG8 0DY,IG8 0DY,51.60708517,0.032259435
Tesco Express NW10 5RP,NW10 5RP,51.53359321,-0.219253714
Tesco Express E11 4PB,E11 4PB,51.56081892,0.008040421
The Co-operative Food N12 0LH,N12 0LH,51.61215706,-0.159594148
Tesco Express N11 3LX,N11 3LX,51.613174,-0.158967831
Tesco Express SE18 1PP,SE18 1PP,51.48682374,0.090665813
Tesco Express HA5 4JN,HA5 4JN,51.60794926,-0.372534303
Tesco Express E7 8LT,E7 8LT,51.5407925,0.038851571
Tesco Extra SM1 2NB,SM1 2NB,51.3752093,-0.206660948
Iceland E16 1EN,E16 1EN,51.51770931,0.012951992
The Co-operative Food SE27 9AU,SE27 9AU,51.43997085,-0.106501608
Sainsburys Local EN2 0BX,EN2 0BX,51.66357236,-0.079686487
The Co-operative Food EN2 0JW,EN2 0JW,51.6638518,-0.08183047
The Co-operative Food EN2 0JH,EN2 0JH,51.66371718,-0.08617357
Sainsburys Local TW7 4BZ,TW7 4BZ,51.47497068,-0.33836765
Waitrose SW1X 8GG,SW1X 8GG,51.49896776,-0.156866379
Tesco Express SW11 2PJ,SW11 2PJ,51.4693818,-0.171027787
Tesco E4 9EF,E4 9EF,51.6081317,-0.001653792
Tesco Express SW2 8JU,SW2 8JU,51.47534576,-0.132023998
Tesco Express DA15 9LU,DA15 9LU,51.45020837,0.104095188
Tesco Express IG8 9FB,IG8 9FB,51.59995133,0.01978606
Sainsburys N16 5LW,N16 5LW,51.57324325,-0.073419928
The Co-operative Food SW6 7PS,SW6 7PS,51.48276456,-0.213363971
Sainsburys Local W6 7PH,W6 7PH,51.50114257,-0.222300888
Tesco Express DA8 3HD,DA8 3HD,51.47428619,0.162381966
Sainsburys Local W10 6HJ,W10 6HJ,51.51785322,-0.21050534
Tesco Express W10 6HH,W10 6HH,51.5183359,-0.210969274
The Co-operative Food SW6 4HU,SW6 4HU,51.47490941,-0.20094248
Tesco Express W9 1SY,W9 1SY,51.52532804,-0.179471431
Budgens NW3 4QG,NW3 4QG,51.55067191,-0.16573458
Tesco Metro E9 6QU,E9 6QU,51.54299866,-0.04769496
Marks and Spencer BP DA14 5AD,DA14 5AD,51.41443572,0.125239419
Sainsburys Local BR2 7EQ,BR2 7EQ,51.37725677,0.011108203
Iceland BR2 7EH,BR2 7EH,51.37753671,0.009809388
The Co-operative Food BR2 9QN,BR2 9QN,51.39315724,0.034034828
Aldi SE26 4PU,SE26 4PU,51.43168283,-0.035133357
Sainsburys SE26 4PU,SE26 4PU,51.43017855,-0.033274022
Tesco Express HA9 0EW,HA9 0EW,51.55749003,-0.285395408
Marks and Spencer Outlet HA9 0TG,HA9 0TG,51.55708027,-0.28495338
Tesco Express RM10 7YA,RM10 7YA,51.55163525,0.152723983
Sainsburys Local W13 9QU,W13 9QU,51.50004784,-0.31494595
Sainsburys Local N1 2NA,N1 2NA,51.54605804,-0.101157555
Sainsburys Local SW4 0JQ,SW4 0JQ,51.46365492,-0.140881291
The Co-operative Food HA8 9QW,HA8 9QW,51.61697924,-0.261331927
Aldi SE20 7SX,SE20 7SX,51.40858796,-0.059073727
Asda Superstore RM8 1BB,RM8 1BB,51.56597237,0.14316145
Asda Superstore E6 4JP,E6 4JP,51.51509602,0.057779694
Sainsburys Local EN2 6HU,EN2 6HU,51.64575102,-0.080579554
Sainsburys Local W1T 3LA,W1T 3LA,51.5162535,-0.135909654
The Co-operative Food W1U 3AA,W1U 3AA,51.51675899,-0.15474843
Marks and Spencer Travel SF W1C 2JF,W1C 2JF,51.51394856,-0.149586292
Sainsburys Local W1J 8LT,W1J 8LT,51.50805366,-0.143443497
Marks and Spencer Simply Food W1J 8AQ,W1J 8AQ,51.50713322,-0.142843697
Tesco Metro SW1Y 4LR,SW1Y 4LR,51.50887001,-0.134529456
Waitrose W1A 1EX,W1A 1EX,51.5154077,-0.145277141
Marks and Spencer W1D 2JR,W1D 2JR,51.51535592,-0.138155047
Whole Foods Market W1B 5AR,W1B 5AR,51.51055839,-0.136211737
Marks and Spencer W1C 1AP,W1C 1AP,51.51423034,-0.154491638
Tesco Express HA8 6RW,HA8 6RW,51.60765574,-0.295659069
The Co-operative Food SW6 6BT,SW6 6BT,51.48033364,-0.212506865
The Co-operative Food EC2V 6AA,EC2V 6AA,51.51466717,-0.097388041
Sainsburys Local EC4M 7DX,EC4M 7DX,51.51495361,-0.099059503
Tesco Express EC2V 6BJ,EC2V 6BJ,51.51532183,-0.096956195
Sainsburys Local RM1 1ED,RM1 1ED,51.58208521,0.176081931
The Co-operative Food W5 1QP,W5 1QP,51.52639294,-0.313007013
The Co-operative Food W5 1RH,W5 1RH,51.52562565,-0.315131872
Tesco Express SW17 9HP,SW17 9HP,51.41887066,-0.162285117
Sainsburys Local SW2 1HP,SW2 1HP,51.44695498,-0.124521551
Tesco Express SE9 5ER,SE9 5ER,51.44573722,0.039898223
The Co-operative Food W12 9BL,W12 9BL,51.50300056,-0.24339055
Tesco Express W12 9AS,W12 9AS,51.50349788,-0.243093049
The Co-operative Food NW1 7AH,NW1 7AH,51.53783487,-0.145205235
Whole Foods Market NW1 7PN,NW1 7PN,51.53792459,-0.14452585
Sainsburys Local NW1 0JH,NW1 0JH,51.5350531,-0.138779745
Tesco Express NW1 7JY,NW1 7JY,51.53830934,-0.142409707
Marks and Spencer Simply Food NW1 7JX,NW1 7JX,51.53794524,-0.142324543
Lidl NW1 0LT,NW1 0LT,51.53662604,-0.140150744
Aldi Local NW1 7JR,NW1 7JR,51.53746005,-0.141838346
Sainsburys NW1 9LJ,NW1 9LJ,51.54052815,-0.140843344
Tesco Express E17 7LS,E17 7LS,51.58340508,-0.019505843
Tesco Express E17 7PF,E17 7PF,51.58036095,-0.032540877
Farmfoods E17 7LD,E17 7LD,51.58186966,-0.03125041
Lidl E17 7LD,E17 7LD,51.58225032,-0.031979622
Lidl E17 7LD,E17 7LD,51.58377092,-0.022227263
Asda Supermarket E17 7LS,E17 7LS,51.58293608,-0.024518778
Sainsburys E17 7JY,E17 7JY,51.58260064,-0.02719023
Sainsburys Local SW16 1BJ,SW16 1BJ,51.43245526,-0.1293494
Tesco Express SW16 1DA,SW16 1DA,51.43696131,-0.128066645
Sainsburys Local SW2 4TS,SW2 4TS,51.44055502,-0.125117422
Aldi SW16 6HP,SW16 6HP,51.42617559,-0.131502716
Lidl SW16 1BB,SW16 1BB,51.43109497,-0.129773248
Iceland SW16 1BB,SW16 1BB,51.431776,-0.129724001
Marks and Spencer Foodhall SW16 6HP,SW16 6HP,51.42568456,-0.131324727
Marks and Spencer Foodhall SW2 4RS,SW2 4RS,51.43930818,-0.126629194
The Co-operative Food SW2 4RU,SW2 4RU,51.43850191,-0.126917182
Tesco Express SM2 5BQ,SM2 5BQ,51.35825996,-0.191364153
Marks and Spencer SM1 1NQ,SM1 1NQ,51.36422972,-0.192470247
Farmfoods SM1 4AU,SM1 4AU,51.36479596,-0.19301653
Sainsburys SM1 1LD,SM1 1LD,51.3685322,-0.195586844
Morrisons SM1 1DD,SM1 1DD,51.36077907,-0.19339209
Asda Superstore SM1 1LD,SM1 1LD,51.36705398,-0.195271455
Tesco Express SE15 4UR,SE15 4UR,51.4664276,-0.065755149
Iceland SE15 5EZ,SE15 5EZ,51.4713,-0.069099987
Asda Supermarket SE15 4NB,SE15 4NB,51.4675243,-0.067399209
Morrisons SE15 5EW,SE15 5EW,51.47296293,-0.068253932
Sainsburys Local SW9 8HE,SW9 8HE,51.46275461,-0.114797818
Sainsburys Local SW9 7DE,SW9 7DE,51.46435464,-0.113996783
Marks and Spencer SW9 8ED,SW9 8ED,51.46338243,-0.115164677
Iceland SW9 8HE,SW9 8HE,51.46241757,-0.114781619
Tesco Express NW6 7QE,NW6 7QE,51.54632931,-0.203487695
Sainsburys Local NW6 7QE,NW6 7QE,51.54575271,-0.202858667
Tesco Express NW6 5UA,NW6 5UA,51.53688271,-0.191676439
Tesco Express NW6 7TA,NW6 7TA,51.54088452,-0.203006903
Sainsburys NW6 4HS,NW6 4HS,51.53874938,-0.193913833
Aldi Local NW6 4JD,NW6 4JD,51.5406261,-0.196065352
Marks and Spencer Simply Food NW6 4HJ,NW6 4HJ,51.5381751,-0.193159338
Iceland NW6 4HS,NW6 4HS,51.53902671,-0.194113098
Tesco Express E8 4AH,E8 4AH,51.54545006,-0.07618698
The Co-operative Food E8 3FT,E8 3FT,51.54609347,-0.074697949
Marks and Spencer Foodhall E8 2JS,E8 2JS,51.54795982,-0.075684217
Iceland E8 2LX,E8 2LX,51.54771425,-0.074052193
Sainsburys E8 2LX,E8 2LX,51.54760376,-0.073315083
The Co-operative Food N16 8BJ,N16 8BJ,51.55197112,-0.075202614
Tesco Express N22 6BS,N22 6BS,51.59056003,-0.103984319
Aldi Local SW12 9AU,SW12 9AU,51.44358294,-0.152350932
Sainsburys Local N22 6EJ,N22 6EJ,51.59675187,-0.10903464
Sainsburys N22 6BX,N22 6BX,51.59254488,-0.105139371
Lidl N22 6HE,N22 6HE,51.593979,-0.106755754
Morrisons N22 6BH,N22 6BH,51.59630856,-0.111017974
Marks and Spencer TW9 1JY,TW9 1JY,51.45992296,-0.305483159
Tesco Metro TW9 1HY,TW9 1HY,51.46068829,-0.303945912
Waitrose TW9 1AE,TW9 1AE,51.46154212,-0.301889396
Whole Foods Market TW9 1AB,TW9 1AB,51.46118534,-0.304091593
Tesco Express W4 1PD,W4 1PD,51.49273595,-0.258582617
As Nature Intended W4 2DR,W4 2DR,51.4922369,-0.257615742
Sainsburys Local W4 1PU,W4 1PU,51.49295376,-0.252333309
Marks and Spencer Simply Food W4 1PJ,W4 1PJ,51.49279535,-0.257968413
The Co-operative Food NW2 3HD,NW2 3HD,51.5530776,-0.210771663
Waitrose W4 5TA,W4 5TA,51.49271961,-0.263053362
Tesco Express IG1 4NH,IG1 4NH,51.56093203,0.069637116
Marks and Spencer IG1 1DE,IG1 1DE,51.55903629,0.07217357
Iceland IG1 1DL,IG1 1DL,51.5582083,0.070647388
Lidl IG1 1DE,IG1 1DE,51.55878329,0.071254649
Sainsburys Local IG1 1LL,IG1 1LL,51.55915311,0.075149827
Iceland E13 9AP,E13 9AP,51.53632733,0.034590713
Tesco Metro E13 9AP,E13 9AP,51.53658434,0.034482202
Sainsburys Local W8 4BA,W8 4BA,51.50415361,-0.193547465
Waitrose W8 6SA,W8 6SA,51.4990135,-0.198117316
Marks and Spencer W8 5SQ,W8 5SQ,51.50111786,-0.192007837
Whole Foods Market W8 5SE,W8 5SE,51.50108061,-0.19380384
Morrisons W5 2ND,W5 2ND,51.51395898,-0.303990128
Tesco Express EC2N 1AR,EC2N 1AR,51.51510346,-0.085273558
Sainsburys Local EC3M 4BE,EC3M 4BE,51.51165372,-0.081360757
Sainsburys Local EC3V 3PL,EC3V 3PL,51.51355372,-0.08440074
The Co-operative Food EC3A 2DB,EC3A 2DB,51.5130668,-0.078138177
Sainsburys Local EC3V 9AN,EC3V 9AN,51.5126537,-0.087527554
Marks and Spencer EC3M 6DE,EC3M 6DE,51.51201157,-0.084355616
Marks and Spencer Foodhall EC2N 3NW,EC2N 3NW,51.51483768,-0.083495478
Tesco Express HA8 8NP,HA8 8NP,51.61634465,-0.275066471
Marks and Spencer HA8 7BD,HA8 7BD,51.61236751,-0.274860349
Iceland HA8 7AA,HA8 7AA,51.61200555,-0.277154777
Lidl HA8 7DD,HA8 7DD,51.60967517,-0.278849711
Sainsburys HA8 7BQ,HA8 7BQ,51.61182453,-0.275770046
As Nature Intended W5 5DB,W5 5DB,51.51181868,-0.304684255
Sainsburys Local W5 2NP,W5 2NP,51.51405311,-0.302211505
Tesco Express W5 2PB,W5 2PB,51.51599231,-0.30193215
Marks and Spencer W5 5JW,W5 5JW,51.51305675,-0.303807749
Tesco Metro W5 5JY,W5 5JY,51.51214308,-0.302442913
Tesco Express SW11 1HG,SW11 1HG,51.46077833,-0.163833868
Whole Foods Market SW11 1LN,SW11 1LN,51.46374343,-0.166734782
Waitrose SW11 1PP,SW11 1PP,51.4626422,-0.168052386
The Co-operative Food SW11 1NG,SW11 1NG,51.46017721,-0.166459484
Lidl SW11 2LG,SW11 2LG,51.46491178,-0.167168953
Marks and Spencer SW11 1QP,SW11 1QP,51.46218958,-0.167279313
Asda Superstore SW11 1JG,SW11 1JG,51.46551886,-0.164897267
Tesco Express HA1 1FB,HA1 1FB,51.57983831,-0.336427231
Tesco Express HA1 2EA,HA1 2EA,51.58167076,-0.333481007
Iceland HA1 2DE,HA1 2DE,51.57953321,-0.333670475
Marks and Spencer HA1 1NB,HA1 1NB,51.58110733,-0.335764017
Lidl HA1 1AT,HA1 1AT,51.58034738,-0.337102548
Marks and Spencer BP W12 8PP,W12 8PP,51.50342223,-0.221654123
Tesco Express W12 8QP,W12 8QP,51.50233073,-0.226006178
Iceland E10 7DN,E10 7DN,51.5749192,-0.0129016
Tesco Express W12 8LH,W12 8LH,51.50561676,-0.227988539
Sainsburys Local W12 8HA,W12 8HA,51.50245354,-0.227068789
Sainsburys Local W12 8AA,W12 8AA,51.50525349,-0.224083862
Lidl W12 8PP,W12 8PP,51.50400333,-0.218372435
Tesco Express SW17 9PE,SW17 9PE,51.42523103,-0.163839364
Iceland SW17 9NH,SW17 9NH,51.42435765,-0.163757861
Iceland SW17 0SN,SW17 0SN,51.42896898,-0.166504748
Lidl SW17 0RG,SW17 0RG,51.42917055,-0.167260981
Aldi Local SW17 0SP,SW17 0SP,51.42874448,-0.166881425
Tesco Express E6 1HT,E6 1HT,51.53488295,0.052690925
Iceland E6 2HJ,E6 2HJ,51.5351,0.0530906
Sainsburys E6 1HU,E6 1HU,51.53406392,0.052679309
Lidl E6 2JA,E6 2JA,51.53864396,0.051704937
Tesco Metro N1 8DU,N1 8DU,51.53598914,-0.102297601
Waitrose N1 9EN,N1 9EN,51.53390814,-0.107415822
Iceland N1 9ER,N1 9ER,51.53330328,-0.108635765
Marks and Spencer N1 0RR,N1 0RR,51.5333307,-0.106734134
Iceland UB8 1LH,UB8 1LH,51.54621831,-0.481263199
Lidl UB8 1GB,UB8 1GB,51.5456834,-0.476632876
Marks and Spencer UB8 1TL,UB8 1TL,51.54649932,-0.480659802
Tesco Metro UB8 1ND,UB8 1ND,51.54762712,-0.481605407
Sainsburys Local SW19 1RH,SW19 1RH,51.41945537,-0.200189842
Little Waitrose SW19 7NS,SW19 7NS,51.42089185,-0.207360931
Sainsburys SW19 4DD,SW19 4DD,51.42106994,-0.209009865
Marks and Spencer Simply Food SW19 8YE,SW19 8YE,51.42108107,-0.205352149
Tesco Metro SW19 8YA,SW19 8YA,51.4208148,-0.205088011
Morrisons SW19 1QB,SW19 1QB,51.4195366,-0.204495047
Marks and Spencer Simply Food W1T 2EQ,W1T 2EQ,51.51950975,-0.133770843
Tesco Metro W1T 2QB,W1T 2QB,51.52004891,-0.134407675
Sainsburys Local W1T 1BJ,W1T 1BJ,51.51735345,-0.131387816
Iceland UB1 1SQ,UB1 1SQ,51.50889586,-0.376642579
Lidl UB1 3DB,UB1 3DB,51.51056259,-0.372957584
Iceland SE18 6LQ,SE18 6LQ,51.49197485,0.065263652
Tesco Express NW1 6AE,NW1 6AE,51.52278572,-0.158727153
Marks and Spencer Travel SF NW1 5LD,NW1 5LD,51.522674,-0.156795727
Sainsburys Local W1U 6RU,W1U 6RU,51.52120629,-0.156758267
Tesco Express W1U 6TP,W1U 6TP,51.52102983,-0.156699374
Tesco Express DA16 3QR,DA16 3QR,51.46384761,0.10027348
Budgens DA16 3QS,DA16 3QS,51.46362189,0.099181877
Iceland DA16 3PB,DA16 3PB,51.46283256,0.104296361
Morrisons DA16 1TZ,DA16 1TZ,51.46257637,0.110153468
Sainsburys Local EC4Y 1HY,EC4Y 1HY,51.51405361,-0.106791155
Tesco Express N8 8DU,N8 8DU,51.5790946,-0.124135794
Marks and Spencer Simply Food N8 8DB,N8 8DB,51.57732364,-0.124749351
Little Waitrose N8 8DU,N8 8DU,51.57949287,-0.124169188
The Co-operative Food N8 8DU,N8 8DU,51.57919539,-0.124034057
Tesco Express N7 7NS,N7 7NS,51.56030209,-0.114457606
Marks and Spencer N7 6QD,N7 6QD,51.55746949,-0.118195414
Iceland N7 6QA,N7 6QA,51.55771535,-0.118543899
Waitrose N7 6PA,N7 6PA,51.55611748,-0.116167579
Morrisons N7 6PL,N7 6PL,51.5572851,-0.116847702
Tesco Metro NW10 4NG,NW10 4NG,51.53677867,-0.24657784
Iceland NW10 4NS,NW10 4NS,51.53613225,-0.246484733
Tesco Express SW15 1SU,SW15 1SU,51.462012,-0.216293288
Sainsburys Local SW15 6SJ,SW15 6SJ,51.46195439,-0.221931603
Sainsburys SW15 2LJ,SW15 2LJ,51.46217819,-0.215619852
Waitrose SW15 1TW,SW15 1TW,51.46406543,-0.216618337
Tesco Express SE17 1JE,SE17 1JE,51.48885013,-0.096440921
Tesco Express SE17 2NF,SE17 2NF,51.48512043,-0.094186588
Marks and Spencer SE17 2TG,SE17 2TG,51.48703599,-0.094726224
Iceland SE17 2NA,SE17 2NA,51.48578892,-0.094689194
Morrisons SE17 1JE,SE17 1JE,51.487534,-0.095927643
Iceland TW3 1QL,TW3 1QL,51.4693,-0.359192
Iceland TW3 1EF,TW3 1EF,51.46793494,-0.365389275
Marks and Spencer SE13 6JG,SE13 6JG,51.46182501,-0.011633757
Iceland SE13 6AA,SE13 6AA,51.4602,-0.0108632
Sainsburys SE13 7EP,SE13 7EP,51.46174542,-0.012185273
Sainsburys Local EC4V 6DA,EC4V 6DA,51.51244453,-0.103938171
Marks and Spencer Food To Go EC4A 2AF,EC4A 2AF,51.5143201,-0.104694125
Marks and Spencer Simply Food EC4M 7DX,EC4M 7DX,51.51406252,-0.100462317
Tesco Express WC2R 1DA,WC2R 1DA,51.51336627,-0.112066533
Tesco Express EC4V 6HX,EC4V 6HX,51.51267551,-0.104525378
The Co-operative Food EC4M 7LM,EC4M 7LM,51.5139067,-0.104037433
Iceland DA6 7DQ,DA6 7DQ,51.45681092,0.144696524
Sainsburys DA6 7DF,DA6 7DF,51.45622196,0.148831695
Marks and Spencer DA6 7JN,DA6 7JN,51.4558856,0.147439205
Asda Superstore DA6 7BN,DA6 7BN,51.45753593,0.142577017
Lidl W3 6RE,W3 6RE,51.50753385,-0.270064826
Morrisons W3 9LA,W3 9LA,51.50839011,-0.272637915
Tesco Express IG11 7PE,IG11 7PE,51.53722386,0.079930254
Lidl IG11 7PH,IG11 7PH,51.53595036,0.081438166
Iceland IG11 8EP,IG11 8EP,51.53663782,0.078356573
Tesco Metro W11 3QE,W11 3QE,51.50904309,-0.198312478
Marks and Spencer Simply Food W11 3QG,W11 3QG,51.50884282,-0.199811149
Little Waitrose W11 3QG,W11 3QG,51.50883474,-0.199959031
Tesco Express TW1 4BW,TW1 4BW,51.445371,-0.337990417
Iceland TW1 3SD,TW1 3SD,51.44565038,-0.329006997
Marks and Spencer Simply Food TW1 4BZ,TW1 4BZ,51.44575174,-0.330377152
Waitrose TW1 3RJ,TW1 3RJ,51.44870425,-0.328758365
Tesco Express SE8 4AF,SE8 4AF,51.47553196,-0.025772186
Iceland SE8 4NS,SE8 4NS,51.47814708,-0.025705057
Asda Supermarket SE8 4AD,SE8 4AD,51.47538526,-0.026485864
Tesco Express HA9 7BN,HA9 7BN,51.55332412,-0.295284368
Iceland HA9 7AJ,HA9 7AJ,51.55222303,-0.296381229
Tesco Metro HA9 7AF,HA9 7AF,51.55258273,-0.295899004
Tesco Express NW2 3DR,NW2 3DR,51.55834627,-0.21689867
The Co-operative Food NW2 1ET,NW2 1ET,51.55719374,-0.215117712
Iceland NW2 3ED,NW2 3ED,51.5566549,-0.214764333
Iceland W6 9JG,W6 9JG,51.49228025,-0.230125011
Marks and Spencer W6 9XW,W6 9XW,51.49259518,-0.226239068
Tesco Metro W6 9YD,W6 9YD,51.49198858,-0.223781753
Sainsburys W6 0PZ,W6 0PZ,51.4930498,-0.228854893
Tesco Express N16 8DR,N16 8DR,51.5582395,-0.074810439
Sainsburys Local N16 7NY,N16 7NY,51.55985275,-0.073835145
Whole Foods Market N16 0LU,N16 0LU,51.56227795,-0.075347552
Iceland N16 7JL,N16 7JL,51.56095883,-0.073506354
Tesco Express EN5 5SJ,EN5 5SJ,51.65321254,-0.200008018
Sainsburys Local EN5 5XP,EN5 5XP,51.65555045,-0.201705319
Iceland EN5 5XQ,EN5 5XQ,51.65482427,-0.201390424
Waitrose EN5 5XY,EN5 5XY,51.65586058,-0.203743211
Tesco Express E7 0QH,E7 0QH,51.54765314,0.025602021
Iceland E7 0QH,E7 0QH,51.54668573,0.025774155
The Co-operative Food E7 0EL,E7 0EL,51.54912394,0.024506989
Sainsburys Local EC4N 4UA,EC4N 4UA,51.51215367,-0.094231529
Waitrose W1U 4SD,W1U 4SD,51.51943727,-0.151979536
Tesco Metro EC2V 6EE,EC2V 6EE,51.51349394,-0.091677524
Marks and Spencer Simply Food EC4M 9AF,EC4M 9AF,51.51404116,-0.095424354
Sainsburys Local N3 1HF,N3 1HF,51.60061015,-0.195078792
Little Waitrose N3 2LN,N3 2LN,51.59989103,-0.195022108
Marks and Spencer SW3 4NX,SW3 4NX,51.48877666,-0.164775108
Waitrose SW3 5XP,SW3 5XP,51.48851553,-0.167167613
Iceland HA8 5EJ,HA8 5EJ,51.60273837,-0.270442593
Tesco Express N12 9QH,N12 9QH,51.61549837,-0.176483353
Aldi N12 0ER,N12 0ER,51.61283463,-0.176944111
Sainsburys N12 9RE,N12 9RE,51.61793073,-0.176120346
As Nature Intended SW12 9BP,SW12 9BP,51.44390568,-0.152804765
Marks and Spencer EN2 6SN,EN2 6SN,51.6510478,-0.082368821
Lidl EN2 6TR,EN2 6TR,51.65047032,-0.080793059
Iceland EN2 6TR,EN2 6TR,51.6515,-0.0829525
Waitrose EN2 6SN,EN2 6SN,51.65170756,-0.084160288
Sainsburys Local EC4A 1AA,EC4A 1AA,51.5175642,-0.108759956
Sainsburys Local EC1N 2TD,EC1N 2TD,51.51806604,-0.108472165
Marks and Spencer Simply Food WC1V 7PD,WC1V 7PD,51.5180574,-0.112328452
Sainsburys Local WC1V 6EA,WC1V 6EA,51.51815352,-0.115879025
Sainsburys Local WC2B 6NH,WC2B 6NH,51.51745348,-0.120612017
The Co-operative Food SW12 9EL,SW12 9EL,51.44864732,-0.148418185
Little Waitrose WC1V 7EX,WC1V 7EX,51.5174274,-0.118732719
Sainsburys Local W11 1LA,W11 1LA,51.51615439,-0.204839793
Tesco Metro W11 1LJ,W11 1LJ,51.51714558,-0.205794321
Tesco Express E1 2BT,E1 2BT,51.51445479,-0.059027698
Iceland E1 2PP,E1 2PP,51.51405758,-0.056344987
Marks and Spencer Travel SF EC2M 7QH,EC2M 7QH,51.51725309,-0.082595624
Tesco Metro EC2M 4LN,EC2M 4LN,51.51721292,-0.080381683
Sainsburys SW12 9AU,SW12 9AU,51.44390394,-0.151530443
Sainsburys Local E2 0EL,E2 0EL,51.52705342,-0.055873315
Tesco Express E2 6AH,E2 6AH,51.52648802,-0.065939987
Tesco Metro E2 0AN,E2 0AN,51.52698926,-0.061630695
Iceland E2 0EA,E2 0EA,51.52690549,-0.058816115
Tesco Express SW18 4ED,SW18 4ED,51.44825868,-0.18986939
The Co-operative Food SW18 4DJ,SW18 4DJ,51.45029111,-0.190090306
Sainsburys Local SW4 7TP,SW4 7TP,51.46415452,-0.131325424
Sainsburys Local SW9 9BT,SW9 9BT,51.46504104,-0.129618885
Little Waitrose SW4 0HY,SW4 0HY,51.46197063,-0.138768046
Iceland SW4 0HY,SW4 0HY,51.46203523,-0.138605767
Sainsburys SW4 7SL,SW4 7SL,51.46209106,-0.135724745
Tesco E10 7AA,E10 7AA,51.57448663,-0.01204028
Tesco Express SW14 7NX,SW14 7NX,51.46430084,-0.267944923
Waitrose SW14 7JG,SW14 7JG,51.46471941,-0.268759178
Tesco Express W2 3RL,W2 3RL,51.51237709,-0.187361239
Sainsburys Local W2 4RA,W2 4RA,51.51215343,-0.187825668
Tesco Express W2 6LS,W2 6LS,51.51459383,-0.187717
Marks and Spencer Simply Food W2 4YT,W2 4YT,51.51462306,-0.18870107
Marks and Spencer Simply Food SE3 7SX,SE3 7SX,51.4768381,0.019434209
Tesco Express SW1V 3EN,SW1V 3EN,51.48768185,-0.140840531
Tesco Express W13 8SB,W13 8SB,51.5112761,-0.318378671
The Co-operative Food W13 8RA,W13 8RA,51.51161044,-0.316291502
Lidl W13 0SA,W13 0SA,51.5099352,-0.324388009
Iceland W13 0SU,W13 0SU,51.51062055,-0.322868456
The Co-operative Food CR0 1DP,CR0 1DP,51.36597527,-0.099334443
Tesco Express CR2 6EA,CR2 6EA,51.36351382,-0.098170304
Tesco Express CR0 9XT,CR0 9XT,51.36931189,-0.099028272
Budgens CR2 6PW,CR2 6PW,51.36299861,-0.096869284
Marks and Spencer Simply Food N10 3RU,N10 3RU,51.5903196,-0.143352746
Sainsburys N10 3HN,N10 3HN,51.58993819,-0.145568245
Little Waitrose N10 1DJ,N10 1DJ,51.5916808,-0.142547106
Lidl RM11 1TP,RM11 1TP,51.56333241,0.215317221
Iceland RM11 1RL,RM11 1RL,51.56316877,0.219821694
Sainsburys RM11 1TX,RM11 1TX,51.56317351,0.218187602
Tesco Express SE26 4QJ,SE26 4QJ,51.43134076,-0.059699412
The Co-operative Food NW2 4QR,NW2 4QR,51.54975955,-0.22058801
Sainsburys Local NW2 4QY,NW2 4QY,51.5488526,-0.221064318
Sainsburys NW10 2TD,NW10 2TD,51.5468307,-0.225549832
Sainsburys Local NW10 2PD,NW10 2PD,51.5476526,-0.234968939
Marks and Spencer Simply Food KT6 4NS,KT6 4NS,51.39253554,-0.305427563
Waitrose KT6 4QR,KT6 4QR,51.39384036,-0.304980468
Sainsburys KT6 4NG,KT6 4NG,51.3914874,-0.30773154
Tesco Express Esso SE9 1DH,SE9 1DH,51.4515167,0.050120734
Lidl SE9 1TQ,SE9 1TQ,51.45114352,0.055798106
Iceland SE9 1BQ,SE9 1BQ,51.45043414,0.05488685
Marks and Spencer SE9 1TQ,SE9 1TQ,51.45090023,0.055077182
Sainsburys SE9 5DL,SE9 5DL,51.44999787,0.057400479
Tesco Express NW3 6TR,NW3 6TR,51.55604453,-0.17895523
Sainsburys Local N13 5TW,N13 5TW,51.61987574,-0.106488804
The Co-operative Food N13 5TU,N13 5TU,51.61811251,-0.108065982
Iceland E3 5ES,E3 5ES,51.53302293,-0.029217896
Sainsburys Local WC2N 5HY,WC2N 5HY,51.50915368,-0.123955788
The Co-operative Food WC2R 0RG,WC2R 0RG,51.50824185,-0.126422378
Tesco Express SW1A 2DR,SW1A 2DR,51.50716069,-0.127170417
Tesco Express WC2R 0AP,WC2R 0AP,51.51101889,-0.119440173
Tesco Express BR3 4EP,BR3 4EP,51.40675558,-0.032803964
Lidl BR3 1AG,BR3 1AG,51.40652515,-0.027564643
Aldi NW9 0EQ,NW9 0EQ,51.59435263,-0.263579351
Sainsburys BR3 1AH,BR3 1AH,51.40592666,-0.030691398
Aldi RM14 2QB,RM14 2QB,51.55644402,0.248396747
Waitrose RM14 3BT,RM14 3BT,51.55624668,0.253085847
Marks and Spencer Simply Food RM14 2SU,RM14 2SU,51.55834268,0.249790717
Iceland RM14 2AL,RM14 2AL,51.55436176,0.248534814
Little Waitrose SW1V 1QT,SW1V 1QT,51.49251134,-0.139550388
Tesco Express SW1V 1RX,SW1V 1RX,51.49228506,-0.139248587
Sainsburys SW1V 1DT,SW1V 1DT,51.4928477,-0.141271272
As Nature Intended W2 2EH,W2 2EH,51.51455915,-0.16172131
Tesco Metro W2 2EA,W2 2EA,51.51568219,-0.163366569
Waitrose W2 2DX,W2 2DX,51.51755286,-0.166007947
Sainsburys E15 1XE,E15 1XE,51.54176846,-0.001072733
Iceland E15 1XA,E15 1XA,51.5411,0.000500013
Lidl E15 1XE,E15 1XE,51.54151247,-0.00068422
Morrisons E15 1EN,E15 1EN,51.54310695,0.00506426
The Co-operative Food SW10 0LU,SW10 0LU,51.48157783,-0.181189371
The Co-operative Food SW18 4JS,SW18 4JS,51.45676306,-0.194802569
Tesco Express SW18 4HY,SW18 4HY,51.45705635,-0.194716252
Waitrose SW18 4TG,SW18 4TG,51.45418591,-0.193792166
Sainsburys SW18 4AD,SW18 4AD,51.45436478,-0.191628546
The Co-operative Food EC2R 6AR,EC2R 6AR,51.51558095,-0.089532003
Marks and Spencer EC2A 1SA,EC2A 1SA,51.51951641,-0.087116398
The Co-operative Food SE5 8RZ,SE5 8RZ,51.4734491,-0.093584833
Lidl SE5 8RZ,SE5 8RZ,51.47270648,-0.09349781
Morrisons SE5 8RW,SE5 8RW,51.4729381,-0.091999646
Tesco Express NW11 8HB,NW11 8HB,51.5742881,-0.201249957
Sainsburys Local NW11 8EE,NW11 8EE,51.57205214,-0.197486856
Sainsburys NW11 7RX,NW11 7RX,51.57073172,-0.194598804
Marks and Spencer Simply Food E18 1AY,E18 1AY,51.59415673,0.024167749
The Co-operative Food E18 1JJ,E18 1JJ,51.59146087,0.028752725
Waitrose E18 2NA,E18 2NA,51.59548017,0.023427283
Sainsburys E18 1AY,E18 1AY,51.59350619,0.024038483
Sainsburys Local W2 1DY,W2 1DY,51.52065332,-0.170668949
Tesco Metro NW8 8EX,NW8 8EX,51.52239299,-0.172208942
Waitrose W2 6ES,W2 6ES,51.51685125,-0.18748125
Iceland UB3 4DX,UB3 4DX,51.50613686,-0.418639425
The Co-operative Food SE19 1BG,SE19 1BG,51.41952159,-0.083745298
Iceland SE19 1TQ,SE19 1TQ,51.41995552,-0.08204331
Budgens SE19 1TS,SE19 1TS,51.41984983,-0.079891962
Sainsburys SE19 3RW,SE19 3RW,51.4178067,-0.082960661
Tesco Express N8 0RX,N8 0RX,51.58272656,-0.099511079
Iceland N4 1LA,N4 1LA,51.5811279,-0.099234693
Tesco Express SW7 3DY,SW7 3DY,51.49319214,-0.176452914
Little Waitrose SW7 3RD,SW7 3RD,51.49221934,-0.177604257
Tesco Express N14 5PH,N14 5PH,51.63307258,-0.129260769
Marks and Spencer Simply Food N14 6AQ,N14 6AQ,51.63358702,-0.125285305
Asda Supercentre N14 5PW,N14 5PW,51.6343545,-0.131291775
Iceland CR7 8RX,CR7 8RX,51.39856418,-0.100848201
Sainsburys Local E5 0NS,E5 0NS,51.55015303,-0.054345598
Marks and Spencer E8 1JB,E8 1JB,51.54754861,-0.055376758
Sainsburys Local NW5 2TJ,NW5 2TJ,51.55035285,-0.140978817
Tesco Express NW5 2JU,NW5 2JU,51.54699478,-0.141982215
The Co-operative Food NW5 2AB,NW5 2AB,51.54955367,-0.140670509
The Co-operative Food NW5 1AS,NW5 1AS,51.55237464,-0.14138235
Iceland NW5 2TJ,NW5 2TJ,51.54954813,-0.141166752
Lidl NW5 2JU,NW5 2JU,51.54745378,-0.141847267
Marks and Spencer BP SW17 7HW,SW17 7HW,51.43719305,-0.16138309
The Co-operative Food HA4 8JB,HA4 8JB,51.57421946,-0.423939158
Tesco Express SW17 7EN,SW17 7EN,51.43278357,-0.164030027
Lidl SW17 7BA,SW17 7BA,51.43627826,-0.158165745
Budgens W2 1RH,W2 1RH,51.51568137,-0.175182897
Lidl BR4 0RJ,BR4 0RJ,51.37518814,-0.01334613
Sainsburys BR4 0PU,BR4 0PU,51.37680514,-0.015023044
Marks and Spencer Simply Food BR4 0NF,BR4 0NF,51.37680499,-0.019046898
Sainsburys BR4 0LU,BR4 0LU,51.37704034,-0.021745228
Tesco Express SE1 1NP,SE1 1NP,51.50342213,-0.091285812
Sainsburys Local SE1 1LB,SE1 1LB,51.50275396,-0.092298421
Aldi SE6 4JD,SE6 4JD,51.44865755,-0.017733239
Iceland SE6 4JU,SE6 4JU,51.44592239,-0.0215246
Tesco SE6 4JU,SE6 4JU,51.44627418,-0.022309857
Marks and Spencer Simply Food SW6 1BE,SW6 1BE,51.48064712,-0.197662366
Whole Foods Market SW6 1AA,SW6 1AA,51.47997872,-0.196219049
Sainsburys SW6 1BW,SW6 1BW,51.48044331,-0.194719947
Waitrose SW6 1LX,SW6 1LX,51.48019163,-0.199411527
Sainsburys Local N1 2XQ,N1 2XQ,51.53745316,-0.102694532
The Co-operative Food EC2A 3JL,EC2A 3JL,51.52572221,-0.082642779
As Nature Intended SE22 8HJ,SE22 8HJ,51.45925776,-0.075328403
Marks and Spencer Foodhall SE22 8HF,SE22 8HF,51.45783927,-0.075552832
The Co-operative Food SE22 8HJ,SE22 8HJ,51.45874565,-0.075329867
Tesco Express KT3 4DQ,KT3 4DQ,51.40340492,-0.257218592
Waitrose KT3 4HE,KT3 4HE,51.40273572,-0.256119889
Iceland SW16 4DE,SW16 4DE,51.40932288,-0.12185674
The Co-operative Food SW16 5PY,SW16 5PY,51.41042744,-0.123261842
Iceland SW6 1NQ,SW6 1NQ,51.48314308,-0.201241333
The Co-operative Food SW6 1NJ,SW6 1NJ,51.48427624,-0.20212463
Marks and Spencer Simply Food SE10 9EJ,SE10 9EJ,51.48201621,-0.010393268
Sainsburys Local SE10 8NB,SE10 8NB,51.47875465,-0.011105914
Sainsburys Local KT4 8EG,KT4 8EG,51.3768562,-0.238653801
Iceland KT4 8DT,KT4 8DT,51.37901886,-0.243184159
Waitrose KT4 8DX,KT4 8DX,51.3781297,-0.243318068
Tesco Express HA2 9UE,HA2 9UE,51.57233363,-0.370772578
Sainsburys Local HA5 5ER,HA5 5ER,51.57675163,-0.371379489
Iceland HA5 5ED,HA5 5ED,51.57630601,-0.370734017
Tesco Express E4 8LJ,E4 8LJ,51.61594139,-0.017725553
Iceland E4 6SJ,E4 6SJ,51.61715586,-0.017147116
Lidl SM4 5LN,SM4 5LN,51.40150785,-0.194079318
Iceland SM4 5LN,SM4 5LN,51.40153073,-0.194408795
Sainsburys SM4 5HT,SM4 5HT,51.40313251,-0.192910571
Sainsburys Local HA4 7AS,HA4 7AS,51.57548782,-0.426225435
Tesco Express HA4 8LR,HA4 8LR,51.57358241,-0.423994893
Iceland HA4 8LJ,HA4 8LJ,51.57319179,-0.423586886
Waitrose HA4 7DS,HA4 7DS,51.57128502,-0.423045488
Iceland N17 6SX,N17 6SX,51.59429734,-0.069062911
Aldi N17 9TA,N17 9TA,51.59602678,-0.067998076
Asda Supermarket N17 9JF,N17 9JF,51.59366484,-0.069119333
Marks and Spencer Simply Food HA5 5QQ,HA5 5QQ,51.59456859,-0.381494544
Lidl HA5 3HZ,HA5 3HZ,51.59517989,-0.385347854
Sainsburys HA5 5LU,HA5 5LU,51.59342995,-0.380707919
Sainsburys Local E11 1HG,E11 1HG,51.56825282,0.009549053
Iceland E11 4QS,E11 4QS,51.56726107,0.010155509
Farmfoods CR4 2JS,CR4 2JS,51.4061367,-0.162981723
Iceland CR4 3AH,CR4 3AH,51.40564626,-0.165152487
Morrisons CR4 2LF,CR4 2LF,51.40670537,-0.162797031
Iceland DA14 6DS,DA14 6DS,51.42622859,0.101484806
Waitrose DA14 6EN,DA14 6EN,51.42521746,0.105605971
Budgens E4 7BE,E4 7BE,51.63158098,0.003626377
Tesco Express E4 7BE,E4 7BE,51.63198731,0.004882788
The Co-operative Food E4 7BJ,E4 7BJ,51.6307232,0.002133798
Iceland E13 8EE,E13 8EE,51.52250206,0.022209358
Tesco Metro UB6 8QY,UB6 8QY,51.52868886,-0.352504205
Lidl UB6 9FH,UB6 9FH,51.52718941,-0.350681498
Iceland UB6 9PT,UB6 9PT,51.52839698,-0.35436293
Sainsburys Local SE26 4QB,SE26 4QB,51.42704216,-0.055521842
Tesco Express SE26 5QF,SE26 5QF,51.42597361,-0.051772662
Lidl SE26 5JX,SE26 5JX,51.42540429,-0.048038487
Tesco Express SE27 9DL,SE27 9DL,51.43388126,-0.103281621
Sainsburys Local SE27 9AA,SE27 9AA,51.43405526,-0.104042832
Iceland SE27 9AA,SE27 9AA,51.43450769,-0.10420984
The Co-operative Food SE27 9DL,SE27 9DL,51.43434908,-0.103476183
Sainsburys Local N15 5BX,N15 5BX,51.58375224,-0.073102315
Tesco Express E13 9EZ,E13 9EZ,51.52634034,0.029195976
Tesco Express NW1 3AU,NW1 3AU,51.52361826,-0.143365501
The Co-operative Food W1W 6PS,W1W 6PS,51.51969682,-0.142264269
Sainsburys Local W1W 5QQ,W1W 5QQ,51.52195334,-0.143384495
Sainsburys Local N4 3PZ,N4 3PZ,51.57045237,-0.115042411
Tesco Metro N4 3PX,N4 3PX,51.56889183,-0.112212365
Sainsburys Local N4 3ED,N4 3ED,51.56645254,-0.107718659
Iceland IG6 2AW,IG6 2AW,51.58879595,0.080605443
Sainsburys IG6 1QE,IG6 1QE,51.58845391,0.081723928
Iceland RM10 8QS,RM10 8QS,51.54199542,0.148460048
Tesco Express CR5 2RA,CR5 2RA,51.32112974,-0.138552113
Waitrose CR5 2NB,CR5 2NB,51.32198933,-0.13722707
Marks and Spencer Simply Food SW10 9PZ,SW10 9PZ,51.48722501,-0.178577741
Sainsburys Local CR8 2AB,CR8 2AB,51.33955722,-0.114527041
Lidl W7 3SU,W7 3SU,51.50806943,-0.336127894
Asda Supermarket HA3 7AE,HA3 7AE,51.5942349,-0.335520456
Iceland HA3 5DL,HA3 5DL,51.59651568,-0.33589462
Tesco Express SE20 7EX,SE20 7EX,51.4159836,-0.054995094
Iceland SE20 8RX,SE20 8RX,51.41480283,-0.052773416
Lidl SE20 7PF,SE20 7PF,51.41372764,-0.051273737
Sainsburys SE20 7QS,SE20 7QS,51.41263382,-0.051585715
The Co-operative Food W2 5RU,W2 5RU,51.5152396,-0.194665975
Sainsburys Local W2 5RT,W2 5RT,51.51535342,-0.193563594
Sainsburys Local W2 4SB,W2 4SB,51.51554939,-0.188585631
Tesco Express NW9 9HN,NW9 9HN,51.58528142,-0.281311822
Aldi NW9 9HN,NW9 9HN,51.58525903,-0.279937341
Iceland NW9 9QB,NW9 9QB,51.58553832,-0.282798137
Budgens HA4 9AB,HA4 9AB,51.57248565,-0.41225409
Tesco Express HA4 8NR,HA4 8NR,51.5742106,-0.412772232
Tesco Express Esso KT6 7DQ,KT6 7DQ,51.38198294,-0.283288163
Iceland KT6 7HL,KT6 7HL,51.38148779,-0.283838967
Marks and Spencer Simply Food KT5 9EN,KT5 9EN,51.38017107,-0.280757582
Tesco Express RM6 6PR,RM6 6PR,51.57091457,0.132311176
Sainsburys RM6 6PB,RM6 6PB,51.57193826,0.134494607
Tesco Express E1 1DU,E1 1DU,51.51682625,-0.068692908
Tesco Express NW4 3YB,NW4 3YB,51.58281928,-0.228393966
Sainsburys Local NW4 3DA,NW4 3DA,51.58265191,-0.230949348
Sainsburys SE23 3HF,SE23 3HF,51.44004569,-0.055498683
Tesco Express HA5 1QW,HA5 1QW,51.57871574,-0.39906048
Sainsburys Local HA5 1RD,HA5 1RD,51.57665179,-0.398079778
Aldi HA5 1QH,HA5 1QH,51.57921639,-0.399025425
Tesco Express SW19 7QU,SW19 7QU,51.42391588,-0.215606045
Sainsburys Local N19 5SS,N19 5SS,51.56432184,-0.131904633
Tesco Express N19 5SS,N19 5SS,51.56421194,-0.131501604
Aldi N19 5SE,N19 5SE,51.56514493,-0.133982132
The Co-operative Food N19 5QT,N19 5QT,51.56490909,-0.134477279
Marks and Spencer Foodhall N19 5RG,N19 5RG,51.5653952,-0.135382718
Iceland N19 5RD,N19 5RD,51.5639599,-0.135761316
As Nature Intended E1 6NG,E1 6NG,51.52133211,-0.075194024
Tesco Express E1 6NF,E1 6NF,51.52052921,-0.074397316
Sainsburys Local SW10 9PZ,SW10 9PZ,51.48705404,-0.178772667
Waitrose NW3 6NN,NW3 6NN,51.54635635,-0.179753113
Sainsburys NW3 6LU,NW3 6LU,51.54805396,-0.182103658
Sainsburys Local SW5 9QQ,SW5 9QQ,51.49375378,-0.195203422
The Co-operative Food SW5 9QB,SW5 9QB,51.49231765,-0.193472071
Marks and Spencer Simply Food SW5 9AS,SW5 9AS,51.49143461,-0.19228911
Tesco Express W1T 5AS,W1T 5AS,51.52399935,-0.137827592
Tesco Express SW6 5SA,SW6 5SA,51.47450852,-0.207055338
Sainsburys Local SW6 5NT,SW6 5NT,51.47785409,-0.201624239
Sainsburys Local N2 9ED,N2 9ED,51.59087532,-0.164308143
Tesco Express E11 2AE,E11 2AE,51.57850772,0.026058403
The Co-operative Food E11 2AE,E11 2AE,51.57754418,0.026933251
Marks and Spencer E11 2RL,E11 2RL,51.57604482,0.028124087
Sainsburys Local EC4N 6HA,EC4N 6HA,51.51125371,-0.088938562
Tesco Metro EC3M 1AE,EC3M 1AE,51.51057553,-0.085037704
Little Waitrose EC4R 9AN,EC4R 9AN,51.50997549,-0.086571276
Sainsburys Local W9 3RU,W9 3RU,51.52411409,-0.200957935
Iceland W9 3QA,W9 3QA,51.52504939,-0.202813198
The Co-operative Food W9 3QA,W9 3QA,51.52494074,-0.202530599
Sainsburys Local SW3 1JJ,SW3 1JJ,51.49915381,-0.164877107
Marks and Spencer Simply Food SW3 1NF,SW3 1NF,51.49821382,-0.165762009
Little Waitrose SW3 1JE,SW3 1JE,51.49913933,-0.165112388
Sainsburys Local SW18 3NY,SW18 3NY,51.44215491,-0.18715829
Tesco Express SW18 4SW,SW18 4SW,51.4421838,-0.188457098
Sainsburys Local SM3 8RQ,SM3 8RQ,51.35805653,-0.215504098
Little Waitrose SM3 8BD,SM3 8BD,51.35874078,-0.216342467
Sainsburys Local EC1R 5DG,EC1R 5DG,51.52215344,-0.109834239
Sainsburys Local SW12 9DY,SW12 9DY,51.45235485,-0.147448133
Marks and Spencer Simply Food SW12 9EA,SW12 9EA,51.4520735,-0.148195423
Tesco Express RM10 8QS,RM10 8QS,51.54124853,0.148299976
Lidl RM10 8QS,RM10 8QS,51.54207125,0.148453957
Tesco Express NW8 6PG,NW8 6PG,51.53394692,-0.171965039
Sainsburys Local IG2 6HE,IG2 6HE,51.57605276,0.065810863
Tesco Express IG2 6LE,IG2 6LE,51.57723135,0.068837444
Iceland IG2 6HE,IG2 6HE,51.57548918,0.06586757
Tesco Express E17 3HT,E17 3HT,51.59123404,-0.005019991
The Co-operative Food E17 3HX,E17 3HX,51.58714165,-0.003731396
The Co-operative Food SE10 9ER,SE10 9ER,51.4850913,0.005852037
Tesco Express SE10 9TZ,SE10 9TZ,51.48460044,0.003320674
Marks and Spencer BP SE10 9TS,SE10 9TS,51.4838954,-0.000872706
Iceland SE10 9ER,SE10 9ER,51.48535093,0.006357421
Tesco Express TW2 7LN,TW2 7LN,51.45084418,-0.358155077
Sainsburys Local TW2 7LB,TW2 7LB,51.45145438,-0.357633923
Iceland TW2 7LT,TW2 7LT,51.45263257,-0.358359631
Lidl TW2 7LT,TW2 7LT,51.45220027,-0.358369956
Tesco Express SW10 9NA,SW10 9NA,51.48496184,-0.183236279
Sainsburys Local SW10 9EW,SW10 9EW,51.48411104,-0.184605517
Marks and Spencer Simply Food NW11 6XL,NW11 6XL,51.58340362,-0.19920208
Waitrose NW11 0QS,NW11 0QS,51.58381629,-0.200134962
Tesco Metro NW4 2EL,NW4 2EL,51.58721262,-0.220011991
Iceland N2 8AQ,N2 8AQ,51.59016867,-0.16455465
Budgens N2 8AQ,N2 8AQ,51.58974155,-0.164464171
Aldi DA1 4FY,DA1 4FY,51.45076997,0.178117682
Iceland DA1 4ES,DA1 4ES,51.45104866,0.178840445
Sainsburys Local WC1N 1BS,WC1N 1BS,51.52380135,-0.12317594
Waitrose WC1N 1AF,WC1N 1AF,51.52493608,-0.124140547
Sainsburys HA2 8EQ,HA2 8EQ,51.5622916,-0.356790174
Iceland HA2 8EB,HA2 8EB,51.56366316,-0.355299848
Tesco Express NW7 3DA,NW7 3DA,51.61499904,-0.246773064
Iceland NW7 3DA,NW7 3DA,51.61481705,-0.247586775
Marks and Spencer Simply Food NW7 3LN,NW7 3LN,51.61421671,-0.249255337
Tesco Express SM6 0LY,SM6 0LY,51.35861848,-0.149890603
Lidl SM6 0HU,SM6 0HU,51.35964951,-0.150620679
Iceland SM6 0LY,SM6 0LY,51.35852254,-0.149863156
Sainsburys SM6 9AA,SM6 9AA,51.35825036,-0.148157566
Tesco Metro N7 8JP,N7 8JP,51.5467033,-0.104708092
Little Waitrose N5 1RD,N5 1RD,51.54693689,-0.104160416
Sainsburys Local N1 9LE,N1 9LE,51.53105779,-0.120212111
The Co-operative Food WC1H 8BD,WC1H 8BD,51.52921234,-0.120238754
Tesco Metro N1 9DX,N1 9DX,51.53205979,-0.12119783
Budgens E1 1BY,E1 1BY,51.51956758,-0.059291612
Sainsburys Local CR0 6RD,CR0 6RD,51.3808568,-0.071894005
The Co-operative Food CR0 7AF,CR0 7AF,51.3819459,-0.069886738
Tesco Express UB2 4DB,UB2 4DB,51.50051252,-0.38327491
Sainsburys Local EC1M 4NU,EC1M 4NU,51.52195344,-0.102215335
Morrisons UB7 7QQ,UB7 7QQ,51.51199752,-0.473077163
Iceland UB7 7QH,UB7 7QH,51.51457829,-0.474405979
Aldi UB7 7QN,UB7 7QN,51.51447437,-0.474290409
Tesco Express SE25 6AA,SE25 6AA,51.39963761,-0.075312132
Tesco Express Esso CR7 6JH,CR7 6JH,51.39712611,-0.116115077
Lidl CR7 6AW,CR7 6AW,51.39681195,-0.116419662
Tesco Express RM8 1XU,RM8 1XU,51.5629488,0.120869088
The Co-operative Food N1 1DT,N1 1DT,51.5411962,-0.117324486
Iceland N1 1EE,N1 1EE,51.53952681,-0.117143764
Tesco Express W1J 7UP,W1J 7UP,51.50705828,-0.145739855
Marks and Spencer Simply Food NW3 6JH,NW3 6JH,51.54411539,-0.175812679
Iceland NW3 6LB,NW3 6LB,51.54561476,-0.178763203
Tesco Express NW3 5EN,NW3 5EN,51.54435091,-0.175222059
The Co-operative Food N1 8LX,N1 8LX,51.53934996,-0.097707569
The Co-operative Food E2 0LX,E2 0LX,51.52782649,-0.050838184
Tesco Express W13 9QR,W13 9QR,51.50358464,-0.317264607
Tesco Express HA9 8NF,HA9 8NF,51.57082477,-0.295209739
The Co-operative Food HA9 8NF,HA9 8NF,51.5709552,-0.294975218
Tesco Express E12 5JY,E12 5JY,51.55337701,0.054579515
Tesco Express Esso E7 8AF,E7 8AF,51.54879141,0.042805573
Sainsburys Local SE14 6PP,SE14 6PP,51.47505461,-0.034833383
Iceland SE14 6AS,SE14 6AS,51.47552904,-0.03877942
The Co-operative Food E14 6LP,E14 6LP,51.51322659,-0.014541836
Iceland E14 6BT,E14 6BT,51.51174694,-0.014158368
Tesco Express NW10 0AD,NW10 0AD,51.56018572,-0.25133787
Iceland NW2 7PY,NW2 7PY,51.5612139,-0.252363865
Little Waitrose SW1E 6QP,SW1E 6QP,51.49758641,-0.137361034
Marks and Spencer SW1E 5JE,SW1E 5JE,51.49799983,-0.14130242
Little Waitrose SW1P 4DF,SW1P 4DF,51.49796628,-0.142194738
Iceland N1 5LG,N1 5LG,51.53307818,-0.080423263
Marks and Spencer Simply Food N20 9DR,N20 9DR,51.6347882,-0.175608034
Waitrose N20 9HX,N20 9HX,51.6314346,-0.175815562
Tesco Metro TW11 8RF,TW11 8RF,51.42583895,-0.338553998
Tesco Express E15 1JA,E15 1JA,51.54798752,0.005285619
Tesco Express TW12 1NL,TW12 1NL,51.42834661,-0.355179205
Sainsburys Local TW12 1NH,TW12 1NH,51.42675477,-0.35580095
Lidl HA7 4DU,HA7 4DU,51.61830137,-0.308513305
Budgens TW11 8ET,TW11 8ET,51.42730351,-0.332377775
Marks and Spencer Simply Food TW11 8HG,TW11 8HG,51.42755483,-0.329136668
Marks and Spencer BP NW4 1DL,NW4 1DL,51.58935951,-0.220627069
The Co-operative Food NW4 4EB,NW4 4EB,51.58982792,-0.225717711
Tesco Express W6 9NH,W6 9NH,51.49327871,-0.241658474
Sainsburys Local W6 9NJ,W6 9NJ,51.49335367,-0.24358248
The Co-operative Food W5 4QS,W5 4QS,51.50001138,-0.306115415
Waitrose HA6 2XW,HA6 2XW,51.611174,-0.424286844
Tesco Express HA6 2XY,HA6 2XY,51.61127838,-0.424960456
Sainsburys BR7 5AG,BR7 5AG,51.41875853,0.066496635
The Co-operative Food CR0 6PQ,CR0 6PQ,51.38043754,-0.08654769
Sainsburys Local WC1B 4DA,WC1B 4DA,51.51935346,-0.121827026
Sainsburys Local W14 8TG,W14 8TG,51.49225387,-0.207300161
Tesco Express W14 9PP,W14 9PP,51.48884,-0.205837793
Little Waitrose W14 9PP,W14 9PP,51.48867398,-0.205292564
The Co-operative Food W14 9EX,W14 9EX,51.49005339,-0.206681228
Tesco Express Esso HA5 2PA,HA5 2PA,51.59904732,-0.409533935
The Co-operative Food HA6 1NZ,HA6 1NZ,51.60097042,-0.409114296
Tesco Express DA15 7DB,DA15 7DB,51.43321693,0.10311217
The Co-operative Food DA15 7AB,DA15 7AB,51.43447798,0.103012241
Sainsburys Local N11 1AH,N11 1AH,51.61635136,-0.135789298
Tesco Express SE16 3RP,SE16 3RP,51.49210891,-0.065604658
Iceland SE16 3RW,SE16 3RW,51.49196495,-0.063644119
Sainsburys Local SW6 5HU,SW6 5HU,51.47275427,-0.208909034
Sainsburys Local NW6 1SG,NW6 1SG,51.55005268,-0.191271812
Little Waitrose NW6 1RN,NW6 1RN,51.55155327,-0.192610144
Tesco Express NW6 1SG,NW6 1SG,51.5495092,-0.191220528
The Co-operative Food EC1R 4SA,EC1R 4SA,51.52639517,-0.108565598
Iceland W3 6RE,W3 6RE,51.5241,-0.10954
Sainsburys Local SE1 7HR,SE1 7HR,51.49894177,-0.112956315
Sainsburys Local N4 2JF,N4 2JF,51.56405262,-0.102945615
Tesco Express N4 2HY,N4 2HY,51.56420893,-0.10511705
Lidl N4 2DE,N4 2DE,51.56510783,-0.10455549
Tesco Express N18 2XF,N18 2XF,51.61293885,-0.065116779
Lidl N18 2XZ,N18 2XZ,51.61427417,-0.065227976
The Co-operative Food EN4 8SS,EN4 8SS,51.64329735,-0.164539763
The Co-operative Food EN3 5JG,EN3 5JG,51.65723835,-0.047027182
The Co-operative Food NW9 7ED,NW9 7ED,51.57772615,-0.240103649
Sainsburys Local SW8 3SB,SW8 3SB,51.4664545,-0.150337081
The Co-operative Food SW11 5NQ,SW11 5NQ,51.46592225,-0.153158349
Tesco Express SW8 3JL,SW8 3JL,51.46616098,-0.150097432
Tesco Metro RM5 3NL,RM5 3NL,51.59891724,0.163917036
Tesco Express BR1 4PB,BR1 4PB,51.4237141,-0.003806204
Marks and Spencer BP BR1 4PJ,BR1 4PJ,51.42624855,-0.006110252
Iceland BR1 4PQ,BR1 4PQ,51.42413853,-0.004118287
The Co-operative Food UB5 6LN,UB5 6LN,51.53520646,-0.394460039
Tesco Express E17 4NE,E17 4NE,51.59017771,-0.016576457
Tesco Extra RM6 4HY,RM6 4HY,51.56642118,0.111885071
Marks and Spencer NW6 2BR,NW6 2BR,51.54703586,-0.191539199
Sainsburys Local SM5 3AG,SM5 3AG,51.36515651,-0.161049229
The Co-operative Food SM5 3AG,SM5 3AG,51.36518254,-0.161088163
Iceland SE1 7AE,SE1 7AE,51.50100069,-0.112953666
Tesco Express Esso EN4 8QX,EN4 8QX,51.64617686,-0.167166571
The Co-operative Food EC3N 2LU,EC3N 2LU,51.51098014,-0.075397741
Sainsburys Local RM3 8DX,RM3 8DX,51.60605247,0.2188918
The Co-operative Food RM3 8DX,RM3 8DX,51.60680462,0.218323169
Iceland RM3 8DX,RM3 8DX,51.60666313,0.218451503
The Co-operative Food SE1 7RW,SE1 7RW,51.49985282,-0.113977234
Waitrose EC1Y 8NX,EC1Y 8NX,51.52232151,-0.092055055
Budgens SE4 2DH,SE4 2DH,51.45363127,-0.038347988
The Co-operative Food SE4 2PH,SE4 2PH,51.45483236,-0.036966033
Tesco Express SW19 3BH,SW19 3BH,51.4154824,-0.192735959
Sainsburys Local SW19 1JX,SW19 1JX,51.4157555,-0.193289939
Tesco Express Esso SW19 1EQ,SW19 1EQ,51.41697952,-0.19214925
Sainsburys Local SW20 8QY,SW20 8QY,51.41055548,-0.229755186
Tesco Express EN5 1ES,EN5 1ES,51.64666964,-0.186912185
The Co-operative Food SW19 2BY,SW19 2BY,51.42076603,-0.175979286
Sainsburys Local W3 6AY,W3 6AY,51.50846561,-0.266281626
Tesco Express WC1N 1QJ,WC1N 1QJ,51.52337964,-0.124505501
Sainsburys Local KT9 1NU,KT9 1NU,51.36741374,-0.307334674
Tesco Express KT9 1EL,KT9 1EL,51.36702316,-0.306268195
Iceland W3 7DA,W3 7DA,51.51475108,-0.248946331
The Co-operative Food PFS UB10 0NZ,UB10 0NZ,51.53028968,-0.448544887
The Co-operative Food CR0 8TG,CR0 8TG,51.37536414,-0.047047486
The Co-operative Food UB5 5AB,UB5 5AB,51.54449118,-0.373975807
Tesco Express SE1 8JZ,SE1 8JZ,51.50345418,-0.105065397
Sainsburys Local SE1 8LL,SE1 8LL,51.50285384,-0.107499168
Marks and Spencer BP SE13 5PQ,SE13 5PQ,51.45882571,0.004484394
Tesco Express E1W 1LE,E1W 1LE,51.50709544,-0.073831837
The Co-operative Food DA7 4QW,DA7 4QW,51.46400988,0.13297585
Sainsburys Local DA7 4EQ,DA7 4EQ,51.46275534,0.131947415
Tesco Express N8 7NX,N8 7NX,51.58738795,-0.119241528
The Co-operative Food SE9 2AA,SE9 2AA,51.43839887,0.070887101
Tesco Express N11 2PP,N11 2PP,51.60544777,-0.122813243
Sainsburys Local N15 3PB,N15 3PB,51.58595215,-0.092261116
Sainsburys Local N6 5AX,N6 5AX,51.5750523,-0.142392965
Waitrose SE1 9LS,SE1 9LS,51.50734401,-0.10577753
Tesco Extra EN3 4DP,EN3 4DP,51.64800591,-0.047683234
The Co-operative Food SE18 3TB,SE18 3TB,51.48137293,0.06985846
Tesco Express TW14 8EN,TW14 8EN,51.45314204,-0.429784787
The Co-operative Food BR4 9HU,BR4 9HU,51.3695213,0.001293258
Tesco Express NW10 3NB,NW10 3NB,51.53135908,-0.216716022
Sainsburys Local SW8 4EX,SW8 4EX,51.47664118,-0.147355422
Little Waitrose SW8 4LT,SW8 4LT,51.47835374,-0.1481338
Tesco Express SE25 4PT,SE25 4PT,51.39399173,-0.067572046
Sainsburys Local SE1 8UL,SE1 8UL,51.50295381,-0.110520163
Tesco Express SE1 8UL,SE1 8UL,51.50287274,-0.110383031
Tesco Express SE4 1UY,SE4 1UY,51.47034122,-0.028498921
Sainsburys Local N17 6AG,N17 6AG,51.59775195,-0.091724073
The Co-operative Food KT6 7TZ,KT6 7TZ,51.38548065,-0.295278624
Waitrose N12 8NR,N12 8NR,51.61135608,-0.179857004
Sainsburys Local SW4 9NG,SW4 9NG,51.45425473,-0.139856265
The Co-operative Food SW4 9NF,SW4 9NF,51.45487589,-0.139217488
Tesco Express E6 1PU,E6 1PU,51.53033314,0.039785754
Tesco Express Esso SE12 0DU,SE12 0DU,51.43266704,0.020951621
Sainsburys Local SE12 0DU,SE12 0DU,51.43165569,0.021025822
Sainsburys Local SE4 2RR,SE4 2RR,51.464529,-0.036764186
The Co-operative Food SW11 3BA,SW11 3BA,51.47914596,-0.170441271
Sainsburys Local E2 8DJ,E2 8DJ,51.53029889,-0.077022554
Sainsburys Local N1 2YG,N1 2YG,51.54405308,-0.090144702
Tesco Express N1 2EB,N1 2EB,51.54338788,-0.091077081
Tesco Express E8 4DN,E8 4DN,51.53831445,-0.076371676
Tesco Express N6 5JG,N6 5JG,51.57066767,-0.146532508
Asda Supermarket SM3 9HB,SM3 9HB,51.38542539,-0.211285833
Tesco Express NW5 4UE,NW5 4UE,51.54577313,-0.162736198
Iceland E8 3SG,E8 3SG,51.53959573,-0.055851636
The Co-operative Food WC1X 8PR,WC1X 8PR,51.52179979,-0.113875078
Marks and Spencer Simply Food SE22 8EF,SE22 8EF,51.46151521,-0.080051884
Waitrose CR2 9LE,CR2 9LE,51.33192372,-0.074889242
Iceland UB4 8JH,UB4 8JH,51.52574384,-0.435055916
Tesco Express Esso N14 4XA,N14 4XA,51.64808513,-0.130176169
The Co-operative Food NW9 8JS,NW9 8JS,51.57355342,-0.262469841
Tesco Express E5 9BU,E5 9BU,51.56360695,-0.059188085
Tesco Express W1W 6BE,W1W 6BE,51.52029282,-0.14084348
The Co-operative Food CR2 9BX,CR2 9BX,51.31979642,-0.064224174
Tesco Express TW9 2PQ,TW9 2PQ,51.46571081,-0.298440384
Marks and Spencer BP NW7 1JX,NW7 1JX,51.60488623,-0.206639629
The Co-operative Food SE23 1HH,SE23 1HH,51.4425216,-0.048430227
Tesco Express W11 3RB,W11 3RB,51.50717107,-0.20641702
Little Waitrose Shell SW15 4LB,SW15 4LB,51.44929569,-0.238104719
The Co-operative Food SW15 4DG,SW15 4DG,51.44958393,-0.241082902
Sainsburys Local SW18 1TG,SW18 1TG,51.45995457,-0.188671242
The Co-operative Food BR2 9JQ,BR2 9JQ,51.39566782,0.025816275
Tesco Express RM14 1XL,RM14 1XL,51.56190928,0.26669344
The Co-operative Food UB4 8BY,UB4 8BY,51.53200818,-0.42128817
The Co-operative Food UB10 9PG,UB10 9PG,51.55113489,-0.448503227
Tesco Metro SW11 4LU,SW11 4LU,51.47467978,-0.152456535
The Co-operative Food WC2B 6LH,WC2B 6LH,51.51387285,-0.117585896
Sainsburys Local E1 0HY,E1 0HY,51.51295371,-0.042700466
The Co-operative Food RM11 1QL,RM11 1QL,51.56506019,0.200561078
The Co-operative Food SE6 2JT,SE6 2JT,51.44218384,-0.010688236
Tesco HA1 2TU,HA1 2TU,51.58630893,-0.333645329
Sainsburys Local E10 6RN,E10 6RN,51.56945754,-0.008053431
The Co-operative Food SW19 8AE,SW19 8AE,51.43510873,-0.197523329
Sainsburys Local SW11 1TQ,SW11 1TQ,51.46005458,-0.177114569
The Co-operative Food RM3 0BP,RM3 0BP,51.59358114,0.233400032
Tesco Express SW14 8AB,SW14 8AB,51.46761652,-0.266386397
The Co-operative Food SM5 3NP,SM5 3NP,51.3568173,-0.173533489
Tesco Express CR7 7ND,CR7 7ND,51.40181812,-0.117955046
Tesco Express DA16 3DX,DA16 3DX,51.46816541,0.110060748
The Co-operative Food SE4 2RA,SE4 2RA,51.45909489,-0.034239528
Tesco Express SW6 7HX,SW6 7HX,51.48092466,-0.206726817
Sainsburys Local KT17 2HP,KT17 2HP,51.36261702,-0.244991544
The Co-operative Food KT17 2HU,KT17 2HU,51.36263895,-0.246362029
The Co-operative Food IG8 8AQ,IG8 8AQ,51.60611727,0.053995181
The Co-operative Food W3 6PL,W3 6PL,51.51585139,-0.267632644
Sainsburys Local SW13 0PX,SW13 0PX,51.4705541,-0.255233093
The Co-operative Food SE9 6SR,SE9 6SR,51.45683295,0.050619574
The Co-operative Food KT19 0SU,KT19 0SU,51.36800091,-0.263617209
Sainsburys Local BR3 4PT,BR3 4PT,51.40879299,-0.040877799
Tesco Express EC1A 4JQ,EC1A 4JQ,51.52052096,-0.097787248
Tesco Express HA3 8RQ,HA3 8RQ,51.60101083,-0.316795362
Sainsburys Local E1 4DT,E1 4DT,51.52216348,-0.046674059
The Co-operative Food E1 4AA,E1 4AA,51.52207598,-0.046071785
Lidl SE19 3HD,SE19 3HD,51.42215374,-0.106523315
The Co-operative Food SE22 0RR,SE22 0RR,51.45360241,-0.062364616
Tesco Express RM11 2LG,RM11 2LG,51.58335301,0.220739738
Lidl SW2 5TN,SW2 5TN,51.45927687,-0.123900031
Sainsburys Local W5 3NW,W5 3NW,51.50995323,-0.28760575
Tesco Express Esso SE13 7TG,SE13 7TG,51.46499345,-0.018067415
The Co-operative Food RM7 0TJ,RM7 0TJ,51.56467404,0.17569197
Marks and Spencer BP SM5 2DR,SM5 2DR,51.37232054,-0.166621042
The Co-operative Food E2 7SJ,E2 7SJ,51.53083922,-0.069885102
Sainsburys Local E2 7SJ,E2 7SJ,51.53085336,-0.070154115
Waitrose W13 0NL,W13 0NL,51.51303485,-0.32135693
Sainsburys Local E8 1GR,E8 1GR,51.54435307,-0.05561843
Sainsburys Local KT2 5QX,KT2 5QX,51.43116815,-0.307392676
Sainsburys HA4 0HQ,HA4 0HQ,51.55702046,-0.396182945
Tesco Express E1 6HP,E1 6HP,51.52447091,-0.077581526
Sainsburys Local KT9 1QF,KT9 1QF,51.36405618,-0.298914539
Tesco Express TW5 9SL,TW5 9SL,51.48001966,-0.41330993
The Co-operative Food RM9 4TP,RM9 4TP,51.53929595,0.128001106
Tesco Express N19 4EB,N19 4EB,51.56354778,-0.118869457
The Co-operative Food SW8 1XW,SW8 1XW,51.47732991,-0.123021369
The Co-operative Food DA15 8DJ,DA15 8DJ,51.44147621,0.086703666
The Co-operative Food DA15 9ER,DA15 9ER,51.44547617,0.102885214
Tesco Express SE19 2AH,SE19 2AH,51.41689762,-0.073620895
Tesco Express SW9 8SE,SW9 8SE,51.46497462,-0.103607632
The Co-operative Food SW9 8RZ,SW9 8RZ,51.46632528,-0.100960518
The Co-operative Food WC1E 7DB,WC1E 7DB,51.51978949,-0.132045955
Sainsburys Local EC1V 9EY,EC1V 9EY,51.52665341,-0.083984755
The Co-operative Food PFS RM8 2UU,RM8 2UU,51.55822289,0.128583007
Budgens SM5 1JQ,SM5 1JQ,51.38430963,-0.174209002
Tesco Express NW1 6TU,NW1 6TU,51.52250842,-0.165070381
Sainsburys Local N17 8AD,N17 8AD,51.60015189,-0.068150488
The Co-operative Food N11 1NE,N11 1NE,51.61588745,-0.143893775
The Co-operative Food E4 6LQ,E4 6LQ,51.61909178,0.005739433
The Co-operative Food SE6 3BT,SE6 3BT,51.43245225,-0.021196328
Budgens SM6 0DW,SM6 0DW,51.361984,-0.150962858
Sainsburys Local W14 8NS,W14 8NS,51.4971537,-0.205067337
Sainsburys Local SE16 4RT,SE16 4RT,51.49819977,-0.061394243
Tesco Express Esso E17 9AA,E17 9AA,51.57835577,-0.01782875
Budgens BR2 8AR,BR2 8AR,51.39017561,0.049821117
Tesco Express W2 1EE,W2 1EE,51.51833757,-0.171441483
The Co-operative Food W12 9RA,W12 9RA,51.50630943,-0.237946243
Tesco Express CR7 0PL,CR7 0PL,51.34809227,-0.093890013
Tesco Express E14 9SH,E14 9SH,51.50047743,-0.01736383
Tesco Express HA0 3NJ,HA0 3NJ,51.5629652,-0.305324329
The Co-operative Food SE8 4HH,SE8 4HH,51.47438139,-0.021783125
Tesco Express SE21 8SZ,SE21 8SZ,51.43619513,-0.090850076
Sainsburys Local TW10 6NQ,TW10 6NQ,51.4552322,-0.296741259
Tesco Express N14 5JP,N14 5JP,51.63180052,-0.143257706
Tesco Express SW15 5QJ,SW15 5QJ,51.46436786,-0.237348258
The Co-operative Food SE5 0TJ,SE5 0TJ,51.47826045,-0.102822143
The Co-operative Food SE7 8UG,SE7 8UG,51.48197767,0.037098576
Tesco Express CR4 2AJ,CR4 2AJ,51.41642263,-0.152614942
Sainsburys Local SE22 8JJ,SE22 8JJ,51.45005494,-0.075060391
The Co-operative Food BR3 3QP,BR3 3QP,51.39214515,-0.037924102
The Co-operative Food TW7 7AL,TW7 7AL,51.46838297,-0.326172074
The Co-operative Food W12 9PE,W12 9PE,51.49994383,-0.23891642
The Co-operative Food SW12 9BE,SW12 9BE,51.44169195,-0.153986752
The Co-operative Food SE25 5QF,SE25 5QF,51.38919246,-0.089108412
Tesco Express EC1Y 1AG,EC1Y 1AG,51.52278116,-0.086873491
Tesco Express NW6 1DR,NW6 1DR,51.55554719,-0.196890337
The Co-operative Food DA7 5AE,DA7 5AE,51.46544125,0.146524113
Tesco Express W10 6QH,W10 6QH,51.51975657,-0.225814748
The Co-operative Food SW20 9NQ,SW20 9NQ,51.39266302,-0.223062585
Tesco Express E14 9RB,E14 9RB,51.49632413,-0.015538478
The Co-operative Food SE20 8AJ,SE20 8AJ,51.4126033,-0.067420051
Tesco Express EN2 7AE,EN2 7AE,51.65379428,-0.091377205
Little Waitrose EN2 7AS,EN2 7AS,51.65343475,-0.092510237
Tesco Express N1 6AA,N1 6AA,51.5299194,-0.086440747
Tesco Express N22 5JH,N22 5JH,51.59908766,-0.102916867
The Co-operative Food SE9 4EB,SE9 4EB,51.42671326,0.045696299
Tesco Express SE22 9BD,SE22 9BD,51.46195593,-0.068298118
Tesco Express N6 6QX,N6 6QX,51.5621005,-0.14946109
The Co-operative Food SE13 6RT,SE13 6RT,51.45115539,-0.006465805
Tesco Express EC1Y 4TY,EC1Y 4TY,51.52089717,-0.089645807
The Co-operative Food SE18 2RS,SE18 2RS,51.4804444,0.080776753
Tesco Express SW6 6TD,SW6 6TD,51.47576377,-0.214893478
The Co-operative Food E17 5RG,E17 5RG,51.59652327,-0.035388579
Sainsburys Local SE23 1EA,SE23 1EA,51.44935513,-0.044666048
The Co-operative Food RM9 4ND,RM9 4ND,51.54111664,0.113663644
The Co-operative Food RM8 3NH,RM8 3NH,51.55441604,0.142412167
Tesco Express Esso SW19 2BN,SW19 2BN,51.41880525,-0.178267271
The Co-operative Food SW19 2FA,SW19 2FA,51.4175225,-0.178338812
Tesco Express SE15 2ND,SE15 2ND,51.47357376,-0.05708365
Waitrose EC1V 4DE,EC1V 4DE,51.52418507,-0.102718489
Sainsburys Local EN1 1BA,EN1 1BA,51.64185108,-0.069192752
Tesco Express E6 3PA,E6 3PA,51.52590909,0.057014709
The Co-operative Food CR0 9AS,CR0 9AS,51.35089176,-0.038053255
Tesco Express Esso SW13 9EW,SW13 9EW,51.48480398,-0.234470638
The Co-operative Food CR7 8BB,CR7 8BB,51.40873141,-0.10565309
Sainsburys Local BR3 3DE,BR3 3DE,51.39075635,-0.027702019
Tesco Express BR1 4DS,BR1 4DS,51.41520149,0.018021824
Sainsburys Local SW15 2SU,SW15 2SU,51.45905456,-0.209191887
The Co-operative Food SW15 2SR,SW15 2SR,51.45883416,-0.210011859
Tesco Express RM11 2LD,RM11 2LD,51.57166571,0.218765848
The Co-operative Food BR1 3RE,BR1 3RE,51.41129459,0.014141702
Tesco Express Esso SM3 9BY,SM3 9BY,51.37579676,-0.222403009
Tesco Express KT6 5AR,KT6 5AR,51.37621703,-0.303061491
Sainsburys Local EC1V 1NR,EC1V 1NR,51.52823149,-0.090087337
Tesco Express HA4 0QP,HA4 0QP,51.56096472,-0.38117474
The Co-operative Food DA16 2PQ,DA16 2PQ,51.45728365,0.09362978
Tesco Express KT4 7NW,KT4 7NW,51.38553637,-0.252544912
Tesco Express SE1 4AG,SE1 4AG,51.49436734,-0.092334531
The Co-operative Food SE3 8RP,SE3 8RP,51.47448609,0.035172493
The Co-operative Food IG11 8UW,IG11 8UW,51.54590959,0.094715526
Tesco Express UB6 8PX,UB6 8PX,51.54189002,-0.346681175
The Co-operative Food DA5 1BT,DA5 1BT,51.4479634,0.121066079
Sainsburys Local W7 2DG,W7 2DG,51.49695336,-0.325578958
Tesco Express HA8 8TE,HA8 8TE,51.62653667,-0.27035315
The Co-operative Food SE20 7UX,SE20 7UX,51.40620398,-0.057841257
The Co-operative Food RM14 2RB,RM14 2RB,51.55843652,0.2382971
Tesco Express E1 4UJ,E1 4UJ,51.52102159,-0.051978651
The Co-operative Food EN4 9EB,EN4 9EB,51.65050472,-0.149524486
Tesco Express TW14 0JY,TW14 0JY,51.45841496,-0.403688964
Aldi IG3 8RS,IG3 8RS,51.56519417,0.104811695
Tesco Express SW20 8JX,SW20 8JX,51.40957692,-0.213544173
The Co-operative Food SW20 8LX,SW20 8LX,51.40935502,-0.212743356
The Co-operative Food SW19 8JZ,SW19 8JZ,51.42670509,-0.190819292
Sainsburys Local SW3 3DH,SW3 3DH,51.49225395,-0.166083924
The Co-operative Food SW16 5SQ,SW16 5SQ,51.41537634,-0.139361553
The Co-operative Food E16 1EQ,E16 1EQ,51.5160867,0.00931287
The Co-operative Food E17 6SX,E17 6SX,51.58831324,-0.040196583
Budgens CR5 3BR,CR5 3BR,51.31884644,-0.149313871
Sainsburys Local TW4 5AL,TW4 5AL,51.4653539,-0.378531676
The Co-operative Food CR4 1LU,CR4 1LU,51.3998518,-0.132893855
Aldi RM5 2AT,RM5 2AT,51.59790139,0.157696457
The Co-operative Food E14 9GE,E14 9GE,51.49885239,-0.016004389
The Co-operative Food N12 9ET,N12 9ET,51.61216713,-0.172891415
The Co-operative Food SW18 2QE,SW18 2QE,51.45757701,-0.184499082
Tesco Express W12 7TU,W12 7TU,51.51308374,-0.22772287
Tesco Express SW17 0NT,SW17 0NT,51.43377502,-0.185507809
Sainsburys Local SW19 1AW,SW19 1AW,51.42015529,-0.18733118
Tesco Express CR0 7RA,CR0 7RA,51.38857723,-0.052302538
The Co-operative Food PFS E1W 2BN,E1W 2BN,51.50949184,-0.063400058
Lidl NW9 8SD,NW9 8SD,51.56467752,-0.263883484
Budgens W4 3JY,W4 3JY,51.48667841,-0.271628138
The Co-operative Food TW2 5NJ,TW2 5NJ,51.43627077,-0.350962464
The Co-operative Food RM13 7PP,RM13 7PP,51.54028498,0.192236235
The Co-operative Food IG6 2LD,IG6 2LD,51.60210137,0.083923717
Sainsburys SE25 6XB,SE25 6XB,51.3988849,-0.086253213
Tesco Express SW1A 2JR,SW1A 2JR,51.50119511,-0.125199293
Tesco Express Esso BR2 0TY,BR2 0TY,51.39243734,0.002382713
Tesco Express N20 0BU,N20 0BU,51.62588241,-0.160074026
Sainsburys SE12 8PZ,SE12 8PZ,51.45615326,0.010155266
Tesco Express SE20 7QB,SE20 7QB,51.41114031,-0.04826271
Tesco Express W3 6BX,W3 6BX,51.5229301,-0.260393291
Tesco Express Esso SM3 8HB,SM3 8HB,51.36114013,-0.217833044
The Co-operative Food TW11 9JF,TW11 9JF,51.42087618,-0.318792863
Tesco Express E14 9RL,E14 9RL,51.50861803,-0.009639014
Tesco Express RM2 5TJ,RM2 5TJ,51.57776399,0.207374043
Budgens SE24 9JY,SE24 9JY,51.45325573,-0.094108152
Tesco Express SE11 4RS,SE11 4RS,51.48955115,-0.105094545
Sainsburys Local N4 2SB,N4 2SB,51.57163614,-0.089531031
The Co-operative Food BR7 6DG,BR7 6DG,51.42193204,0.061798649
Tesco Express TW13 6SA,TW13 6SA,51.43079691,-0.390017454
Tesco Express Esso UB3 4NE,UB3 4NE,51.50068118,-0.421342529
Tesco Express Esso SW17 7BQ,SW17 7BQ,51.43881831,-0.155900968
Tesco Express KT1 3RT,KT1 3RT,51.40873437,-0.27432142
Sainsburys Local SM5 3JG,SM5 3JG,51.35514273,-0.161928223
Tesco Express RM7 7HH,RM7 7HH,51.57816259,0.175405242
Tesco Express UB5 5AU,UB5 5AU,51.53745723,-0.389440866
Sainsburys Local TW2 5AB,TW2 5AB,51.44465453,-0.341530197
Sainsburys Local RM12 6RJ,RM12 6RJ,51.5525288,0.218249113
The Co-operative Food IG5 0EN,IG5 0EN,51.58750232,0.069590771
Tesco Express RM7 8AB,RM7 8AB,51.58242041,0.164235344
Marks and Spencer BP SM5 3QB,SM5 3QB,51.36291326,-0.172373874
The Co-operative Food EN2 0QU,EN2 0QU,51.66387541,-0.093803248
The Co-operative Food SE2 0BS,SE2 0BS,51.4873976,0.113711089
Tesco Express Esso W3 9RH,W3 9RH,51.50835131,-0.281241437
The Co-operative Food SE1 9RE,SE1 9RE,51.50628094,-0.100993103
Marks and Spencer Simply Food SE1 0HX,SE1 0HX,51.50555376,-0.09801006
Lidl DA14 5HJ,DA14 5HJ,51.41834123,0.119317882
Budgens N7 0EA,N7 0EA,51.55766807,-0.131786713
Sainsburys Local SW8 1SP,SW8 1SP,51.48565416,-0.123735784
Little Waitrose SW8 1SJ,SW8 1SJ,51.48526443,-0.123932831
Tesco Express Esso CR0 8DN,CR0 8DN,51.37666908,-0.034448016
Tesco Express EN3 6GS,EN3 6GS,51.66878769,-0.016481075
Tesco Express UB10 8LB,UB10 8LB,51.56906633,-0.43961627
Tesco Express Esso W9 1UP,W9 1UP,51.52840431,-0.181985258
Tesco Express EC1A 9LR,EC1A 9LR,51.51815313,-0.102734374
Tesco Express EC1M 3JB,EC1M 3JB,51.52020176,-0.10613072
Iceland SE5 0EE,SE5 0EE,51.48039833,-0.094746085
Tesco Express SE1 4AU,SE1 4AU,51.50091835,-0.091229046
Budgens W4 5LG,W4 5LG,51.49625923,-0.263548195
The Co-operative Food KT1 3BJ,KT1 3BJ,51.40125419,-0.294585176
Tesco Express SW3 4HN,SW3 4HN,51.48596291,-0.161405633
Sainsburys Local SE3 9FW,SE3 9FW,51.461489,0.027107013
The Co-operative Food SW19 6DA,SW19 6DA,51.44099426,-0.221832873
The Co-operative Food SE9 6DR,SE9 6DR,51.45542922,0.040483449
Marks and Spencer BP UB5 4NP,UB5 4NP,51.55630921,-0.360985275
The Co-operative Food RM1 4YD,RM1 4YD,51.59832141,0.176770725
The Co-operative Food EC1V 1LA,EC1V 1LA,51.53009046,-0.09807041
Sainsburys Local SM4 4AJ,SM4 4AJ,51.40268383,-0.209752366
Sainsburys Local SW6 2UL,SW6 2UL,51.47237268,-0.191839667
The Co-operative Food DA7 5QR,DA7 5QR,51.47396345,0.126461521
Sainsburys Local DA7 5QR,DA7 5QR,51.4736265,0.126728668
Tesco Express E10 7EA,E10 7EA,51.57198298,-0.02127429
Tesco Express Esso SW6 2EL,SW6 2EL,51.47792473,-0.189345072
Sainsburys Local SW15 1EU,SW15 1EU,51.46735434,-0.220879737
Iceland TW4 7DN,TW4 7DN,51.47267466,-0.386258305
The Co-operative Food E5 0LH,E5 0LH,51.55238884,-0.044442389
Tesco Express SE8 3BN,SE8 3BN,51.48068442,-0.022080241
Sainsburys Local SE4 2EW,SE4 2EW,51.46375486,-0.039034215
The Co-operative Food E9 6JF,E9 6JF,51.54781791,-0.045744333
Tesco Express W14 8UZ,W14 8UZ,51.49506847,-0.21100752
Waitrose E1W 1YY,E1W 1YY,51.50683066,-0.067254111
Tesco Express N5 1AN,N5 1AN,51.55382409,-0.10546528
Tesco Express EC1A 2AT,EC1A 2AT,51.51681758,-0.104382103
Sainsburys Local DA17 5JG,DA17 5JG,51.4817789,0.144807085
The Co-operative Food DA17 5JG,DA17 5JG,51.48194183,0.145107433
Tesco Express Esso NW1 9HG,NW1 9HG,51.54535719,-0.133367631
The Co-operative Food EN5 2DY,EN5 2DY,51.64573646,-0.203310748
The Co-operative Food SW19 4ST,SW19 4ST,51.42099123,-0.220252262
The Co-operative Food W4 3HD,W4 3HD,51.48162734,-0.267792399
Sainsburys Local W3 8YF,W3 8YF,51.50195476,-0.271713091
Tesco Express TW7 5AY,TW7 5AY,51.47716297,-0.327409697
Sainsburys Local SW1P 4LY,SW1P 4LY,51.49465351,-0.129356803
Tesco Extra RM3 0LL,RM3 0LL,51.59368632,0.218663383
Marks and Spencer Simply Food EN1 3RR,EN1 3RR,51.65445625,-0.057023412
Aldi EN1 1TH,EN1 1TH,51.65446957,-0.056708692
Sainsburys EN1 1TH,EN1 1TH,51.65200005,-0.057718554
Sainsburys UB3 3EX,UB3 3EX,51.51546616,-0.40333568
Asda Superstore E10 5NH,E10 5NH,51.55638664,-0.009061154
Asda Superstore SE7 7ST,SE7 7ST,51.48874629,0.022178686
Iceland E6 6LA,E6 6LA,51.5232448,0.070257885
Aldi RM9 6SJ,RM9 6SJ,51.53094752,0.144825037
Asda Superstore RM9 6SJ,RM9 6SJ,51.53005973,0.142390653
Marks and Spencer BP IG2 7RH,IG2 7RH,51.57418557,0.085486856
Aldi IG2 6BE,IG2 6BE,51.57507369,0.084378144
Marks and Spencer TW9 4AD,TW9 4AD,51.47761894,-0.278574127
Marks and Spencer BP SW18 1EW,SW18 1EW,51.46203087,-0.188253325
Morrisons EN1 1TW,EN1 1TW,51.64802226,-0.059323089
Aldi SW19 2PP,SW19 2PP,51.41598452,-0.178790441
The Food Warehouse SE7 8LU,SE7 8LU,51.4898,0.034600013
Farmfoods EN3 4EF,EN3 4EF,51.64158708,-0.046167815
Asda Supermarket EN3 4EF,EN3 4EF,51.64151541,-0.045908721
Lidl SE6 2DD,SE6 2DD,51.44446242,-0.019051918
Lidl SW17 0BW,SW17 0BW,51.43029946,-0.184804078
Sainsburys Local SW1W 9RB,SW1W 9RB,51.49314498,-0.149304322
Asda Superstore SE1 5AG,SE1 5AG,51.48468806,-0.070006199
Sainsburys CR0 4XT,CR0 4XT,51.3757935,-0.117781701
The Co-operative Food NW11 6JT,NW11 6JT,51.5859199,-0.18109632
Sainsburys IG2 7SH,IG2 7SH,51.58155499,0.087312571
Sainsburys SE14 5UQ,SE14 5UQ,51.47720882,-0.042311467
Tesco SE1 5HG,SE1 5HG,51.48881499,-0.076055079
Tesco Extra UB2 5LN,UB2 5LN,51.49903411,-0.407727832
Lidl IG1 1NJ,IG1 1NJ,51.56059329,0.078934064
Farmfoods IG1 1NF,IG1 1NF,51.56080505,0.078995662
Waitrose HA3 6HF,HA3 6HF,51.60540643,-0.339673971
Iceland HA3 6HF,HA3 6HF,51.60544834,-0.339865517
Tesco Express SE1 4TL,SE1 4TL,51.4959089,-0.083397682
Marks and Spencer SW19 1DD,SW19 1DD,51.4149244,-0.181410932
Sainsburys SW19 1DD,SW19 1DD,51.41519875,-0.181525879
As Nature Intended E20 1GP,E20 1GP,51.54406121,-0.008739239
Waitrose E20 1EH,E20 1EH,51.54350911,-0.009690523
Marks and Spencer E20 1EH,E20 1EH,51.54230075,-0.005030601
Marks and Spencer W12 7GA,W12 7GA,51.50845981,-0.22036265
Waitrose W12 7GA,W12 7GA,51.5068255,-0.22050342
Marks and Spencer NW4 3FE,NW4 3FE,51.57592857,-0.225068128
Waitrose NW4 3FQ,NW4 3FQ,51.57786608,-0.223946157
Marks and Spencer Simply Food E14 5NY,E14 5NY,51.50240393,-0.017975872
Tesco Metro E14 4QT,E14 4QT,51.50515302,-0.021503386
Waitrose E14 5EW,E14 5EW,51.50461267,-0.016813865
Lidl N9 0TY,N9 0TY,51.62454147,-0.05976784
Iceland N9 0HW,N9 0HW,51.62568425,-0.05632298
Aldi TW13 4DD,TW13 4DD,51.44392087,-0.41201161
Iceland TW13 4BH,TW13 4BH,51.44539225,-0.410926051
Asda Superstore TW13 4BH,TW13 4BH,51.44680567,-0.412162514
The Co-operative Food SE1 6TB,SE1 6TB,51.49466191,-0.099842028
Iceland SE1 6TB,SE1 6TB,51.49464999,-0.09935666
Tesco Extra SE16 7LL,SE16 7LL,51.49451155,-0.046137012
Tesco Extra UB4 9SQ,UB4 9SQ,51.52476578,-0.385063457
Marks and Spencer Travel SF N1 9AP,N1 9AP,51.53161229,-0.124230599
Marks and Spencer Travel SF SE1 8SW,SE1 8SW,51.50253645,-0.112820486
Little Waitrose N1C 4AP,N1C 4AP,51.53254746,-0.123563957
Marks and Spencer MSA TW5 9NB,TW5 9NB,51.48769783,-0.39461339
Marks and Spencer Travel SF EC2M 7PY,EC2M 7PY,51.51922815,-0.081211517
Marks and Spencer Travel SF N1C 4QL,N1C 4QL,51.53041726,-0.125680667
Marks and Spencer Travel SF N1C 4QL,N1C 4QL,51.53100896,-0.12594515
Marks and Spencer Travel SF SE1 8SW,SE1 8SW,51.50305999,-0.112032305
Sainsburys Local W2 1HB,W2 1HB,51.51585341,-0.176825854
Marks and Spencer Travel SF W2 1HA,W2 1HA,51.51626216,-0.176614526
Marks and Spencer Travel SF SE1 9SP,SE1 9SP,51.50441782,-0.085502936
Marks and Spencer Foodhall SE1 9SP,SE1 9SP,51.5049021,-0.086011719
Sainsburys Local SW11 1SA,SW11 1SA,51.46355445,-0.169183683
Marks and Spencer Travel SF SW11 1RU,SW11 1RU,51.46381426,-0.169455166
Sainsburys Local TW9 1DN,TW9 1DN,51.46285423,-0.302078081
Marks and Spencer Travel SF TW9 2NA,TW9 2NA,51.46301267,-0.30192853
Marks and Spencer Travel SF EC4N 6AP,EC4N 6AP,51.51137715,-0.090255799
Marks and Spencer Travel SF SM2 5AD,SM2 5AD,51.35962022,-0.190830254
Sainsburys Local KT6 4PE,KT6 4PE,51.39255563,-0.304578624
The Co-operative Food NW11 2JN,NW11 2JN,51.56323794,-0.197477331
Tesco Extra E6 7FB,E6 7FB,51.51761399,0.075514083
Aldi SE28 8DT,SE28 8DT,51.50609401,0.106118474
Iceland SE28 8RA,SE28 8RA,51.50677319,0.106696673
Morrisons SE28 8RD,SE28 8RD,51.50779873,0.105800796
Lidl UB6 0UW,UB6 0UW,51.54196899,-0.340317827
Marks and Spencer Foodhall UB6 0UW,UB6 0UW,51.54202523,-0.338984604
Iceland RM6 4AU,RM6 4AU,51.56981536,0.121803887
Lidl RM6 4AU,RM6 4AU,51.56994844,0.122030839
Marks and Spencer Foodhall NW9 0AW,NW9 0AW,51.59462881,-0.262305696
Asda Superstore NW9 0AS,NW9 0AS,51.5940929,-0.261078168
Morrisons NW9 0AS,NW9 0AS,51.59298382,-0.259957669
Tesco IG8 8GE,IG8 8GE,51.59211441,0.040153214
Aldi KT3 3SY,KT3 3SY,51.40411509,-0.272282037
The Co-operative Food UB10 8DF,UB10 8DF,51.56448919,-0.445130036
Marks and Spencer BP N11 2UU,N11 2UU,51.61049499,-0.136978707
Sainsburys Local SE24 9QH,SE24 9QH,51.45315491,-0.101397051
Tesco Express E14 7BY,E14 7BY,51.51457113,-0.028061381
Tesco Express KT9 1SG,KT9 1SG,51.36925754,-0.295431014
Sainsburys Local W6 8QZ,W6 8QZ,51.48465401,-0.219774855
Tesco Express W6 9PA,W6 9PA,51.48525706,-0.220475267
Little Waitrose W6 8QX,W6 8QX,51.48394846,-0.219445656
Sainsburys Local SW4 6TA,SW4 6TA,51.47275909,-0.122517128
Sainsburys Local SW9 9AE,SW9 9AE,51.47045246,-0.125218684
Iceland SW9 9AE,SW9 9AE,51.47059396,-0.125041396
Tesco Express TW9 3PZ,TW9 3PZ,51.47705453,-0.286047711
Tesco Express SE6 4AS,SE6 4AS,51.45034523,-0.016649645
Budgens SE13 6NZ,SE13 6NZ,51.45200394,-0.016394521
Sainsburys Local SW16 6NR,SW16 6NR,51.42511551,-0.140750651
Marks and Spencer Simply Food BR3 1AY,BR3 1AY,51.40931791,-0.025575979
Waitrose IG9 5EP,IG9 5EP,51.62540172,0.045147391
Sainsburys Local NW5 2HP,NW5 2HP,51.55595274,-0.138903882
Marks and Spencer BP EN3 7NT,EN3 7NT,51.65707348,-0.030096233
Makro EN3 7XA,EN3 7XA,51.65475693,-0.024523708
Little Waitrose N21 2QP,N21 2QP,51.63530578,-0.093732359
Tesco Express RM13 7QX,RM13 7QX,51.52859901,0.189640012
The Co-operative Food NW10 5NY,NW10 5NY,51.53146309,-0.232074604
Sainsburys Local SE13 5ND,SE13 5ND,51.45297861,-0.001031578
Iceland UB6 0HY,UB6 0HY,51.55609033,-0.336732375
Tesco Express TW10 7NR,TW10 7NR,51.43661258,-0.320776924
Tesco Express HA2 0AT,HA2 0AT,51.57174322,-0.353621945
Aldi E10 7NQ,E10 7NQ,51.56922276,-0.030050617
Sainsburys Local W3 8HR,W3 8HR,51.50209499,-0.281932542
Lidl SM5 1AD,SM5 1AD,51.38401139,-0.189433477
Tesco Express UB8 3NJ,UB8 3NJ,51.52601569,-0.45856966
Marks and Spencer Travel SF EC3M 4AJ,EC3M 4AJ,51.51158626,-0.078635326
The Food Warehouse N15 4QD,N15 4QD,51.5873,-0.0625342
Lidl N15 4QD,N15 4QD,51.58678127,-0.060960398
Asda Living N15 4QD,N15 4QD,51.58722219,-0.060961257
Lidl HA9 8TS,HA9 8TS,51.56121043,-0.281082486
Asda Superstore NW10 7LW,NW10 7LW,51.52863494,-0.270274739
Waitrose MSA NW7 3HB,NW7 3HB,51.63138294,-0.264242026
Marks and Spencer Travel SF SW1V 1JY,SW1V 1JY,51.49568137,-0.144521358
Marks and Spencer Travel SF SW1V 1JU,SW1V 1JU,51.49499797,-0.143858616
Sainsburys Local SW1W 9SJ,SW1W 9SJ,51.49395387,-0.145508443
Marks and Spencer Travel SF NW1 2HS,NW1 2HS,51.5284433,-0.133281427
Sainsburys Local NW1 2DU,NW1 2DU,51.52755324,-0.133949854
Marks and Spencer Travel SF NW1 2HS,NW1 2HS,51.52855974,-0.133992895
Costco CR0 4RR,CR0 4RR,51.35391793,-0.117691018
Sainsburys Local E20 1DB,E20 1DB,51.54691276,-0.007690079
Marks and Spencer Travel SF NW1 6JR,NW1 6JR,51.52270057,-0.162805416
Tesco Express SW2 1SD,SW2 1SD,51.45215439,-0.121902141
Waitrose HA2 0EG,HA2 0EG,51.5676416,-0.352147582
Asda Superstore TW3 1JT,TW3 1JT,51.47111709,-0.361397206
Tesco Express E16 1BL,E16 1BL,51.50834299,0.019212464
The Co-operative Food SE1 3LS,SE1 3LS,51.49985286,-0.078552225
Tesco Express SW2 4QY,SW2 4QY,51.44692817,-0.127901981
Tesco Extra N18 3HF,N18 3HF,51.6100031,-0.048302188
Waitrose N1C 4BZ,N1C 4BZ,51.5360948,-0.123502906
Aldi HA4 0AJ,HA4 0AJ,51.55962796,-0.401444662
Asda Superstore HA4 0EF,HA4 0EF,51.55854134,-0.399840733
The Co-operative Food RM6 5NR,RM6 5NR,51.58422539,0.135690802
The Co-operative Food PFS RM11 1XA,RM11 1XA,51.56769945,0.219642407
The Co-operative Food DA5 3HP,DA5 3HP,51.43590257,0.125628542
The Co-operative Food CR8 5AA,CR8 5AA,51.32579061,-0.101217102
Tesco Extra NW10 0TL,NW10 0TL,51.55405753,-0.255329814
Spar IG11 0TT,IG11 0TT,51.53129616,0.12359099
Spar HA0 1JQ,HA0 1JQ,51.535062,-0.297506639
Spar TW5 0RG,TW5 0RG,51.48843133,-0.371641227
Spar KT9 1PL,KT9 1PL,51.37066425,-0.306311135
Spar NW2 6LD,NW2 6LD,51.5657817,-0.225822123
Spar E12 5HH,E12 5HH,51.56226158,0.033456297
Spar NW7 2PT,NW7 2PT,51.61545576,-0.241998828
Spar SW9 6SE,SW9 6SE,51.47632987,-0.105663576
Spar SE3 0DZ,SE3 0DZ,51.46939506,0.024835091
Spar SM1 2LW,SM1 2LW,51.36490088,-0.214088183
Spar TW5 9AN,TW5 9AN,51.47499285,-0.392207166
Spar E3 4PE,E3 4PE,51.52731512,-0.036914003
Spar E2 9LH,E2 9LH,51.52907054,-0.056083319
Spar CR0 4TJ,CR0 4TJ,51.37317384,-0.131867385
Spar NW10 1DE,NW10 1DE,51.55359975,-0.244165442
Spar RM11 1DR,RM11 1DR,51.56503448,0.203730815
Spar E14 6BA,E14 6BA,51.5153202,-0.0184459
Spar UB3 1LL,UB3 1LL,51.49614282,-0.446362646
Spar HA6 2HU,HA6 2HU,51.63169678,-0.415816654
Lidl SE15 1NJ,SE15 1NJ,51.47980996,-0.058337461
Lidl TW2 5NT,TW2 5NT,51.43553209,-0.350472082
Tesco SE5 5EJ,SE5 5EJ,51.46688356,-0.090422713
Spar DA15 9LU,DA15 9LU,51.4502244,0.1047604
Spar SW15 5RW,SW15 5RW,51.46327859,-0.249929545
Spar IG11 8TU,IG11 8TU,51.5400452,0.0824532
Tesco WC1V 6BS,WC1V 6BS,51.51839351,-0.112592822
Spar NW3 5EY,NW3 5EY,51.54571516,-0.177547942
Spar N18 2SX,N18 2SX,51.61048206,-0.066151481
Spar W6 8JA,W6 8JA,51.48970839,-0.222890615
Spar BR3 3RA,BR3 3RA,51.39881923,-0.042310759
Spar HA3 8SF,HA3 8SF,51.60129339,-0.317085281
Spar HA3 0AZ,HA3 0AZ,51.5816748,-0.3172686
Spar IG3 9RY,IG3 9RY,51.5628923,0.115575
Spar CR0 2JG,CR0 2JG,51.38515782,-0.097922385
Spar E17 9NJ,E17 9NJ,51.58259878,-0.012937296
Spar N20 0LH,N20 0LH,51.62777321,-0.174474224
Spar W3 6PH,W3 6PH,51.51487003,-0.268269583
Spar KT1 3LU,KT1 3LU,51.40667395,-0.282510059
Spar E9 6DA,E9 6DA,51.55147779,-0.043561944
Spar SW18 5JS,SW18 5JS,51.44659009,-0.198361045
Spar WC1N 3LP,WC1N 3LP,51.52269594,-0.118788106
