Name,Postcode,Latitude,Longitude
AURORA MEDCARE,IG11 0LG,51.527941,0.10387556
DR GS KALKAT'S PRACTICE,IG11 0LG,51.527941,0.10387556
GP CARE UNREGISTERED SUBSTANCE MISUSERS,IG11 0LG,51.527941,0.10387556
CHILD & FAMILY HEALTH CENTRE,IG11 7LY,51.535409,0.078424
SHIFA MEDICAL PRACTICE,IG11 7RS,51.531371,0.081512428
THE WHITE HOUSE SURGERY,IG11 7UN,51.534005,0.088149992
CRI B&D RECOVERY SERVICE,IG11 8FE,51.538717,0.076483194
VICTORIA MEDICAL CENTRE,IG11 8GD,51.54096,0.076282445
LONDON AMBULANCE SERV NHS111 IUC CAS OOH,IG11 8HG,51.538938,0.078742854
ABBEY MEDICAL CENTRE,IG11 8RJ,51.542256,0.078216284
DR P PRASAD'S PRACTICE,IG11 9LD,51.542871,0.096257157
JOHN SMITH MEDICAL CENTRE,IG11 9LL,51.538691,0.11217286
BARKING MEDICAL GROUP PRACTICE,IG11 9LT,51.541307,0.097223615
BARKING HOSPITAL URGENT TREATMENT CENTRE,IG11 9LX,51.538871,0.098669045
HIGHGROVE SURGERY,IG11 9LX,51.538871,0.098669045
DR AA ANSARI'S PRACTICE,IG11 9RS,51.535352,0.094311082
DR R CHIBBER'S PRACTICE,IG11 9XQ,51.538832,0.08368429
LABURNUM HEALTH CENTRE,RM10 7DF,51.560495,0.1514593
TOGETHER FIRST,RM10 7DF,51.560495,0.1514593
BARKING DRUG & ALCOHOL RECOVERY,RM10 7UP,51.552415,0.16442113
THE OVAL PRACTICE,RM10 7YU,51.551484,0.15883782
DR C OLA'S PRACTICE,RM10 8AR,51.542348,0.16368374
DR DP SHAH'S PRACTICE,RM10 8EJ,51.545131,0.16000821
DR M FATEH'S PRACTICE,RM10 9AT,51.529546,0.15761231
HEATHWAY MEDICAL CENTRE,RM10 9HU,51.534808,0.15216548
THE CLINICAL ASSESSMENT SERVICE,RM10 9HU,51.534808,0.15216548
DAGENHAM WALK IN CENTRE,RM10 9HU,51.534808,0.15216548
PRIME PRACTICE PARTNERSHIP,RM10 9HU,51.534808,0.15216548
CARE UK CATS UROLOGY,RM10 9HU,51.534808,0.15216548
CARE UK CATS NEUROLOGY,RM10 9HU,51.534808,0.15216548
CARE UK CATS DERMATOLOGY,RM10 9HU,51.534808,0.15216548
CARE UK CATS GYNAECOLOGY,RM10 9HU,51.534808,0.15216548
DR M GOYAL'S PRACTICE,RM10 9RR,51.540066,0.15673988
PELC BARKING & DAGENHAM OOH,RM10 9SR,51.538967,0.15730802
MARKS GATE HEALTH CENTRE,RM6 5LL,51.584635,0.13702397
THE LAWNS MEDICAL CARE,RM6 5LL,51.584635,0.13702397
THE UPSTAIRS SURGERY,RM6 6RT,51.573715,0.14011965
DR SJ HASKELL,RM6 6RT,51.573715,0.14011965
DR A PATEL,RM6 6RT,51.573715,0.14011965
DR SANOMI,RM7 0XR,51.560727,0.1759684
DR P & S POOLOGANATHAN,RM7 0XR,51.560727,0.1759684
PBC SANOMI ENT,RM7 0XR,51.560727,0.1759684
RUSH GREEN WEEKEND SERVICE OOH,RM7 0XR,51.560727,0.1759684
COMMUNITY ENT SERVICE,RM7 0XR,51.560727,0.1759684
GREEN LANE SURGERY,RM8 1BX,51.561286,0.13376487
DR A ARIF,RM8 2AJ,51.551396,0.11527123
PORTERS AVENUE SURGERY,RM8 2EQ,51.545373,0.12260706
GABLES SURGERY,RM8 2LD,51.545711,0.11786324
DR AK MITTAL'S PRACTICE,RM8 2LD,51.545711,0.11786324
DR A MOGHAL'S PRACTICE,RM8 3HP,51.559373,0.1410476
DR SZ HAIDER'S PRACTICE,RM8 3RH,51.553086,0.13074125
TULASI MEDICAL CENTRE,RM8 3XU,51.561005,0.12448914
DR BK JAISWAL'S PRACTICE,RM9 4SR,51.538887,0.12572292
HALBUTT STREET SURGERY,RM9 5AS,51.546983,0.14681208
VENKAT HEALTH CENTRE,RM9 5QP,51.551311,0.13088913
FIVE ELMS MEDICAL PRACTICE,RM9 5TT,51.553352,0.14229391
ST ALBANS SURGERY,RM9 6EA,51.537122,0.13331215
DR KM ALKAISY PRACTICE,RM9 6EA,51.537122,0.13331215
HEDGEMANS MEDICAL CENTRE,RM9 6HT,51.539764,0.14327082
EAST BARNET HEALTH CENTRE,EN4 8QZ,51.646567,-0.16658786
EBHC DR P WESTON,EN4 8QZ,51.646567,-0.16658786
EBHC DR CJ PESKIN,EN4 8QZ,51.646567,-0.16658786
COMM ENT (THE PRACTICE),EN4 8QZ,51.646567,-0.16658786
THE VILLAGE SURGERY,EN4 8RF,51.648267,-0.16838391
STATION ROAD NEW BARNET SURGERY,EN5 1PH,51.649053,-0.17729989
ADDINGTON MEDICAL CENTRE,EN5 1QH,51.649667,-0.17685608
GLOUCESTER ROAD SURGERY,EN5 1RS,51.647272,-0.18305193
VALE DRIVE MEDICAL PRACTICE,EN5 2ED,51.648828,-0.19472713
DR MAKANJUOLA'S SURGERY,EN5 2ED,51.648828,-0.19472713
FAMILY PLANNING SERVICE,EN5 2ED,51.648828,-0.19472713
PRIMARY CARE DIABETES CLINIC,EN5 2ED,51.648828,-0.19472713
WESTSIDE CONTRACEPTIVE SERVICES,EN5 2ED,51.648828,-0.19472713
THE OLD COURT HOUSE SURGERY,EN5 4BB,51.652908,-0.20161964
LONGROVE SURGERY,EN5 4HT,51.65425,-0.20468916
ZAIN MEDICAL CENTRE,HA8 0AD,51.605819,-0.27187433
CGL BARNET,HA8 0AD,51.605819,-0.27187433
EDGWARE WIC,HA8 0AD,51.605819,-0.27187433
BDAS,HA8 0AD,51.605819,-0.27187433
COMM GYNAECOLOGY CLINIC1,HA8 0AD,51.605819,-0.27187433
COMM. CARDIOLOGY CLINIC,HA8 0AD,51.605819,-0.27187433
BARNET COPD SERVICE,HA8 0AD,51.605819,-0.27187433
BARNET RECOVERY CENTRE EDGWARE WDP,HA8 0AD,51.605819,-0.27187433
PARKINSON'S DAY UNIT-CLCH,HA8 0AD,51.605819,-0.27187433
OAK LODGE MEDICAL CENTRE,HA8 0AP,51.603671,-0.27071402
COLINDALE BURNT OAK HEALTHCARE LTD,HA8 0AP,51.603671,-0.27071402
BARNET FEDERATED GPS LIMITED,HA8 0AP,51.603671,-0.27071402
D-QIST CHIN ONE,HA8 0AP,51.603671,-0.27071402
WATLING MEDICAL CENTRE,HA8 0NR,51.603299,-0.26196288
MAKANJI HH-WOODCROFT MEDICAL CENTRE,HA8 0NR,51.603299,-0.26196288
MOODALEY D-WOODCROFT MEDICAL CENTRE,HA8 0NR,51.603299,-0.26196288
PARKVIEW SURGERY,HA8 0RW,51.606973,-0.25747567
JAI MEDICAL CENTRE,HA8 8NB,51.622043,-0.27754215
PLATINUM HEALTHCARE LIMITED,HA8 8NB,51.622043,-0.27754215
LANE END MEDICAL GROUP,HA8 9GJ,51.615296,-0.27485101
DR SP TALPAHEWA,HA8 9NT,51.616133,-0.26030264
PENSHURST GARDENS SURGERY,HA8 9TN,51.616129,-0.27281164
COLNEY HATCH LANE SURGERY,N10 1ET,51.600739,-0.14749668
BRUNSWICK PARK MEDICAL CENTRE,N11 1EY,51.629507,-0.14928697
HAMID CARETAKING,N11 1EY,51.629507,-0.14928697
FRIERN BARNET MEDICAL CENTRE,N11 3BU,51.613264,-0.15601405
HOLLY PARK CLINIC,N11 3HB,51.616127,-0.15104465
FINCHLEY WIC,N12 0JE,51.60541,-0.17644887
ELDERLY DAY CARE CENTRE,N12 0JE,51.60541,-0.17644887
COMM DIABETES CLINIC,N12 0JE,51.60541,-0.17644887
CLCHCOMMUROLOGY,N12 0JE,51.60541,-0.17644887
HOMELESS ACTION IN BARNET,N12 0RG,51.61215,-0.17447443
BARNET FED ANICOAG SERVICE,N12 8LY,51.612878,-0.17791168
NORTH LONDON HOSPICE,N12 8TT,51.616715,-0.17892801
NLHOSPICECARE TEAM,N12 8TT,51.616715,-0.17892801
THE SPEEDWELL PRACTICE,N12 9SS,51.61705,-0.17500006
TORRINGTON PARK GROUP PRACTICE,N12 9SS,51.61705,-0.17500006
OSIDGE MEDICAL PRACTICE,N14 5DR,51.630958,-0.14895335
HEATHFIELDE MEDICAL CENTRE,N2 0EQ,51.585265,-0.17979605
WOODLANDS MEDICAL PRACTICE,N2 8BG,51.592914,-0.17094345
EAST FINCHLEY MEDICAL CENTRE,N2 9QD,51.588121,-0.16287875
OAKLEIGH ROAD HEALTH CENTRE,N20 0DH,51.625117,-0.15892868
DERWENT CRESCENT MEDICAL CENTRE,N20 0QQ,51.622908,-0.17528509
ST ANDREWS MEDICAL PRACTICE.,N20 9EX,51.630138,-0.17239416
CORNWALL HOUSE SURGERY,N3 1LD,51.604974,-0.19015638
BALLARDS LANE SURGERY,N3 1LY,51.606732,-0.18633169
BARNET RECOVERY CENTRE FINCHLEY WDP,N3 1TT,51.598817,-0.1991079
WENTWORTH MEDICAL PRACTICE.,N3 1YL,51.607728,-0.18796724
SQUIRES LANE MEDICAL PRACTICE,N3 2AU,51.602501,-0.17503473
THE FINCHLEY PRACTICE,N3 2DN,51.604193,-0.18904663
LICHFIELD GROVE SURGERY,N3 2JP,51.599555,-0.1932597
SUPREME MEDICAL CENTRE,N3 2JX,51.599508,-0.19545634
ROSEMARY SURGERY,N3 2QN,51.596896,-0.18415349
THE MOUNTFIELD SURGERY,N3 3NR,51.595001,-0.19422004
BRENT & HARROW SAFE HAVEN UNIT,N3 3NR,51.595001,-0.19422004
ADLER JS-THE SURGERY,NW11 7NP,51.575083,-0.19596204
HARRIS M-THE SURGERY,NW11 7TE,51.580992,-0.197792
ROWBURY CA-THE SURGERY,NW11 7TE,51.580992,-0.197792
PHGH DOCTORS,NW11 7TE,51.580992,-0.197792
TEMPLE FORTUNE MEDICAL GROUP,NW11 7TE,51.580992,-0.197792
RAVENSCROFT MEDICAL CENTRE,NW11 8BB,51.575296,-0.20282302
THE HODFORD ROAD PRACTICE,NW11 8NH,51.569038,-0.19931815
188 THE PRACTICE,NW11 9AY,51.576422,-0.20466921
CRICKLEWOOD HEALTH CENTRE,NW2 1DZ,51.557464,-0.21516773
GREENFIELD MEDICAL CENTRE,NW2 1HS,51.561016,-0.20570883
SOUTH BARNET HEALTHCARE LIMITED,NW2 1HS,51.561016,-0.20570883
PENNINE DRIVE PRACTICE,NW2 1PA,51.568474,-0.20886384
THE HILLVIEW SURGERY,NW4 1DG,51.589869,-0.21490851
DR LF MILLER,NW4 2JL,51.589819,-0.2128605
DR V. AZIZ,NW4 2TA,51.584878,-0.22441439
GROVEMEAD HEALTH CENTRE,NW4 3EB,51.579628,-0.22570149
DR AZIM & PARTNERS,NW4 3EB,51.579628,-0.22570149
THE PHOENIX PRACTICE,NW4 4AE,51.587311,-0.2235689
ST. GEORGES MEDICAL CENTRE,NW4 4QR,51.592728,-0.22617281
WATFORD WAY CENTRE LIMITED,NW4 4UR,51.594364,-0.23325568
LANGSTONE WAY SURGERY,NW7 1GR,51.60697,-0.21064186
MILLWAY MEDICAL PRACTICE,NW7 2HX,51.615091,-0.24347178
WEST BARNET HEALTHCARE LIMITED,NW7 2HX,51.615091,-0.24347178
MULBERRY MEDICAL PRACTICE,NW7 3QB,51.614861,-0.2600335
THE EVERGLADE MEDICAL PRACTICE,NW9 5XT,51.601569,-0.24422465
OPTEGRA EYE HEALTH CARE,NW9 6BX,51.592143,-0.25430411
COLINDALE MEDICAL CENTRE LP,NW9 6DJ,51.591317,-0.24955728
HENDON WAY SURGERY,NW9 7DG,51.578921,-0.24146061
CRAYFORD TOWN SURGERY,DA1 4ER,51.450225,0.18013704
CRAYFORD WALK IN CENTRE,DA1 4ER,51.450225,0.18013704
BARNARD MEDICAL GROUP,DA14 4TA,51.42792,0.10554966
SIDCUP MEDICAL CENTRE,DA14 6BU,51.42356,0.10593901
PALLIATIVE CARE - DR JONES,DA14 6LT,51.418635,0.10325318
URGENT CARE CENTRE (QMS),DA14 6LT,51.418635,0.10325318
BEXDOC GP SERVICE OOH,DA14 6LT,51.418635,0.10325318
8 TO 8 TOP-UP HUB QMH,DA14 6LT,51.418635,0.10325318
DIABETES FOOT CLINIC,DA14 6LT,51.418635,0.10325318
STATION ROAD SURGERY,DA15 7DS,51.431445,0.10202876
WOODLANDS SURGERY,DA15 8DF,51.439755,0.088913121
BEDSIDE MANOR,DA15 9DX,51.443706,0.10285079
DMC COMMUNITY DERMATOLOGY SERVICE,DA15 9DX,51.443706,0.10285079
WELLING MEDICAL PRACTICE,DA16 2AT,51.460844,0.10797174
THE WESTWOOD SURGERY,DA16 2HE,51.463176,0.097296061
INGLETON AVENUE SURGERY,DA16 2JZ,51.454007,0.10408708
BEXLEY GROUP PRACTICE,DA16 3HQ,51.465912,0.10919875
BELLEGROVE SURGERY,DA16 3RE,51.464561,0.095790274
BEXLEY ANTICOAGULATION SERVICE,DA16 3RE,51.464561,0.095790274
BELVEDERE MEDICAL CENTRE,DA17 5LQ,51.482567,0.14437569
CAIRNGALL MEDICAL PRACTICE,DA17 6EZ,51.484411,0.14875447
THANET ROAD SURGERY,DA5 1AP,51.44276,0.14852547
PLAS MEDDYG SURGERY,DA5 1HU,51.442845,0.14437064
COMMUNITY CARDIOLOGY SERVICE,DA6 7AT,51.455555,0.15355974
COMMUNITY DERMATOLOGY SERVICE,DA6 7AT,51.455555,0.15355974
THE ALBION SURGERY,DA6 7LP,51.454049,0.14741461
CROOK LOG SURGERY,DA6 8DZ,51.458455,0.13067816
ENDOSCOPY (GPSI) DR SK ROY,DA6 8DZ,51.458455,0.13067816
DR J TOLHURST - FAMILY PLANNING,DA6 8DZ,51.458455,0.13067816
DR THAVAPALAN AND PARTNERS,DA7 5HL,51.472278,0.13951562
BEXLEY MEDICAL GROUP,DA7 5RB,51.47506,0.12796699
LYNDHURST ROAD MEDICAL CENTRE,DA7 6DL,51.461251,0.15876579
BURSTED WOOD SURGERY,DA7 6HZ,51.46525,0.15155426
THE PARKSIDE,DA7 6NW,51.463472,0.17384345
MILL ROAD SURGERY,DA8 1HW,51.473141,0.16063753
BULBANKS MEDICAL CENTRE,DA8 1RQ,51.479567,0.18077283
RIVERSIDE SURGERY,DA8 1RQ,51.479567,0.18077283
SUBSTANCE MISUSE SERVICE,DA8 1RQ,51.479567,0.18077283
SLADE GREEN MEDICAL CTR.,DA8 2HS,51.470505,0.18978649
NORTHUMBERLAND HEATH MED.CTR.,DA8 3DB,51.476927,0.16600088
NORTHUMBERLAND HEATH MINOR INJURY - WIC,DA8 3DB,51.476927,0.16600088
URGENT CARE CENTRE (ERITH),DA8 3EE,51.477113,0.16664334
TEENAGE ADVISORY SERVICE,DA8 3EE,51.477113,0.16664334
8 TO 8 TOP-UP HUB ERITH,DA8 3EE,51.477113,0.16664334
LAKESIDE MEDICAL,SE2 9LH,51.496598,0.12250119
SUDBURY & ALPERTON MEDICAL CENTRE,HA0 1EZ,51.536925,-0.29800279
LANCELOT MEDICAL CENTRE,HA0 2AL,51.552988,-0.29949483
THE SURGERY BRENT TPCT (WCHC),HA0 3HG,51.558196,-0.31639536
SUDBURY SURGERY,HA0 3HG,51.558196,-0.31639536
COMMUNITY NURSES BRENT CCG,HA0 3HG,51.558196,-0.31639536
COMMUNITY OPHTHALMOLOGY SERVICE,HA0 3HG,51.558196,-0.31639536
ALPERTON MEDICAL CENTRE,HA0 4JB,51.542867,-0.29417582
STANLEY CORNER MEDICAL CENTRE,HA0 4JF,51.544242,-0.2966049
THE EAGLE EYE,HA0 4SH,51.545691,-0.29919001
PREMIER MEDICAL CENTRE,HA0 4UZ,51.549721,-0.30675617
THE SUNFLOWER MEDICAL CENTRE,HA0 4UZ,51.549721,-0.30675617
PEARL MEDICAL PRACTICE,HA0 4UZ,51.549721,-0.30675617
COMMUNITY CHILD HEALTH DRS,HA0 4UZ,51.549721,-0.30675617
NURSE PRESCRIBING-UNREGISTERED,HA0 4UZ,51.549721,-0.30675617
SMS MEDICAL PRACTICE,HA0 4UZ,51.549721,-0.30675617
COMMUNITY DERMATOLOGY CLINIC,HA0 4UZ,51.549721,-0.30675617
THE WEMBLEY PRACTICE,HA0 4UZ,51.549721,-0.30675617
GP EXTENDED ACCESS HUB SERVICE,HA0 4UZ,51.549721,-0.30675617
HEALTH VISITORS CLCH,HA0 4UZ,51.549721,-0.30675617
DMC COMMUNITY DERM BRENT,HA0 4UZ,51.549721,-0.30675617
ST MARKS BCSC,HA1 3UJ,51.575098,-0.32248145
THE HARROW ACCESS UNIT,HA1 3UJ,51.575098,-0.32248145
URGENT CARE CENTRE,HA1 3UJ,51.575098,-0.32248145
STARRS,HA1 3UJ,51.575098,-0.32248145
URGENT CARE CENTRE NORTHWICK PARK HOSP,HA1 3UJ,51.575098,-0.32248145
KENTON MEDICAL CENTRE,HA3 0AA,51.579337,-0.31958317
PRIMARY CARE MEDICAL CENTRE,HA3 0UN,51.586519,-0.29690078
KENTON CLINIC,HA3 0UQ,51.586103,-0.2924271
ST LUKE'S HOSPICE,HA3 0YG,51.586423,-0.3014658
PALLIATIVE CARE COMMUNITY HARROW,HA3 0YG,51.586423,-0.3014658
KENTON BRIDGE MEDICAL CENTRE DR GOLDEN,HA3 0YX,51.582203,-0.3162155
KENTON BRIDGE MEDICAL CENTRE - DR RAJA,HA3 0YX,51.582203,-0.3162155
JAI MEDICAL CENTRE (BRENT),HA8 5LP,51.598177,-0.27074944
BRENT INTEGRATED DIABETES CARE TEAM,HA9 6JE,51.548213,-0.27175029
HAZELDENE MEDICAL CENTRE,HA9 6PW,51.547797,-0.27525635
THE SURGERY,HA9 6QL,51.550629,-0.28197161
THE BEECHCROFT MEDICAL CENTRE,HA9 8EP,51.561841,-0.28866166
WEMBLEY PARK DRIVE MEDICAL CENTRE,HA9 8HD,51.560557,-0.29003712
PRESTON MEDICAL CENTRE,HA9 8JZ,51.564335,-0.29255016
PRESTON ROAD SURGERY,HA9 8LB,51.564926,-0.29238373
THE TUDOR HOUSE MEDICAL CENTRE,HA9 9DS,51.564504,-0.26670326
ELLIS PRACTICE,HA9 9FX,51.563904,-0.27663799
CHALKHILL FAMILY PRACTICE,HA9 9FX,51.563904,-0.27663799
FORTY WILLOWS SURGERY,HA9 9HA,51.565804,-0.27066495
UXENDON CRESCENT SURGERY,HA9 9TW,51.572062,-0.29276569
THE VILLAGE MEDICAL CENTRE,NW10 0DJ,51.563927,-0.2586889
THE WILLESDEN MEDICAL CENTRE,NW10 2PT,51.547488,-0.23391829
CHAMBERLAYNE RD SURGERY,NW10 3JP,51.535306,-0.22043237
ROUNDWOOD PARK MEDICAL CENTRE,NW10 3RY,51.542861,-0.23542416
BURNLEY PRACTICE,NW10 3RY,51.542861,-0.23542416
HARNESS & WILLESDEN GYNAEGOLOGICAL SVC,NW10 3RY,51.542861,-0.23542416
BUCKINGHAM RD SURGERY,NW10 4RR,51.534903,-0.2450464
FREUCHEN MEDICAL CENTRE,NW10 4ST,51.534522,-0.24301362
THE LAW MEDICAL GROUP PRACTICE,NW10 5UY,51.533879,-0.23428644
PARK ROYAL MEDICAL PRACTICE,NW10 7NS,51.53162,-0.26976916
URGENT TREATMENT CENTRE,NW10 7NS,51.53162,-0.26976916
THE STONEBRIDGE PRACTICE,NW10 8RY,51.542829,-0.2640082
HARNESS HARLESDEN PRACTICE,NW10 8RY,51.542829,-0.2640082
AKSYR MEDICAL PRACTICE,NW10 8RY,51.542829,-0.2640082
HILLTOP MEDICAL PRACTICE,NW10 8RY,51.542829,-0.2640082
PARK ROAD SURGERY,NW10 8TA,51.539859,-0.25538254
BRENTFIELD MEDICAL CENTRE,NW10 8TF,51.550569,-0.26023748
ST ANDREWS MEDICAL CENTRE,NW10 9AR,51.538429,-0.25354823
CHURCH END MEDICAL CENTRE,NW10 9HP,51.547579,-0.25322675
THE SHELDON PRACTICE,NW2 3AH,51.555933,-0.21557389
CHICHELE ROAD SURGERY,NW2 3AN,51.554774,-0.21628277
MAPESBURY MEDICAL GROUP,NW2 3PS,51.551496,-0.20947305
WILLESDEN GREEN SURGERY,NW2 3UY,51.553773,-0.21609114
WALM LANE SURGERY,NW2 4RT,51.550336,-0.21949976
STAVERTON SURGERY,NW2 5HA,51.544165,-0.22588428
KILBURN PRIMARY CARE CO-OP LIMITED,NW2 5HA,51.544165,-0.22588428
OXGATE GARDENS SURGERY,NW2 6EA,51.56448,-0.22777729
ST. GEORGES MEDICAL CENTRE,NW2 6JH,51.55874,-0.24611981
GLADSTONE MEDICAL CENTRE,NW2 6JH,51.55874,-0.24611981
CREST MEDICAL CENTRE,NW2 7NA,51.564678,-0.24092805
NEASDEN MEDICAL CENTRE,NW2 7SA,51.559676,-0.2473966
THE MEDICAL CENTRE,NW6 5AY,51.534451,-0.19332988
KILBURN PARK MEDICAL CENTRE,NW6 5AY,51.534451,-0.19332988
PEEL PRECINCT SURGERY,NW6 5DX,51.534057,-0.19872357
THE LONSDALE MEDICAL CENTRE,NW6 6RR,51.537011,-0.20428821
PARK HOUSE MEDICAL CENTRE,NW6 6SD,51.534557,-0.20666296
BRONDESBURY MEDICAL CENTRE,NW6 7JQ,51.543504,-0.20021092
THE CLARENCE MEDICAL CENTRE,NW6 7TG,51.541778,-0.20490816
KINGSBURY HEALTH AND WELLBEING,NW9 0EF,51.591768,-0.26543471
KINGS EDGE MEDICAL CENTRE,NW9 0QP,51.594974,-0.26882092
WAKEMANS HILL SURGERY,NW9 0TA,51.587097,-0.25420883
CHURCH LANE SURGERY,NW9 8LU,51.574931,-0.26212158
WILLOW TREE FAMILY DOCTORS,NW9 9AD,51.589362,-0.26507885
BRAMPTON HEALTH CENTRE,NW9 9BY,51.586108,-0.27740024
THE FRYENT WAY SURGERY,NW9 9SB,51.582954,-0.28057951
K&W HEALTHCARE WIC,NW9 9SB,51.582954,-0.28057951
K&W HEALTHCARE CARE HOME TM,NW9 9SB,51.582954,-0.28057951
BLESSING MEDICAL CENTRE,W9 3EG,51.533095,-0.20573997
CRI BROMLEYCOMMUNITY DRUGS PROJECT,BR1 1DG,51.409192,0.010042276
CGL BROMLEY,BR1 1DG,51.409192,0.010042276
BROMLEY COMMUNITY ANTICOAGULATION CLINIC,BR1 1HD,51.402655,0.015751057
CROYDON BOOTS ANTICOAGULATION SERVICE,BR1 1HD,51.402655,0.015751057
DYSART SURGERY,BR1 1HN,51.40039,0.015177018
C&RH BROMLEY Y,BR1 1JA,51.401897,0.014323139
KCA SHARED CARE,BR1 1RL,51.406192,0.016079169
SOUTH VIEW PARTNERSHIP,BR1 3DR,51.405111,0.026125162
DR MATTHEWS & PARTNER,BR1 3DR,51.405111,0.026125162
PUBLIC HEALTH SERVICES,BR1 3UH,51.403879,0.020377067
HIGHLAND ROAD SURGERY,BR1 4AD,51.41014,0.006129411
LONDON LANE CLINIC,BR1 4HB,51.415223,0.008652963
SUNDRIDGE MEDICAL CENTRE,BR1 4HE,51.414678,0.01474111
LINKS MEDICAL PRACTICE,BR1 4PX,51.419794,0.014807866
MEDICAL RESPONSE TEAM OOH,BR2 7EH,51.377216,0.010422993
BHC NON MEDICAL PRESCRIBERS,BR2 7EH,51.377216,0.010422993
BHC DERMATOLOGY (GREENWICH),BR2 7EH,51.377216,0.010422993
BHC GYNAECOLOGY (GREENWICH),BR2 7EH,51.377216,0.010422993
BHC MINOR SURGERY (GREENWICH),BR2 7EH,51.377216,0.010422993
BEXLEY 0-19 SERVICE,BR2 7EH,51.377216,0.010422993
PICKHURST SURGERY,BR2 7JF,51.378033,0.010516259
FORGE CLOSE SURGERY,BR2 7LL,51.377218,0.016587608
FALLS & FRACTURE PREVENTION SERVICE,BR2 8LD,51.380846,0.044856206
SOUTHBOROUGH LANE SURGERY,BR2 9GT,51.387698,0.039268758
BROMLEY COMMON PRACTICE,BR2 9GT,51.387698,0.039268758
COMMUNITY PAEDIATRICIANS,BR2 9JG,51.39561,0.024828414
SLAM - ADULT ADHD SERVICE,BR3 3BX,51.380929,-0.029752715
DERRY DOWNS SURGERY,BR5 4DU,51.385174,0.11665122
SUMMERCROFT SURGERY,BR6 7AR,51.365356,0.063057228
POVEREST MEDICAL CENTRE,BR5 2DQ,51.389981,0.1014213
MANOR ROAD SURGERY,BR3 5LE,51.407147,-0.022543659
FAMILY SURGERY,BR6 6BG,51.354086,0.090069226
GREEN STREET GREEN MED CT,BR6 6BG,51.354086,0.090069226
CHISLEHURST MEDICAL PRACTICE,BR7 5AQ,51.419598,0.066333131
EDEN PARK SURGERY,BR3 4DQ,51.399335,-0.041426161
ST MARY CRAY PRACTICE,BR5 4AR,51.387048,0.11346071
STATION ROAD SURGERY,BR4 0PU,51.377081,-0.014887538
ADDINGTON ROAD SURGERY,BR4 9BG,51.369081,-0.003969897
CORNERWAYS SURGERY,BR3 5LG,51.407046,-0.020261805
BROOMWOOD ROAD SURGERY,BR5 2JP,51.402718,0.10871958
CHELSFIELD SURGERY,BR6 6HD,51.35576,0.10406315
CHARTERHOUSE SURGERY,BR6 9JN,51.368622,0.09639174
ELM HOUSE SURGERY,BR3 3FD,51.405061,-0.033201651
CATOR MEDICAL CENTRE,BR3 3FD,51.405061,-0.033201651
ST JAMES' PRACTICE,BR3 4DG,51.399238,-0.043673028
KNOLL MEDICAL PRACTICE,BR6 0FE,51.37541,0.10104131
SEVENOAKS ROAD SURGERY,BR6 9JR,51.369868,0.096133
TUDOR WAY SURGERY,BR5 1LH,51.38879,0.078930014
BALLATER SURGERY,BR6 0DP,51.3822,0.095000179
GILLMANS ROAD SURGERY,BR5 4LA,51.377152,0.11020272
WICKHAM PARK SURGERY,BR4 9PS,51.376153,-0.023319243
BANK HOUSE SURGERY,BR6 7BA,51.359218,0.069949047
WHITEHOUSE SURGERY,BR5 1EL,51.384131,0.077425406
CROSS HALL SURGERY,BR5 3NL,51.395281,0.11523457
CRESCENT SURGERY,BR5 2DD,51.389854,0.10644631
GYNAECOLOGY SERVICE (BROMLEY HEALTHCARE),BR3 3QL,51.405061,-0.033201651
DERMATOLOGY SERVICE (BROMLEY HEALTHCARE),BR3 3QL,51.405061,-0.033201651
BROMLEY DIABETES SERVICE (BECKENHAM),BR3 3QL,51.405061,-0.033201651
URGENT CARE CENTRE BECKENHAM BEACON,BR3 3QL,51.405061,-0.033201651
C&RH BECKENHAM BEACON,BR3 3QL,51.405061,-0.033201651
VASECTOMY CLINIC,BR3 3QL,51.405061,-0.033201651
BECKENHAM BEACON URGENT CARE CENTRE,BR3 3QL,51.405061,-0.033201651
BROMLEY GP ALLIANCE,BR3 3QL,51.405061,-0.033201651
BROMLEY COMMUNITY HEADACHE SERVICE,BR3 3QL,51.405061,-0.033201651
BROMLEAG CARE PRACTICE,BR3 3QL,51.405061,-0.033201651
BMI-THE SLOANE HOSPITAL,BR3 5HS,51.408332,-0.004360331
C&RH ELDRED DRIVE,BR5 4PE,51.373741,0.11781929
BMI-CHELSFIELD PARK HOSPITAL,BR6 7RG,51.358397,0.13081456
SAS,BR6 8ND,51.365713,0.059625435
URGENT CARE CENTRE (PRUH),BR6 8ND,51.365713,0.059625435
PRUH URGENT CARE CENTRE,BR6 8ND,51.365713,0.059625435
BROMLEY DIABETES SERVICE (ORPINGTON),BR6 9JU,51.362502,0.095149785
INTERMEDIATE CARE SERVICE,BR6 9JU,51.362502,0.095149785
C&RH ORPINGTON HOSPITAL,BR6 9JU,51.362502,0.095149785
WOODLANDS PRACTICE,BR7 6DB,51.421055,0.064255747
BROMLEY SCREN,SE12 9PN,51.435634,0.025504421
DR S LINGARAJAH'S PRACTICE,SE12 9PN,51.435634,0.025504421
CRYSTAL PALACE PHYSIO GROUP,SE19 2BB,51.418999,-0.067768624
ROBIN HOOD SURGERY,SE20 7AB,51.409884,-0.057655797
TRINITY MEDICAL CENTRE,SE20 7TJ,51.41293,-0.052622911
THE PARK PRACTICE,SE20 8QA,51.412771,-0.064206001
OAKFIELD SURGERY,SE20 8QA,51.412771,-0.064206001
ANERLEY SURGERY,SE20 8TJ,51.408987,-0.062151403
C&RH PENGE,SE20 8UX,51.414127,-0.061387562
ST CHRISTOPHER'S HOSPICE,SE26 6DZ,51.421385,-0.058692848
C&RH MOTTINGHAM,SE9 4EB,51.426906,0.046537901
C&RH BIGGIN HILL,TN16 3LB,51.312353,0.036284801
STOCK HILL SURGERY,TN16 3TJ,51.312071,0.031809717
NORHEADS LANE SURGERY,TN16 3XS,51.314521,0.026895494
BROOKFIELD PARK SURGERY,N19 5BZ,51.563544,-0.14221321
HARMONI LTD OOH,NW1 0PE,51.536522,-0.13150421
KINGS CROSS SURGERY,NW1 0PE,51.536522,-0.13150421
CAMIDOC OUT OF HOURS,NW1 0PE,51.536522,-0.13150421
CAMDEN COMMUNITY NURSING,NW1 0PE,51.536522,-0.13150421
HARMONI OOH CITY & HACKNEY,NW1 0PE,51.536522,-0.13150421
CAMDEN DIABETES IPU,NW1 0PE,51.536522,-0.13150421
SOMERS TOWN MEDICAL CENTRE,NW1 1HY,51.529916,-0.13060688
CAMDEN EXTENDED ACCESS SERVICE,NW1 1HY,51.529916,-0.13060688
DR SHINA'S SURGERY,NW1 1TN,51.534574,-0.13736592
AMPTHILL PRACTICE,NW1 1TN,51.534574,-0.13736592
UNIVERSITY COLLEGE LONDON BCSC,NW1 2BU,51.524865,-0.13701251
UCLH PATHWAY TO HOME,NW1 2BU,51.524865,-0.13701251
MEDICUS SELECT CARE,NW1 2LS,51.528115,-0.13836478
CAMDEN HEALTH IMPROVEMENT PRACTICE,NW1 2LS,51.528115,-0.13836478
CAMDEN INTEGRATED CARE SERVICE,NW1 3HP,51.526389,-0.14062647
THE REGENTS PARK PRACTICE,NW1 3RH,51.52933,-0.14181859
PRIMROSE HILL SURGERY,NW1 8UR,51.542184,-0.15632186
CRI CAMDEN COMMUNITY DRUG TREATMENT SERV,NW1 9NN,51.542254,-0.13855212
CRICKLEWOOD BROADWAY SURGERY,NW2 3ET,51.553577,-0.21143967
KEATS GROUP PRACTICE,NW3 1NR,51.555534,-0.17102969
ROSSLYN HILL SURGERY,NW3 1PD,51.554201,-0.17085239
CAMDEN COMMUNITY DERMATOLOGY - RFH,NW3 2QG,51.553224,-0.16532365
HAMPSTEAD GROUP PRACTICE,NW3 2QU,51.553171,-0.16307555
PARK END SURGERY,NW3 2SE,51.556135,-0.16569701
SWISS COTTAGE SURGERY,NW3 3NP,51.542485,-0.17264898
ADELAIDE MEDICAL CENTRE,NW3 3RY,51.543548,-0.16125663
DALEHAM GARDENS HEALTH CENTRE,NW3 5BY,51.547952,-0.17437702
PARLIAMENT HILL SURGERY,NW5 1TR,51.555169,-0.14546836
JAMES WIGG PRACTICE,NW5 2BX,51.546198,-0.13997766
CAVERSHAM GROUP PRACTICE,NW5 2UP,51.550467,-0.13811596
CAMDEN ASSESSMENT&HOME VISITING SERVICE,NW5 2UP,51.550467,-0.13811596
PRINCE OF WALES GROUP SURGERY,NW5 3LN,51.546781,-0.14614118
THE MATTHEWMAN PRACTICE,NW5 3NT,51.545823,-0.14928091
FOUR TREES SURGERY,NW5 4EB,51.549657,-0.15177924
QUEENS CRESCENT PRACTICE,NW5 4EB,51.549657,-0.15177924
WESTFIELD MEDICAL CENTRE,NW6 1AE,51.552261,-0.19542264
CHOLMLEY GARDENS SURGERY,NW6 1AE,51.552261,-0.19542264
FORTUNE GREEN ROAD SURGERY,NW6 1DS,51.554654,-0.1966262
WEST HAMPSTEAD MEDICAL CENTRE,NW6 1TP,51.55004,-0.19657788
WEST END LANE MEDICAL PRACTICE,NW6 2PB,51.543441,-0.19316132
BELSIZE PRIORY MEDICAL PRACTICE (GROUP),NW6 4DX,51.539773,-0.18801431
ABBEY MEDICAL CENTRE,NW8 0AG,51.537968,-0.18525973
FITZROVIA MEDICAL CENTRE,W1T 6EU,51.522431,-0.14058586
MUSEUM PRACTICE,WC1B 3BA,51.518186,-0.12582627
BEDFORD SQUARE MEDICAL CENTRE,WC1B 3QU,51.518966,-0.12854727
GOWER STREET PRACTICE,WC1E 6DP,51.52012,-0.12982609
RIDGMOUNT PRACTICE,WC1E 7AA,51.520456,-0.13115287
VIRGIN CARE NORTH LANCS OOH,WC1H 9LT,51.525391,-0.1282406
BRUNSWICK MEDICAL CENTRE UHPC,WC1N 1AF,51.524846,-0.12393825
THE BLOOMSBURY SURGERY,WC1N 1PD,51.525671,-0.1232556
FITZROY PLACE,WC1N 3BG,51.522165,-0.12220331
HOLBORN MEDICAL CENTRE,WC1N 3NA,51.522242,-0.11853879
ENT INPATIENTS (RNTNEH),WC1X 8DA,51.529051,-0.11922402
SPECIALIST ALLERGY AND CI,WC1X 8DA,51.529051,-0.11922402
ENT OUTPATIENTS (RNTNEH),WC1X 8DA,51.529051,-0.11922402
AUDIOVESTIBULAR MEDICINE (RNTNEH),WC1X 8DA,51.529051,-0.11922402
RNTNEH PAEDIATRICS,WC1X 8DA,51.529051,-0.11922402
GRAY'S INN ROAD MEDICAL CENTRE,WC1X 8TS,51.522789,-0.11453767
COVENT GARDEN MEDICAL CENTRE,WC2H 9AA,51.514794,-0.1251728
THE NEAMAN PRACTICE,EC1A 7HF,51.519018,-0.098218282
LIVERPOOL STREET NHS WIC,EC2M 3WA,51.519752,-0.079809607
TURNING POINT CROYDON RECOVERY NETWORK,CR0 1SE,51.370114,-0.10354696
KCA (UK),CR0 1SE,51.370114,-0.10354696
HEATHFIELD SURGERY,CR0 1EZ,51.363312,-0.096659852
THE FARLEY ROAD MEDICAL PRACTICE,CR2 7NG,51.345804,-0.066498044
NEW ADDINGTON GROUP PRACTICE,CR0 0JA,51.344337,-0.018542849
PARKWAY HEALTH CENTRE (01),CR0 0JA,51.344337,-0.018542849
ADDINGTON MEDICAL PRACTICE,CR0 0JA,51.344337,-0.018542849
MINOR INJURIES CLINIC,CR0 0JA,51.344337,-0.018542849
PARKWAY MIU - AT MEDICS,CR0 0JA,51.344337,-0.018542849
VIOLET LANE MEDICAL PRACTICE,CR0 4HN,51.360366,-0.10797157
THE ADDISCOMBE SURGERY,CR0 7LJ,51.376293,-0.061851226
ST. JAMES'S MEDICAL CENTRE,CR0 2BZ,51.381898,-0.093215913
QUEENHILL MEDICAL PRACTICE,CR2 8DU,51.34499,-0.066790751
PARKSIDE GROUP PRACTICE,CR2 6EX,51.350645,-0.098549122
SELSDON PARK MEDICAL PRACTICE,CR2 8LG,51.342409,-0.064573309
FRIENDS ROAD MEDICAL PRACTICE,CR0 1ED,51.371277,-0.094820984
THE EQUINOX PROJECT-GPSI,CR0 1ED,51.371277,-0.094820984
MORLAND ROAD SURGERY,CR0 6HA,51.382023,-0.083237352
HARTLAND WAY SURGERY,CR0 8RG,51.374372,-0.045782178
BROOM ROAD MEDICAL PRACTICE,CR0 8NG,51.369778,-0.030274556
THE HALING PARK PARTNERSHIP,CR2 6AD,51.357113,-0.098108961
ASHBURTON PARK MEDICAL CENTRE,CR0 7AG,51.384147,-0.064221273
THE WHITEHORSE PRACTICE,CR0 2JJ,51.385869,-0.097391219
SOUTH WAY SURGERY,CR0 8RP,51.369532,-0.041347726
STOVELL HOUSE SURGERY,CR0 6AH,51.378873,-0.075379312
SHIRLEY MEDICAL CENTRE,CR0 8BH,51.375139,-0.044858652
SHIRLEY MEDICAL EXTENDED ACCESS LLP,CR0 8BH,51.375139,-0.044858652
EAST CROYDON MEDICAL CENTRE,CR0 6SD,51.37532,-0.08745437
FIELDWAY MEDICAL CENTRE,CR0 9EU,51.356176,-0.01987047
HEADLEY DRIVE SURGERY,CR0 0QL,51.353268,-0.015945789
THORNTON & VALLEY PARK SURGERY,CR0 3EW,51.388871,-0.12070898
GREENSIDE GROUP PRACTICE,CR0 2UL,51.381027,-0.10326836
SOUTH CROYDON MEDICAL CENTRE,CR2 6AH,51.353499,-0.098229871
BIRDHURST MEDICAL PRACTICE,CR2 7DX,51.365279,-0.092613413
GREENSIDE MEDICAL PRACTICE,CR0 3PN,51.384775,-0.11314484
VALLEY PARK SURGERY,CR0 4YD,51.381814,-0.12757985
SAFEHAVEN,CR0 1QD,51.372037,-0.10009111
THE PRACTICE SURGERIES LTD,CR0 1FE,51.370512,-0.098099735
MITCHLEY AVENUE SURGERY,CR2 9HH,51.32998,-0.092485239
DOWNLAND SURGERY,CR5 1BF,51.304335,-0.12380553
OLD COULSDON MEDICAL PRACTICE,CR5 1HF,51.306622,-0.1178299
COULSDON MEDICAL PRACTICE,CR5 2BB,51.323369,-0.13540066
BRAMLEY AVENUE SURGERY,CR5 2DR,51.323235,-0.14170677
EVERSLEY MEDICAL CENTRE,CR7 6AR,51.388514,-0.11191307
LONDON ROAD MEDICAL PRACTICE,CR7 6AR,51.388514,-0.11191307
BROUGHTON CORNER MEDICAL CENTRE,CR7 6BH,51.390787,-0.11960996
LEANDER ROAD SURGERY,CR7 6JE,51.399457,-0.11745736
NORTH CROYDON MEDICAL CENTRE,CR7 7HQ,51.388337,-0.11101484
BRIGSTOCK FAMILY PRACTICE,CR7 7JH,51.397342,-0.10341297
CROYDON ENT GPSI SERVICE,CR7 7JH,51.397342,-0.10341297
COMMUNITAS CLINICS INTERMEDIATE ENT,CR7 7JH,51.397342,-0.10341297
COMMUNITAS CLINICS - SUSSEX DERMATOLOGY,CR7 7JH,51.397342,-0.10341297
MAYDAY & THORNTON HEATH EXTENDED ACCESS,CR7 7JH,51.397342,-0.10341297
BHR COMMUNITY ENT SERVICE,CR7 7JH,51.397342,-0.10341297
COMMUNITAS CLINICS - BEXLEY COMM DERM,CR7 7JH,51.397342,-0.10341297
CATS - ENHANCED ENT SERVICE,CR7 7JH,51.397342,-0.10341297
GREENWICH COMMUNITY DERMATOLOGY,CR7 7JH,51.397342,-0.10341297
CITY AND HACKNEY COMMUNITY ENT,CR7 7JH,51.397342,-0.10341297
BRIGSTOCK & SOUTH NORWOOD PARTNERSHIP,CR7 7JN,51.395046,-0.10932978
RAINBOW HEALTH CENTRE,CR7 7JN,51.395046,-0.10932978
PATIENT CARE 24,CR7 7YE,51.389129,-0.10878318
CROYDON DIABETES INTEGRATED SERVICE,CR7 7YE,51.389129,-0.10878318
CHS ENT SERVICE O/P DEPT,CR7 7YE,51.389129,-0.10878318
DERMATOLOGY SERVICE (CROYDON HEALTHCARE),CR7 7YE,51.389129,-0.10878318
CROYDON URGENT CARE CENTRE - VIRGIN CARE,CR7 7YE,51.389129,-0.10878318
CROYDON GP - VIRGIN CARE OOH,CR7 7YE,51.389129,-0.10878318
CHS GP SERVICE OOH,CR7 7YE,51.389129,-0.10878318
CHS URGENT CARE CENTRE PAEDIATRICS,CR7 7YE,51.389129,-0.10878318
CHS URGENT CARE CENTRE,CR7 7YE,51.389129,-0.10878318
MERSHAM MEDICAL CENTRE,CR7 8JN,51.404546,-0.096788671
PARCHMORE MEDICAL CENTRE,CR7 8LY,51.401487,-0.10058178
RHEUMATOLOGY SPECIALIST CLINIC,CR7 8LY,51.401487,-0.10058178
THORNTON HEATH HEALTH CENTRE,CR7 8RL,51.397745,-0.096093418
PURLEY MEDICAL PRACTICE,CR8 2PE,51.333701,-0.12019517
KESTON MEDICAL PRACTICE,CR8 2YL,51.34074,-0.11446556
PURLEY MIU - AT MEDICS,CR8 2YL,51.34074,-0.11446556
CROYDON GP HUBS,CR8 2YL,51.34074,-0.11446556
CROYDON SOUTH & CENTRAL EXTENDED ACCESS,CR8 2YL,51.34074,-0.11446556
WOODCOTE MEDICAL,CR8 3EE,51.342243,-0.12630694
THE MOORINGS MEDICAL PRACTICE,CR8 5DG,51.322229,-0.095892516
ENT SERVICE - GPLHC,CR9 1PJ,51.370492,-0.099134968
THE PRACTICE CATARACT CLINIC,CR9 1PJ,51.370492,-0.099134968
COMMUNITY SPECIALIST NURSE PRESCRIBERS,CR9 2RS,51.381027,-0.10326836
COMMUNITY NURSE PRESCRIBERS,CR9 2RS,51.381027,-0.10326836
BMI-SHIRLEY OAKS HOSPITAL,CR9 8AB,51.382299,-0.056352092
AUCKLAND SURGERY,SE19 2DF,51.40953,-0.08092247
UPPER NORWOOD GROUP PRACTICE,SE19 2NT,51.413308,-0.084819622
PORTLAND MEDICAL CENTRE,SE25 4QB,51.392418,-0.066761404
WOODSIDE GROUP PRACTICE,SE25 5NT,51.392934,-0.067530227
THE ENMORE PRACTICE,SE25 5NT,51.392934,-0.067530227
WOODSIDE HEALTH CENTRE (04),SE25 5NT,51.392934,-0.067530227
DAAT GPSI CLINIC - WOODSIDE HC,SE25 5NT,51.392934,-0.067530227
COUNTRY PARK PRACTICE,SE25 5NT,51.392934,-0.067530227
DENMARK ROAD SURGERY,SE25 5NT,51.392934,-0.067530227
WOODSIDE GROUP PRACTICE-CICS,SE25 5NT,51.392934,-0.067530227
CROYDERM,SE25 5QA,51.390012,-0.088969042
SELHURST MEDICAL PRACTICE,SE25 5QA,51.390012,-0.088969042
SOUTH NORWOOD MEDICAL PRACTICE,SE25 6AA,51.40015,-0.076484609
SOUTH NORWOOD HILL MEDICAL CENTRE,SE25 6BY,51.40317,-0.080771791
SOUTH NORWOOD MEDICAL CENTRE,SE25 6RA,51.398891,-0.089130928
NORBURY HEALTH CENTRE (02),SW16 4NL,51.404505,-0.12271363
GYNAECOLOGY MENSTRUAL DISORDERS SERVICE,SW16 4NL,51.404505,-0.12271363
FAIRVIEW MEDICAL CENTRE,SW16 5PX,51.410791,-0.12435433
MEDICAL CENTRE,UB1 1BW,51.507298,-0.38014776
GURU NANAK MEDICAL CENTRE,UB1 1EQ,51.511827,-0.38713505
SUNRISE MEDICAL CENTRE,UB1 1HS,51.51087,-0.38225476
THE MWH PRACTICE,UB1 1LA,51.511247,-0.37960419
THE TOWN SURGERY,UB1 1PZ,51.512516,-0.37770011
THE NORTHCOTE MEDICAL CENTRE,UB1 2AX,51.512106,-0.37994841
THE SALUJA CLINIC,UB1 2AY,51.512742,-0.38043024
DORMERS WELLS MEDICAL CENTRE,UB1 2LU,51.514997,-0.3653616
LADY MARGARET ROAD MEDICAL CENTRE,UB1 2PH,51.513227,-0.37578694
THE SOUTHALL MEDICAL CTR.,UB1 2PT,51.518933,-0.3755407
CHEPSTOW GARDENS MEDICAL CENTRE,UB1 2RL,51.517624,-0.37514048
ST. GEORGES MEDICAL CTR.,UB1 2RX,51.521599,-0.37455216
DR SIVANESAN & PARTNER,UB1 2TJ,51.521329,-0.36930061
JUBILEE GARDENS MEDICAL CENTRE,UB1 2TJ,51.521329,-0.36930061
SOMERSET FHP O,UB1 2TU,51.523141,-0.36903406
WEST LONDON FORENSICS SERVICES PRIMARY CARE,UB1 3EU,51.506713,-0.35107555
EALING TRI-BOROUGH PERINATAL MH SERVICE,UB1 3EU,51.506713,-0.35107555
PALLIATIVE CARE CONSULTANTS,UB1 3HW,51.506988,-0.34633924
UNSCHEDULED CARE SERVICE,UB1 3HW,51.506988,-0.34633924
INTERMEDIATE CARE EALING,UB1 3HW,51.506988,-0.34633924
KS MEDICAL CENTRE,UB1 3HY,51.513741,-0.36429684
HAMMOND ROAD SURGERY,UB2 4EH,51.499656,-0.37961189
WELCOME PRACTICE,UB2 4EY,51.49867,-0.37981975
MIDDLESEX URGENT DENTAL CARE PILOT,UB2 4RP,51.501943,-0.3733065
HARMONI PRIMARY CARE SERVICE ASPH,UB2 4SA,51.505322,-0.357711
EALING ADULT LEARNING DISABILITY,UB2 4SD,51.506441,-0.35926997
EALING PCT MUSCULOSKELETAL SERVICE,UB2 4SD,51.506441,-0.35926997
ADULT COMMUNITY NURSING,UB2 4SD,51.506441,-0.35926997
SPECIALIST NURSING SERVICES,UB2 4SD,51.506441,-0.35926997
COMMUNITY DIABETES CLINICS,UB2 4SD,51.506441,-0.35926997
CARMELITA HOUSE - PAEDIATRIC SERVICES,UB2 4SD,51.506441,-0.35926997
WATERSIDE MEDICAL CENTRE,UB2 4XQ,51.502209,-0.36397496
FEATHERSTONE ROAD HEALTH CENTRE,UB2 5BQ,51.502629,-0.38521213
BELMONT MEDICAL CENTRE,UB2 5DU,51.500857,-0.3852027
THE MEDICAL CENTRE,UB5 4AT,51.552656,-0.37506092
MEADOW VIEW,UB5 4LZ,51.55086,-0.36101869
THE GROVE MEDICAL PRACTICE,UB5 4NY,51.55534,-0.36240116
THE BARNABAS MEDICAL CTRE,UB5 4SR,51.551056,-0.35377102
MANDEVILLE MEDICAL CENTRE,UB5 5HB,51.544848,-0.37226726
ISLIP MANOR MEDICAL CENTRE,UB5 5RG,51.547214,-0.37293282
YEADING MEDICAL CENTRE,UB5 6LD,51.533634,-0.39701939
WEST END SURGERY,UB5 6QN,51.534274,-0.39780433
ALLENBY CLINIC,UB5 6WL,51.531524,-0.37630364
SOMERSET MEDICAL CENTRE,UB5 6WL,51.531524,-0.37630364
GOODCARE PRACTICE,UB5 6WL,51.531524,-0.37630364
BROADMEAD SURGERY,UB5 6WL,51.531524,-0.37630364
NORTHOLT FAMILY PRACTICE,UB5 6WL,51.531524,-0.37630364
COMMUNITY OPHTHALMOLOGY SERVICE,UB5 6WL,51.531524,-0.37630364
ELMTREES SURGERY,UB6 0PA,51.55077,-0.3360548
THE ALLENDALE ROAD SURGERY,UB6 0RA,51.551186,-0.31982738
HILLVIEW SURGERY,UB6 7HQ,51.540536,-0.31833057
PERIVALE MEDICAL CLINIC,UB6 8HX,51.535109,-0.33375665
GREENFORD ROAD MED.CTR.,UB6 8QH,51.537697,-0.34570235
OLDFIELD FAMILY PRACTICE,UB6 8RA,51.530435,-0.35106925
RIBCHESTER MEDICAL CENTRE,UB6 8TG,51.532808,-0.33257189
THE MANSELL ROAD PRACTICE,UB6 9EN,51.525651,-0.35881023
EASTMEAD AVENUE SURGERY,UB6 9RB,51.531443,-0.36273975
NURSING HOME SERVICES,W13 8ER,51.520337,-0.32259168
THE ARGYLE SURGERY,W13 8ER,51.520337,-0.32259168
THE AVENUE SURGERY,W13 8LA,51.518389,-0.3190311
GROSVENOR HOUSE SURGERY,W13 9BE,51.509417,-0.32741678
LANCASTER HOUSE,W13 9HH,51.509879,-0.32317757
EALING CONTRACEPTIVE & SEXUAL HEALTH,W13 9NZ,51.509944,-0.31522046
GORDON HOUSE SURGERY,W13 9NZ,51.509944,-0.31522046
MATTOCK LANE HEALTH CENTRE,W13 9NZ,51.509944,-0.31522046
NORTHFIELDS SURGERY,W13 9QP,51.505053,-0.31898876
CLOISTER ROAD SURGERY,W3 0DF,51.521352,-0.26558899
THE BURLINGTON GARDENS SURGERY,W3 6BA,51.507757,-0.26511097
THE CHURCHFIELD ROAD SURGERY,W3 6DL,51.508752,-0.26671597
THE HORN LANE SURGERY,W3 6PH,51.514705,-0.26855096
THE VALE SURGERY,W3 7RG,51.506454,-0.25181711
WESTERN AVENUE SURGERY,W3 7TY,51.514328,-0.25279837
THE ACTON HEALTH CENTRE,W3 8QE,51.506214,-0.27019854
THE MILL HILL SURGERY,W3 8QH,51.50517,-0.27444556
EALING 0-19 CHILDREN'S SERVICE,W3 8RX,51.503799,-0.27353197
CROWN STREET SURGERY,W3 8SA,51.507464,-0.27386898
ACTON TOWN MEDICAL CENTRE,W3 9BA,51.50246,-0.28216997
HILLCREST SURGERY,W3 9RA,51.508278,-0.27908354
CHISWICK FAMILY PRACTICE,W4 1BB,51.502458,-0.26008196
ACTON LANE MEDICAL CENTRE,W4 5DG,51.50181,-0.26550972
THE BEDFORD PARK SURGERY,W4 5LH,51.49598,-0.2623023
BRUNSWICK ROAD MED.CTR.,W5 1AQ,51.529634,-0.30249885
THE LYNWOOD SURGERY,W5 1JQ,51.528594,-0.29963978
THE PITSHANGER LANE SURGERY,W5 1RQ,51.526483,-0.31094845
QUEENS WALK PRACTICE,W5 1TP,51.524803,-0.31298549
THE CORFTON ROAD SURGERY,W5 2HS,51.519743,-0.29759116
THE BOILEAU ROAD SURGERY,W5 3AJ,51.519459,-0.2867482
THE FLORENCE ROAD SURGERY,W5 3TX,51.512619,-0.2986494
EALING GP ACCESS CENTRES,W5 3TX,51.512619,-0.2986494
EALING PARK HEALTH CENTRE,W5 4RH,51.49742,-0.30536707
HV & CHILD SERVICES NURSING,W5 5TL,51.51165,-0.31254909
WESTSEVEN GP,W7 1DR,51.510306,-0.33427258
HANWELL HEALTH CENTRE (NAISH),W7 1DR,51.510306,-0.33427258
THE CUCKOO LANE PRACTICE,W7 1DR,51.510306,-0.33427258
THE FAMILY HEALTH PRACTICE,W7 1DR,51.510306,-0.33427258
ELTHORNE PARK SURGERY,W7 2JJ,51.503754,-0.32629853
GREENFORD AVENUE FHP,W7 3AH,51.521731,-0.34027017
ELMBANK SURGERY,W7 3DD,51.525549,-0.3419477
TRINITY AVENUE SURGERY,EN1 1HS,51.640369,-0.065570052
MEDICUS HEALTH PARTNERS-LINCOLN ROAD MED,EN1 1LJ,51.645872,-0.061751152
MEDICUS HEALTH PARTNERS-SOUTHBURY,EN1 1PJ,51.652024,-0.074412526
MEDICUS HEALTH PARTNERS- BUSH HILL PARK,EN1 1XG,51.639484,-0.066460376
MEDICUS HEALTH PARTNERS-WILLOW HOUSE,EN1 3AZ,51.654201,-0.076662264
ABERNETHY HOUSE SURGERY,EN1 3EB,51.654392,-0.081193646
WHITE LODGE MEDICAL PRACTICE,EN1 3EW,51.654146,-0.080958297
MEDICUS HEALTH PARTNERS-CARLTON HOUSE,EN1 3LL,51.662596,-0.076928563
THE ENFIELD PAIN CLINICS,EN1 3LL,51.662596,-0.076928563
ENFIELD UNITY PCN,EN1 3LL,51.662596,-0.076928563
ENFIELD GERIATRICS,EN2 0JB,51.661915,-0.08372432
ENFIELD COMMUNITY SERVICES,EN2 0JB,51.661915,-0.08372432
COM CRISIS RESPONSE SERV OOH,EN2 0JB,51.661915,-0.08372432
TOWN SURGERY,EN2 6TJ,51.6509,-0.085388762
ENFIELD COMMUNITY GYNAECOLOGY SERVICE,EN2 7PR,51.659206,-0.10124658
BINCOTE SURGERY,EN2 7RD,51.653049,-0.10923808
ENFIELD PCT DERMATOLOGY SERV.,EN2 7RD,51.653049,-0.10923808
SCAS,EN2 8JL,51.666312,-0.10363913
EAST ENFIELD PRACTICE,EN3 4DE,51.649065,-0.046624827
EAGLE HOUSE SURGERY,EN3 4DN,51.647907,-0.046183156
MEDICUS HEALTH PARTNERS-DEAN HOUSE,EN3 4EA,51.645417,-0.046246843
MEDICUS HEALTH PARTNERS-CURZON AVENUE,EN3 4UE,51.645435,-0.036518455
BRICK LANE SURGERY,EN3 5BA,51.657326,-0.048597337
MEDICUS HEALTH PARTNERS-RILEY HOUSE,EN3 5PR,51.664389,-0.043970271
MEDICUS HEALTH PARTNERS-MOORFIELD ROAD,EN3 5TU,51.660368,-0.047093078
MEDICUS HEALTH PARTNERS-ENFIELD ISLAND,EN3 6GS,51.668536,-0.016719677
THE ORDNANCE UNITY CENTRE FOR HEALTH,EN3 6ND,51.672643,-0.039015532
MEDICUS HEALTH PARTNERS-FREEZYWATER PCC,EN3 6PN,51.674558,-0.040104324
MEDICUS HEALTH PARTNERS-GREEN STREET,EN3 7HW,51.657096,-0.044501192
BARNDOC HEALTHCARE LTD OOH,EN4 0DR,51.650819,-0.14815884
BARNDOC (ENFIELD PATIENTS) OOH,EN4 0DR,51.650819,-0.14815884
ALTERNATIVE HEALTHCARE SCHEME,EN4 0DR,51.650819,-0.14815884
COCKFOSTERS MEDICAL CTRE,EN4 9NB,51.648497,-0.14864373
ARNOS GROVE MEDICAL CENTR,N11 1BD,51.615467,-0.12982374
GILLAN HOUSE SURGERY,N13 4BS,51.622601,-0.10537547
THE NORTH LONDON HEALTH CENTRE,N13 4JJ,51.617562,-0.11240347
GROVELANDS MEDICAL CENTRE,N13 4RJ,51.620756,-0.11198198
BOWES MEDICAL CENTRE,N13 4SE,51.612603,-0.12108758
THE PALM MEDICAL CENTRE,N13 5DP,51.61822,-0.093019387
MEDICUS HEALTH PARTNERS-CONNAUGHTSURGERY,N13 5ST,51.620867,-0.095422065
GRENOBLE GARDENS SURGERY,N13 6JE,51.610595,-0.10749305
OAKWOOD MEDICAL CENTRE,N14 4AQ,51.64657,-0.13426793
SOUTHGATE,N14 4PR,51.640401,-0.14273011
JAINA HOUSE SURGERY,N14 7AR,51.621578,-0.12844568
DOVER HOUSE SURGERY,N18 1HR,51.614323,-0.069696536
MORECAMBE SURGERY,N18 1LA,51.61772,-0.085543248
DERMATOLOGY CLINIC (REMOTE),N18 1QX,51.613122,-0.074340604
N.MIDDLESEX NHS WALK IN CENTRE,N18 1QX,51.613122,-0.074340604
SEXUAL AND REPRODUCTIVE HEALTH,N18 1QX,51.613122,-0.074340604
GREEN CEDARS MEDICAL CENTRE,N18 1RP,51.616069,-0.07365251
ANGEL SURGERY,N18 2FF,51.611097,-0.064951584
DR ME SILVER'S PRACTICE,N18 2LY,51.616023,-0.063730945
HIGHLANDS PRACTICE,N21 1UJ,51.646317,-0.11058778
RIVERSIDE PRACTICE,N21 2SA,51.633072,-0.093913773
WINCHMORE HILL PRACTICE,N21 2SA,51.633072,-0.093913773
PARK LODGE MEDICAL CENTRE,N21 2SA,51.633072,-0.093913773
ENFIELD COMMUNITY PAEDIATRIC SERVICES,N21 2SA,51.633072,-0.093913773
THE WOODBERRY PRACTICE,N21 3LE,51.62726,-0.1004279
ENFIELD SOUTH WEST PCN,N21 3LE,51.62726,-0.1004279
ENFIELD SUBSTANCE MISUSE SERVICES,N9 0AH,51.62786,-0.043851495
BOUNDARY COURT SURGERY,N9 0TW,51.623887,-0.060217755
CHALFONT ROAD SURGERY,N9 0TW,51.623887,-0.060217755
EVERGREEN PRIMARY CARE CENTRE,N9 0TW,51.623887,-0.060217755
PRIMARY CARE SEVEN DAY SERVICE,N9 0TW,51.623887,-0.060217755
RAINBOW PRACTICE,N9 0TW,51.623887,-0.060217755
BHP EDMONTON,N9 0TW,51.623887,-0.060217755
EDMONTON GP WALK IN CENTRE,N9 0TW,51.623887,-0.060217755
INTEGRATED RESPIRATORY SERVICE,N9 0TW,51.623887,-0.060217755
ENFIELD CARE NETWORK PCN,N9 0TW,51.623887,-0.060217755
MEDICUS HEALTH PARTNERS-FOREST RD GROUP,N9 7HD,51.632465,-0.054201855
THE BOUNCES ROAD SURGERY,N9 7HD,51.632465,-0.054201855
BOUNDARY HOUSE SURGERY,N9 7HD,51.632465,-0.054201855
THE GREEN PRACTICE,N9 7HD,51.632465,-0.054201855
COMPASS ENFIELD,N9 7HD,51.632465,-0.054201855
NIGHTINGALE HOUSE SURGERY,N9 8AJ,51.638067,-0.046056953
KEATS SURGERY,N9 9HJ,51.628856,-0.076925346
LATYMER ROAD SURGERY,N9 9PU,51.62811,-0.066510608
GREENWICH PENINSULA PMS,SE10 0QN,51.493276,0.012067865
GREENWICH PENINSULA,SE10 0QN,51.493276,0.012067865
BURNEY STREET PMS,SE10 8EX,51.47899,-0.009227088
PRIMECARE PMS (SOUTH STREET),SE10 8NT,51.476158,-0.012475306
PLUMBRIDGE MEDICAL CENTRE,SE10 8PA,51.473207,-0.013985942
VANBRUGH GROUP PRACTICE,SE10 9GB,51.48607,0.008552991
WOODLANDS SURGERY,SE10 9UB,51.484797,0.004608174
CONWAY PMS,SE18 1AH,51.487237,0.086401332
TEWSON ROAD PMS,SE18 1BB,51.485986,0.092033734
PLUMSTEAD H/C PMS,SE18 1BB,51.485986,0.092033734
BANNOCKBURN SURGERY,SE18 1ES,51.488164,0.094452576
MOSTAFA PMS,SE18 1SE,51.487533,0.092536672
THE TRINITY MEDICAL CENTRE,SE18 2AE,51.478787,0.085742002
THE SLADE SURGERY,SE18 2NB,51.479879,0.088556999
ST MARKS PMS,SE18 3EP,51.481053,0.0725233
ALL SAINTS MEDICAL CENTRE PMS,SE18 3PS,51.479417,0.066371581
HAZELWOOD,SE18 3RG,51.468939,0.065437342
GREENWOOD,SE18 3RG,51.468939,0.065437342
WOOLWICH MEDICAL CENTRE,SE18 4AB,51.487906,0.059236273
QUEEN ELIZABETH URGENT CARE SERVICE,SE18 4QH,51.478577,0.048691764
GREENBROOK OOH,SE18 4QH,51.478577,0.048691764
TRIVENI PMS,SE18 5TE,51.490321,0.058437577
CLOVER HEALTH CENTRE,SE18 6AB,51.490385,0.068610531
ANGLESEA PMS,SE18 6ER,51.488759,0.067989561
WDP WOOLWICH,SE18 6LZ,51.493284,0.063843679
VALENTINE HEALTH PARTNERSHIP,SE18 6PZ,51.4923,0.061523099
GREENWICH HEALTH LTD,SE18 6PZ,51.4923,0.061523099
ROYAL ARSENAL MEDICAL CENTRE,SE18 6TE,51.493501,0.073476816
GLYNDON PMS,SE18 7LU,51.487385,0.079594846
WAVERLEY PMS,SE18 7QU,51.482736,0.083113669
ABBEYSLADE PMS (DR CHAND),SE2 0ER,51.487796,0.10744297
PALLIATIVE CARE,SE2 0GB,51.482685,0.11809589
GREENWICH COMMUNITY HOSPICE,SE2 0GB,51.482685,0.11809589
ABBEY WOOD SURGERY,SE2 9AT,51.497093,0.11650188
HMP BELMARSH,SE28 0EB,51.496763,0.092800971
HMP THAMESIDE,SE28 0FJ,51.493273,0.088304853
THAMESMEAD SATELLITE URGENT CARE CENTRE,SE28 0NY,51.498821,0.089883967
AT MEDICS,SE28 0NY,51.498821,0.089883967
HMP & YOI ISIS,SE28 0NZ,51.497246,0.096972442
GALLIONS REACH HEALTH CENTRE,SE28 8BE,51.505645,0.10903025
MANOR BROOK PMS,SE3 0EN,51.469221,0.025062257
BLACKHEATH STANDARD PMS,SE3 7HB,51.478134,0.019797325
DR SITHAMPARANATHAN,SE3 8AE,51.46392,0.038806853
SHOOTERS HILL MEDICAL CENTRE,SE3 8HQ,51.471406,0.037513517
DR NS GURAM'S PRACTICE,SE3 9FA,51.460346,0.029175207
HENLEY CROSS MEDICAL PRACTICE,SE3 9YX,51.461302,0.028512198
CRI GPWSI,SE7 8LJ,51.492421,0.04429921
WDP GREENWICH,SE7 8LJ,51.492421,0.04429921
FAIRFIELD PMS,SE7 8TX,51.483908,0.038949361
ELTHAM PARK SURGERY,SE9 1JE,51.4547,0.061023297
DR V SANDRASAGRA'S PRACTICE,SE9 1XY,51.460469,0.057741801
DR BPC PEIRIS' PRACTICE,SE9 2JY,51.449406,0.084287505
DR V AGARWAL'S PRACTICE,SE9 3AZ,51.429798,0.056507238
ELMSTEAD MEDICAL CLINIC,SE9 3JD,51.432081,0.059113093
COLDHARBOUR HILL PMS,SE9 3JD,51.432081,0.059113093
NEW ELTHAM AND BLACKFEN MEDICAL CENTRE,SE9 3PT,51.434495,0.074199154
ELTHAM PALACE PMS,SE9 5DQ,51.449946,0.053713664
ELTHAM MEDICAL PRACTICE,SE9 5DQ,51.449946,0.053713664
CIRCLE GREENWICH MSK,SE9 5DQ,51.449946,0.053713664
SHAWBROOKE SURGERY,SE9 6AE,51.454961,0.035312911
SHERARD ROAD MEDICAL CENTRE,SE9 6ER,51.454724,0.049422825
BRISET CORNER SURGERY,SE9 6JX,51.458187,0.043704784
THE SURGERY (KINGSLAND ROAD),E2 8AL,51.532656,-0.077550888
THE SORSBY HEALTH CENTRE,E5 0DH,51.5559,-0.038862209
CHYPS PLUS,E5 0PD,51.550592,-0.052230775
EAR NOSE & THROAT SERVICE,E5 0PD,51.550592,-0.052230775
LOWER CLAPTON GROUP PRACTICE,E5 0PQ,51.550922,-0.050990624
ATHENA MEDICAL CENTRE,E5 0QP,51.554917,-0.053315427
THE NIGHTINGALE PRACTICE,E5 8BY,51.55818,-0.062481117
THE RIVERSIDE PRACTICE,E5 9BQ,51.565262,-0.051329752
THE CLAPTON SURGERY,E5 9BQ,51.565262,-0.051329752
HEALY MEDICAL CENTRE,E5 9DH,51.567016,-0.060056557
THE DALSTON PRACTICE,E8 1PG,51.547765,-0.067264996
SANDRINGHAM PRACTICE,E8 1PG,51.547765,-0.067264996
BEECHWOOD MEDICAL CENTRE,E8 3AH,51.546038,-0.070525556
RICHMOND ROAD MEDICAL CENTRE,E8 3HN,51.543051,-0.06553224
HACKNEY RECOVERY SERVICE,E8 3SG,51.538542,-0.056581065
SQUARE MILE HEALTH,E8 3SG,51.538542,-0.056581065
QUEENSBRIDGE GROUP PRACTICE,E8 3XP,51.541476,-0.071468414
LONDON FIELDS MEDICAL CENTRE,E8 4QJ,51.536584,-0.061610386
ST.JOSEPH'S HOSPICE,E8 4SA,51.537053,-0.056255169
"ST JOSEPH'S HOSPICE, HACKNEY",E8 4SA,51.537053,-0.056255169
ST JOSEPH'S HOSPICE,E8 4SA,51.537053,-0.056255169
ST JOSEPH'S HOSPICE COMMUNITY SERVICE,E8 4SA,51.537053,-0.056255169
FELSTEAD ST RESOURCE CENTRE,E9 5LG,51.544131,-0.026662507
TROWBRIDGE PRACTICE,E9 5NE,51.545462,-0.029345179
KINGSMEAD HEALTHCARE,E9 5QG,51.551803,-0.034783216
THE WICK HEALTH CENTRE,E9 5TD,51.548012,-0.037715835
THE LEA SURGERY,E9 6AG,51.548273,-0.04311334
ELSDALE STREET SURGERY,E9 6QY,51.543014,-0.0491653
LATIMER HEALTH CENTRE,E9 6RT,51.54659,-0.049502727
MEDIAN ROAD RESOURCE CENTRE,E9 6RT,51.54659,-0.049502727
HOMERTON NMP'S,E9 6SR,51.550634,-0.046098772
PRIMARY & URGENT CARE CENTRE,E9 6SR,51.550634,-0.046098772
NORTH EAST LONDON BCSC,E9 6SR,51.550634,-0.046098772
GP OUT OF HOURS BASE SERVICE OOH,E9 6SR,51.550634,-0.046098772
PARADOC,E9 6SR,51.550634,-0.046098772
DERMATOLOGY SERVICE,E9 7PX,51.539952,-0.053737828
WDP HACKNEY DIP,E9 7QL,51.539237,-0.053999062
LIFELINE PROJECT LTD,E9 7QL,51.539237,-0.053999062
THE GREENHOUSE WALK-IN,E9 7SN,51.538544,-0.055052455
WELL STREET SURGERY,E9 7TA,51.539226,-0.052817041
SHOREDITCH PARK SURGERY,N1 5DR,51.533527,-0.086828572
THE HOXTON SURGERY,N1 5DR,51.533527,-0.086828572
THE LAWSON PRACTICE,N1 5HZ,51.533731,-0.079524183
EXTENDED ACCESS PRIMARY CARE HUB,N1 5HZ,51.533731,-0.079524183
CHCCG COVID 19 TREATMENT CENTRE,N1 5HZ,51.533731,-0.079524183
DE BEAUVOIR SURGERY,N1 5QT,51.538449,-0.078244064
ABNEY HOUSE MEDICAL CENTRE,N16 0EF,51.561749,-0.078791224
THE SURGERY (CRANWICH ROAD),N16 5JF,51.573619,-0.081552204
SPRING HILL PRACTICE,N16 5SR,51.566161,-0.073641711
TOLLGATE LODGE PRACTICE,N16 5SR,51.566161,-0.073641711
THE ALLERTON ROAD SURGERY,N16 5UF,51.565724,-0.090383086
STAMFORD HILL GROUP PRACTICE,N16 6UA,51.573976,-0.071492952
FOUNTAYNE ROAD HEALTH CENTRE,N16 7EA,51.56442,-0.06514483
THE ELM PRACTICE,N16 7EA,51.56442,-0.06514483
ROSEWOOD PRACTICE,N16 7EA,51.56442,-0.06514483
THE SURGERY (BROOKE ROAD),N16 7LR,51.560052,-0.070754775
SOMERFORD GROVE PRACTICE,N16 7UA,51.553797,-0.07262063
THE SURGERY (BARRETTS GROVE),N16 8AR,51.5522,-0.078284859
THE STATHAM GROVE SURGERY,N16 9DP,51.557463,-0.089459644
BARTON HOUSE GROUP PRACTICE,N16 9JT,51.560545,-0.083819308
MILDMAY MEDICAL PRACTICE,N16 9NF,51.552568,-0.085986469
THE SURGERY (PATEL),N4 2NU,51.568205,-0.093670043
DERMATOLOGY SERVICE,N4 2NU,51.568205,-0.093670043
THE CEDAR PRACTICE,N4 2NU,51.568205,-0.093670043
THE HERON PRACTICE,N4 2NU,51.568205,-0.093670043
COMMUNITY DERMATOLOGY SERVICE,N4 2NU,51.568205,-0.093670043
THE FULHAM MEDICAL CENTRE,SW6 1BG,51.480745,-0.19310557
NORTH FULHAM SURGERY,SW6 1TN,51.486398,-0.19933486
"THE SURGERY, DR DAS & PARTNERS",SW6 2FE,51.473137,-0.19137587
SANDS END HEALTH CLINIC,SW6 2FE,51.473137,-0.19137587
GP LED GYNAECOLOGY SERVICE,SW6 2FE,51.473137,-0.19137587
ASHVILLE SURGERY,SW6 4HS,51.476255,-0.20113114
GPWSI DERMATOLOGY CLINIC,SW6 4UL,51.473778,-0.19914064
DMC COMMUNITY DERM H&F,SW6 4UL,51.473778,-0.19914064
THE LILYVILLE SURGERY,SW6 4UL,51.473778,-0.19914064
BARNET CCG-CLCH (NMP),SW6 4UL,51.473778,-0.19914064
WEST LONDON CCG - CLCH (NMP),SW6 4UL,51.473778,-0.19914064
CENTRAL LONDON CCG - CLCH (NMP),SW6 4UL,51.473778,-0.19914064
HAMMERSMITH & FULHAM CCG - CLCH (NMP),SW6 4UL,51.473778,-0.19914064
MERTON CCG-CLCH (NMP),SW6 4UL,51.473778,-0.19914064
PARSONS GREEN WIC,SW6 4UL,51.473778,-0.19914064
HARROW CCG COMMUNITY NURSES CLCH (NMP),SW6 4UL,51.473778,-0.19914064
WANDSWORTH CCG - CLCH (NMP),SW6 4UL,51.473778,-0.19914064
CASSIDY ROAD MEDICAL CENTRE,SW6 5PX,51.479163,-0.19900057
"THE MEDICAL CENTRE, DR JEFFERIES & PARTN",SW6 6BQ,51.481079,-0.21259235
"THE SURGERY, DR MANGWANA & PARTNERS",SW6 6JD,51.476281,-0.21581835
SALISBURY SURGERY,SW6 7HS,51.481161,-0.20851345
FULHAM CROSS MEDICAL CENTRE,SW6 7PP,51.482739,-0.21414049
GP AT HAND,SW6 7SX,51.484752,-0.2034469
HMP WORMWOOD SCRUBS,W12 0AE,51.516023,-0.24048268
HAMM & FULHAM PERINATAL MH SERVICE,W12 0HS,51.516523,-0.23665841
HAMMERSMITH & FULHAM CENTRES FOR HEALTH,W12 0HS,51.516523,-0.23665841
"THE MEDICAL CENTRE, DR KUKAR",W12 0NF,51.507135,-0.24385117
"THE SURGERY, DR DASGUPTA & PARTNERS",W12 0PT,51.514206,-0.24762908
"DR CANISIUS & DR HASAN, PARKVIEW CFH&W",W12 7FG,51.507568,-0.22126834
"DR UPPAL & PARTN, PARKVIEW CTR FOR H&W",W12 7FG,51.507568,-0.22126834
"DR RK KUKAR, PARKVIEW CTR FOR H&W",W12 7FG,51.507568,-0.22126834
H&F CCGS WEEKEND PLUS SERVICE,W12 7FG,51.507568,-0.22126834
CANBERRA OLD OAK SURGERY,W12 7FG,51.507568,-0.22126834
HAMMERSMITH AND FULHAM DAWS,W12 7LL,51.506646,-0.23407131
SHEPHERDS BUSH MEDICAL CENTRE,W12 7LS,51.506623,-0.23309236
BROADWAY CENTRE,W12 8EZ,51.503221,-0.22633659
THE OLD OAK SURGERY,W12 8LH,51.505569,-0.22759991
THE BUSH DOCTORS,W12 8PP,51.503763,-0.2187941
ASHCHURCH SURGERY,W12 9BP,51.501852,-0.24232529
THE NEW SURGERY,W12 9RD,51.506067,-0.23557792
STERNDALE SURGERY,W14 0HX,51.498316,-0.22135481
NORTH END MEDICAL CENTRE,W14 9PR,51.487882,-0.20407288
PARK MEDICAL CENTRE,W6 0QG,51.496963,-0.24317604
BROOK GREEN SURGERY,W6 7BL,51.4953,-0.21814438
BROOK GREEN MEDICAL CENTRE,W6 7EG,51.494576,-0.222019
RICHFORD GATE MEDICAL CENTRE,W6 7HY,51.500436,-0.22655995
"UCC, H&F CENTRES FOR HEALTH",W6 8RF,51.487054,-0.21993503
WEST LONDON BCSC,W6 8RF,51.487054,-0.21993503
HAMMERSMITH SURGERY,W6 9DU,51.490898,-0.22730465
COMMUNITY INDEPENDENCE SERVICE,W6 9XY,51.492378,-0.23185691
RUTLAND HOUSE SURGERY,N10 1DU,51.594446,-0.14420104
GROSVENOR ROAD SURGERY,N10 2DR,51.599873,-0.13992233
THE MUSWELL HILL PRACTICE,N10 2PS,51.59225,-0.14121547
HARINGEY HEALTH CONNECTED LTD,N10 2PS,51.59225,-0.14121547
QUEENS AVENUE PRACTICE,N10 3BJ,51.591919,-0.14758123
BOUNDS GREEN GROUP PRACTICE,N11 2PF,51.606638,-0.12653285
HAVERGAL SURGERY,N15 3DY,51.589194,-0.10201623
WEST GREEN ROAD SURGERY,N15 3PB,51.58587,-0.092208986
PILOT SE LOCALITY TELEPHONE APPOINTMENTS,N15 3PB,51.58587,-0.092208986
ALTERNATIVE HEALTH CARE SCHEME,N15 3TH,51.580663,-0.092181708
CHILD DEVELOPMENT CENTRE,N15 3TH,51.580663,-0.092181708
HARINGEY PALLIATIVE CARE TEAM,N15 3TH,51.580663,-0.092181708
SPUR ROAD SURGERY,N15 4AA,51.586552,-0.086593946
PHILIP LANE SURGERY (SIVA),N15 4AB,51.587688,-0.085665643
JS MEDICAL PRACTICE,N15 4JR,51.589103,-0.078705677
LAWRENCE HOUSE SURGERY,N15 4JR,51.589103,-0.078705677
TYNEMOUTH MEDICAL PRACTICE,N15 4RH,51.586253,-0.068331476
CHESTNUTS PARK SURGERY,N15 5AZ,51.581361,-0.087028496
ST ANN'S ROAD SURGERY,N15 5AZ,51.581361,-0.087028496
THE CHESTNUTS PARK SURGERY,N15 5AZ,51.581361,-0.087028496
GROVE ROAD SURGERY,N15 5HJ,51.581143,-0.081350827
FERNLEA SURGERY,N15 6JR,51.578537,-0.072728701
HIGH ROAD SURGERY (SINGH),N15 6LT,51.576014,-0.072922056
ST JOHN'S SURGERY,N15 6QP,51.577091,-0.081579206
HAGA ALCOHOL TREATMENT SERVICE HARINGEY,N17 0HJ,51.602616,-0.059434897
PARK LANE SURGERY,N17 0JP,51.602341,-0.060226389
ST PAUL'S ROAD SURGERY,N17 0NJ,51.600123,-0.06095626
MORRIS HOUSE GROUP PRACTICE,N17 6AA,51.597763,-0.082050985
BROADWATER FARM HEALTH CENTRE,N17 6BF,51.594412,-0.080560701
BRUCE GROVE PRIMARY HEALTH CARE CTR,N17 6QB,51.592137,-0.070160803
HARINGEY DIP/CRI,N17 6RA,51.59475,-0.071046249
CHARLTON HOUSE MEDICAL CENTRE,N17 6SB,51.59544,-0.069226701
TOTTENHAM HEALTH CENTRE,N17 8AH,51.604773,-0.068628595
SOMERSET GARDENS FAMILY HEALTH CENTRE,N17 8NW,51.605338,-0.073471338
DERMATOLOGY GPSI,N17 8NW,51.605338,-0.073471338
DOWSETT ROAD SURGERY,N17 9DL,51.594856,-0.064385829
TOTTENHAM HALE MEDICAL PRACTICE,N17 9FD,51.588708,-0.05907487
CHERRY TREE SURGERY,N2 9JG,51.588143,-0.15968757
ARCADIAN GARDENS SURGERY,N22 5AB,51.606727,-0.11077331
STUART CRESCENT HEALTH CENTRE,N22 5NJ,51.600432,-0.11019708
STUART CRESCENT MEDICAL PRACTICE,N22 5NJ,51.600432,-0.11019708
WESTBURY AVENUE SURGERY,N22 6RS,51.593585,-0.097732932
WESTBURY MEDICAL CENTRE,N22 6RX,51.597176,-0.094030971
PILOT CENTRAL PROJECT WESTBURY AVENUE,N22 6RX,51.597176,-0.094030971
THE ALEXANDRA SURGERY,N22 7UN,51.599292,-0.13679827
STAUNTON GROUP PRACTICE,N22 8HE,51.599388,-0.11292615
CHESHIRE ROAD SURGERY,N22 8JJ,51.607188,-0.11370032
MYDDLETON ROAD SURGERY,N22 8NW,51.606553,-0.11560404
BRIDGE HOUSE MEDICAL PRACTICE,N4 1TL,51.577313,-0.099134059
HIGHGATE GROUP PRACTICE,N6 4QA,51.57692,-0.15162599
HORNSEY PARK SURGERY,N8 0PH,51.589275,-0.10923095
GREEN LANES (SAMPSON),N8 0RE,51.585044,-0.10060136
GREEN LANES (RAJA),N8 0RE,51.585044,-0.10060136
THE OLD SURGERY,N8 0RP,51.583329,-0.099633622
GREEN LANES (ANSARI),N8 0SD,51.585682,-0.10002622
CHRISTCHURCH HALL SURGERY,N8 8AE,51.577921,-0.12572234
CROUCH HALL ROAD SURGERY,N8 8HJ,51.579178,-0.12730153
QUEENSWOOD MEDICAL PRACTICE,N8 8JD,51.583479,-0.13086317
FEDERATED4HEALTH,N8 8JD,51.583479,-0.13086317
FEDERATED4HEALTH LTD (APMS),N8 8JD,51.583479,-0.13086317
PARK ROAD SURGERY,N8 8JJ,51.585165,-0.13281487
THE VALE PRACTICE,N8 8SU,51.581455,-0.12572126
TOTTENHAM LANE SURGERY,N8 9BD,51.584812,-0.11520457
ALLENSON HOUSE MEDICAL CENTRE,N8 9TB,51.580247,-0.11879969
HEADSTONE ROAD SURGERY,HA1 1PG,51.583768,-0.34091197
SAVITA MEDICAL CENTRE,HA1 1RQ,51.586574,-0.34285952
THE CIVIC MEDICAL CENTRE,HA1 1SE,51.587155,-0.33749741
NHS HARROW WDP,HA1 2AA,51.580618,-0.33434422
THE NORTHWICK SURGERY,HA1 2NU,51.581845,-0.32768885
HPCT CAS OPHTHALMOLOGY HHL,HA1 2NU,51.581845,-0.32768885
GPSI CARDIOLOGY SERVICE,HA1 3AW,51.579269,-0.33876662
GPSI HEADACHE SERVICE,HA1 3AW,51.579269,-0.33876662
GYNAECOLOGY GPWSI - AA,HA1 3AW,51.579269,-0.33876662
HARROW HEALTH CIC GASTROENTEROLOGY GPWSI,HA1 3AW,51.579269,-0.33876662
HPCT COMMUNITY UROLOGY SERVICE,HA1 3AW,51.579269,-0.33876662
HARROW DIABETES INTEGRATED CARE,HA1 3AW,51.579269,-0.33876662
CAS PAEDIATRICS,HA1 3AW,51.579269,-0.33876662
COMMUNITY NURSES HARROW CCG,HA1 3AW,51.579269,-0.33876662
STOMA SERVICE (HAPS),HA1 3AW,51.579269,-0.33876662
HARROW DARS WDP,HA1 3DJ,51.577972,-0.3430714
LANFRANC MEDICAL CENTRE,HA1 3QE,51.561586,-0.33274581
BMI CLEMENTINE CHURCHILL HOSPITAL,HA1 3RX,51.564966,-0.33270874
ST. PETER'S MEDICAL CENTRE,HA1 4BS,51.576497,-0.35070168
THE PINNER ROAD SURGERY,HA1 4JS,51.582803,-0.3528549
PINNER VIEW MEDICAL CENTRE,HA1 4QG,51.585878,-0.3502321
THE SHAFTESBURY MEDICAL CENTRE,HA2 0AH,51.571713,-0.35390515
GP DIRECT,HA2 0RQ,51.57527,-0.3587843
ROXBOURNE MEDICAL CENTRE,HA2 0UE,51.567373,-0.3631376
HEADSTONE LANE MEDICAL CENTRE,HA2 6LY,51.599017,-0.35675884
THE RIDGEWAY SURGERY,HA2 7DU,51.581014,-0.36510113
SIMPSON HOUSE MEDICAL CENTRE,HA2 8RS,51.561666,-0.37243149
HARROW ENT CAS,HA2 9DX,51.568372,-0.36969579
ALEX CENTRE UNREGISTERED WIC,HA2 9DX,51.568372,-0.36969579
DMC COMMUNITY DERM HARROW,HA2 9DX,51.568372,-0.36969579
KINGS ROAD SURGERY,HA2 9JH,51.567603,-0.376476
WASU MEDICAL CENTRE,HA2 9LG,51.571252,-0.37571108
FIRST CHOICE MEDICAL CARE,HA2 9LG,51.571252,-0.37571108
ENDERLEY ROAD MEDICAL CENTRE,HA3 5HF,51.601872,-0.34046884
ASPRI MEDICAL CENTRE,HA3 5LE,51.604471,-0.34300228
THE CIRCLE PRACTICE,HA3 7LT,51.601122,-0.32059852
BELMONT HEALTH CENTRE,HA3 7LT,51.601122,-0.32059852
THE ENTERPRISE PRACTICE,HA3 7LT,51.601122,-0.32059852
HHCIC EAST WIC,HA3 7LT,51.601122,-0.32059852
BELMONT WALK-IN CENTRE,HA3 7LT,51.601122,-0.32059852
THE STREATFIELD MEDICAL CENTRE,HA3 9BL,51.595341,-0.30068557
STREATFIELD HEALTH CENTRE,HA3 9BP,51.593812,-0.30812007
CHARLTON ROAD MEDICAL CENTRE,HA3 9HT,51.593386,-0.2960809
THE PINN MEDICAL CENTRE,HA5 3EE,51.595082,-0.38223875
COMMUNITY ASSESSMENT UNIT,HA5 3EE,51.595082,-0.38223875
THE PINN UNREGISTERED WIC,HA5 3EE,51.595082,-0.38223875
ADHD SERVICE,HA5 3EE,51.595082,-0.38223875
GPSI DERMATOLOGY SERVICE,HA5 3HR,51.59468,-0.38375451
HPCT CAS OPHTHALMOLOGY TP,HA5 3HR,51.59468,-0.38375451
HARROW HEALTH CIC - HAEMORRHOIDS SERVICE,HA5 3HR,51.59468,-0.38375451
HARROW HEALTH CIC - ENT SERVICE,HA5 3HR,51.59468,-0.38375451
ELLIOTT HALL MEDICAL CTR.,HA5 4EA,51.608476,-0.3625262
HATCH END MEDICAL CENTRE,HA5 4RD,51.606251,-0.37707625
HARROW LDT SERVICE,HA7 1AT,51.605645,-0.30058972
HARROW RAPID RESPONSE SERVICE,HA7 1AT,51.605645,-0.30058972
THE STANMORE MEDICAL CENTRE,HA7 1HS,51.60154,-0.30400635
HONEYPOT MEDICAL CENTRE,HA7 1JP,51.596942,-0.294504
THE STANMORE SURGERY,HA7 4AU,51.615265,-0.31104905
BACON LANE SURGERY,HA8 5AT,51.605078,-0.27588816
MOLLISON WAY SURGERY,HA8 5QL,51.597653,-0.27855169
REDBRIDGE CCG,RM1 1BH,51.579253,0.17979778
BARKING & DAGENHAM CCG,RM1 1BH,51.579253,0.17979778
HAVERING CCG,RM1 1BH,51.579253,0.17979778
WDP HAVERING,RM1 1HR,51.578124,0.17906541
EVOLUTIO COMMUNITY OPTHALMOLOGY SERVICE,RM1 2JT,51.57476,0.18539895
DR MARKS PRACTICE,RM1 2SB,51.572562,0.19237934
ST EDWARDS MEDICAL CENTRE,RM1 3DQ,51.580061,0.18230462
WESTERN ROAD MEDICAL CENTRE,RM1 3LS,51.578992,0.18750723
NORTH STREET MEDICAL CARE,RM1 4QJ,51.586196,0.17343195
PBC PURDIE DERMATOLOGY,RM1 4QJ,51.586196,0.17343195
HORNCHURCH HEALTHCARE,RM11 1XA,51.566908,0.21901872
BILLET LANE MEDICAL PRACTICE,RM11 1XA,51.566908,0.21901872
CECIL AVENUE SURGERY,RM11 2LY,51.583925,0.22124804
DMC COMMUNITY DERMATOLOGY BHR,RM11 3SD,51.563512,0.22312424
DR VM PATEL,RM11 3SZ,51.561032,0.22870229
HIGH STREET SURGERY,RM11 3XT,51.561596,0.22363675
DR UBEROY,RM12 4AN,51.562069,0.19949262
PBC UBEROY DERMATOLOGY,RM12 4AN,51.562069,0.19949262
MAYLANDS HEALTHCARE,RM12 4EQ,51.552925,0.19071367
HORNCHURCH WEEKEND SERVICE OOH,RM12 4EQ,51.552925,0.19071367
DR PM PATEL,RM12 4LF,51.556275,0.21916472
WOOD LANE SURGERY,RM12 5HX,51.544113,0.19598719
WOOD LANE SURGERY GYNAECOLOGY SERVICE,RM12 5HX,51.544113,0.19598719
WOOD LANE SURGERY UROLOGY SERVICE,RM12 5HX,51.544113,0.19598719
HAVERING HEALTH,RM12 5HX,51.544113,0.19598719
THE ROSEWOOD MEDICAL CENTRE,RM12 5NJ,51.542653,0.20092136
HAVERING ACCESS HUB-ROSE OOH,RM12 5NJ,51.542653,0.20092136
RAHMAN & TSOI,RM12 5PA,51.54728,0.20405819
DR GILLETT-WALLER,RM12 6LU,51.555965,0.21991418
UPMINSTER BRIDGE SURGERY,RM12 6PL,51.558947,0.23523689
HARLOW ROAD SURGERY,RM13 7UP,51.531926,0.1864178
MUNGO PARK SURGERY,RM13 7XR,51.533458,0.19201374
DR WANI,RM13 7XR,51.533458,0.19201374
SOUTH HORNCHURCH WALK IN CENTRE,RM13 7XR,51.533458,0.19201374
DR ABDULLAH,RM13 9AB,51.519362,0.19707375
DR HUSSAIN,RM13 9AB,51.519362,0.19707375
BERWICK SURGERY,RM13 9QU,51.527183,0.21397232
PBC ADUR DIABETES,RM13 9QU,51.527183,0.21397232
PBC DIXIT GYNAECOLOGY,RM13 9QU,51.527183,0.21397232
SPRING FARM SURGERY,RM13 9RZ,51.521974,0.21406561
CRANHAM VILLAGE SURGERY,RM14 1BJ,51.562625,0.26337962
PBC HUMBERSTONE OPTHALMOLOGY,RM14 1BJ,51.562625,0.26337962
UPMINSTER PBC CARDIOLOGY,RM14 1BJ,51.562625,0.26337962
CRANHAM HEALTH CENTRE,RM14 1RG,51.568883,0.26529226
KWAN,RM14 2HF,51.550502,0.24419885
HAIDERIAN MEDICAL CENTRE,RM14 2YN,51.549508,0.24727998
CHAKARAVARTY,RM14 2YX,51.55831,0.24831987
UPMINSTER MEDICAL CENTRE,RM14 3DH,51.556819,0.25524324
CHOPRA,RM14 3DP,51.553596,0.25543001
THE NEW MEDICAL CENTRE,RM2 5SU,51.574433,0.20385631
THE GREEN WOOD PRACTICE,RM3 0DR,51.595335,0.23272048
KINGS PARK SURGERY,RM3 0FE,51.593176,0.22568428
PELC HAVERING HW OOH,RM3 0FE,51.593176,0.22568428
CHOWDHURY,RM3 0PT,51.59237,0.23403325
INGREBOURNE MEDICAL CENTRE,RM3 7JJ,51.600305,0.21056731
PRASAD,RM3 7JJ,51.600305,0.21056731
PETERSFIELD SURGERY,RM3 9PD,51.605712,0.23278189
HAROLD HILL WEEKEND SERVICE OOH,RM3 9PD,51.605712,0.23278189
KUCCHAI,RM3 9SU,51.606239,0.22489343
CENTRAL PARK SURGERY,RM3 9SU,51.606239,0.22489343
ABBAMOOR SURGERY,RM3 9SU,51.606239,0.22489343
"THE ROBINS SURGERY, HAROLD HILL HEALTH C",RM3 9SU,51.606239,0.22489343
SAINT FRANCIS HOSPICE SCCS,RM4 1QH,51.617009,0.19694784
BAY TREE MEDICAL CENTRE,RM5 3BJ,51.589737,0.16921213
CHASE CROSS MEDICAL CENTRE,RM5 3PJ,51.600124,0.16478307
DR JOSEPH,RM5 3PR,51.599536,0.16452403
LYNWOOD MEDICAL CENTRE,RM5 3QL,51.601712,0.16403547
"BARKING, HAVERING AND REDBRIDGE BCSC",RM7 0AG,51.568622,0.17891397
PELC EUCC OOH,RM7 0AG,51.568622,0.17891397
MODERN MEDICAL CENTRE,RM7 0PX,51.565418,0.17760643
DR GUPTA,RM7 8BU,51.582923,0.16468707
QUEENS WALK MEDICAL CENTRE,HA4 0NT,51.562716,-0.39315483
ACREFIELD SURGERY,HA4 0QR,51.562207,-0.38230916
WOOD LANE MEDICAL CENTRE,HA4 6ER,51.571225,-0.425149
NORTHOLT MEDICAL CENTRE,HA4 6NG,51.558046,-0.40941856
DR MLR SIDDIQUI'S PRACTICE,HA4 6TA,51.552011,-0.39941698
KING EDWARDS MEDICAL CENTRE,HA4 7AE,51.574582,-0.42806348
SOUTHCOTE CLINIC,HA4 7LW,51.57713,-0.43367612
LADYGATE LANE MEDICAL PRACTICE,HA4 7QU,51.580512,-0.43644641
ST MARTINS MEDICAL CENTRE,HA4 8BE,51.577646,-0.42455183
OXFORD DRIVE MEDICAL CENTRE,HA4 9EY,51.567741,-0.39300656
CEDARS MEDICAL CENTRE,HA4 9LZ,51.570584,-0.40501284
THE DEVONSHIRE LODGE PRACTICE,HA5 1TG,51.579318,-0.39728879
THE ABBOTSBURY PRACTICE,HA5 1TG,51.579318,-0.39728879
METROHEALTH NETWORK LTD OOH,HA5 1TG,51.579318,-0.39728879
ACRE SURGERY,HA6 1TQ,51.604474,-0.41155126
CAREPOINT PRACTICE,HA6 1TQ,51.604474,-0.41155126
THE EVERGREEN PRACTICE,HA6 1TQ,51.604474,-0.41155126
BMI BISHOPSWOOD HOSPITAL,HA6 2JW,51.616461,-0.44650675
MOUNTWOOD SURGERY,HA6 2RG,51.61616,-0.44351263
INTERMEDIATE CARE,HA6 2RN,51.614923,-0.44582262
MICHAEL SOBELL HOSPICE,HA6 2RN,51.614923,-0.44582262
EASTBURY SURGERY,HA6 3BG,51.611636,-0.42389532
CNWL RAPID RESPONSE,UB10 8RE,51.56353,-0.44352128
WALLASEY MEDICAL CENTRE,UB10 8SA,51.566924,-0.45200476
ACORN MEDICAL CENTRE,UB10 9JN,51.542326,-0.45168587
THE OAKLAND MEDICAL CENTRE,UB10 9JX,51.546053,-0.4513142
HILLINGDON HEALTH CENTRE,UB10 9QF,51.551187,-0.44785132
SHAKESPEARE HEALTH CENTRE,UB3 1NY,51.498441,-0.43713856
KINGSWAY SURGERY,UB3 2PB,51.517565,-0.43700294
TOWNFIELD DOCTORS SURGERY,UB3 3DZ,51.515825,-0.41120672
KINCORA DOCTORS SURGERY,UB3 3HG,51.511666,-0.41220165
COMMUNITY DIABETES CLINIC,UB3 4DD,51.505917,-0.41933233
HESA MEDICAL CENTRE - Y00352,UB3 4DD,51.505917,-0.41933233
HAYES TOWN MEDICAL CENTRE,UB3 4DS,51.505633,-0.41960152
DR PR KANTHAN'S PRACTICE,UB3 4JE,51.49762,-0.426232
HAYES MEDICAL CENTRE,UB3 4NA,51.501083,-0.42297183
NORTH HYDE ROAD SURGERY,UB3 4NS,51.497858,-0.41384844
HEATHROW MEDICAL CENTRE,UB3 5AB,51.493029,-0.43392399
GLENDALE MEDICAL CENTRE,UB3 5DA,51.490438,-0.43450252
THE WARREN PRACTICE,UB4 0SF,51.519692,-0.40859301
CEDAR BROOK PRACTICE,UB4 8DD,51.534101,-0.4141318
THE PINE MEDICAL CENTRE,UB4 8RB,51.5276,-0.41682283
YEADING COURT SURGERY,UB4 9AJ,51.528299,-0.40007564
WILLOW TREE SURGERY,UB4 9NS,51.52535,-0.38638341
HEATHROW IRC,UB7 0FX,51.483953,-0.4843116
YIEWSLEY FAMILY PRACTICE,UB7 7DP,51.511908,-0.47243165
THE HIGH STREET PRACTICE,UB7 7DP,51.511908,-0.47243165
THE MEDICAL CENTRE,UB7 7PJ,51.50442,-0.47606809
OTTERFIELD MEDICAL CENTRE,UB7 8PE,51.514756,-0.47017459
WELLCARE HEALTH LTD OOH,UB7 8PE,51.514756,-0.47017459
THE CONFEDERATION HILLINGDON CIC,UB8 1HE,51.547651,-0.4779269
HILLINGDON CNWL PRESCRIBERS,UB8 1QG,51.544016,-0.47775976
BELMONT MEDICAL CENTRE,UB8 1SD,51.548264,-0.47803625
CENTRAL UXBRIDGE SURGERY,UB8 1UB,51.546229,-0.47573896
PARKVIEW SURGERY,UB8 3LA,51.526007,-0.44026013
CHURCH ROAD SURGERY,UB8 3NA,51.528172,-0.4749869
WEST LONDON MEDICAL CENTRE,UB8 3NG,51.525731,-0.45468505
EMERGENCY PALLIATIVE CARE OOH,UB8 3NN,51.525516,-0.46090535
URGENT CARE,UB8 3NN,51.525516,-0.46090535
HILLINGDON UCC,UB8 3NN,51.525516,-0.46090535
HILLINGDON CASH,UB8 3NN,51.525516,-0.46090535
BRUNEL MEDICAL CENTRE,UB8 3PH,51.532847,-0.47285546
HAREFIELD PRACTICE,UB9 6JY,51.608862,-0.47872577
ST DAVIDS PRACTICE,TW13 4GU,51.446367,-0.41108578
MANOR HOUSE PRACTICE,TW13 4GU,51.446367,-0.41108578
QUEENS PARK MEDICAL PRACTICE,TW13 4GU,51.446367,-0.41108578
THE PRACTICE FELTHAM,TW13 4GU,51.446367,-0.41108578
HMP FELTHAM YOI,TW13 4ND,51.441515,-0.43407506
CLIFFORD HOUSE MEDICAL CENTRE,TW13 5AD,51.447323,-0.40667778
LITTLE PARK SURGERY,TW13 5JG,51.442595,-0.38771891
MOUNT MEDICAL CENTRE,TW13 6AJ,51.440626,-0.38775946
GILL MEDICAL PRACTICE,TW14 0AB,51.451481,-0.40492114
CARLTON SURGERY,TW14 0AX,51.453338,-0.40459735
GREENBROOK BEDFONT,TW14 8AG,51.451684,-0.42932315
GROVE VILLAGE MEDICAL CENTRE,TW14 8SN,51.449161,-0.4309496
PENTELOW PRACTICE,TW14 9EF,51.45662,-0.41657364
HATTON MEDICAL PRACTICE,TW14 9PY,51.457879,-0.43328482
FIRSTCARE PRACTICE,TW3 1NL,51.471114,-0.36212139
KINGFISHER PRACTICE,TW3 2DY,51.461125,-0.35961437
REDWOOD PRACTICE,TW3 2DY,51.461125,-0.35961437
WILLOW PRACTICE,TW3 2DY,51.461125,-0.35961437
HOUNSLOW HEALTH PCN HUB,TW3 2DY,51.461125,-0.35961437
THE 303 BATH ROAD SURGERY,TW3 3DB,51.471934,-0.38230768
DIABETES INTERMEDIARY CARE CLINIC,TW3 3EL,51.468263,-0.37175461
JOINT PAEDIATRIC/CAMHS ADHD SERVICE,TW3 3EL,51.468263,-0.37175461
INTEGRATED COMMUNITY RESPONSE SERVICE,TW3 3EL,51.468263,-0.37175461
COMMUNITY DERMATOLOGY SERVICE,TW3 3EL,51.468263,-0.37175461
CHILD DEVELOPMENT TEAM HOUNSLOW,TW3 3EL,51.468263,-0.37175461
HOUNSLOW MEDICAL CENTRE,TW3 3ET,51.469395,-0.37683995
BATH ROAD SURGERY,TW3 3ET,51.469395,-0.37683995
BLUE WING FAMILY DOCTOR UNIT,TW3 3LN,51.468263,-0.37175461
CHESTNUT PRACTICE,TW3 3LN,51.468263,-0.37175461
GREEN PRACTICE,TW3 3LN,51.468263,-0.37175461
THE PRACTICE HEART OF HOUNSLOW,TW3 3LN,51.468263,-0.37175461
HIBERNIA HOUSE SURGERY,TW3 3RN,51.46516,-0.36974878
HOUNSLOW FAMILY PRACTICE,TW3 4JX,51.471773,-0.36682052
CAVALRY MEDICAL CENTRE,TW4 6HD,51.467339,-0.3894816
CLIFFORD ROAD SURGERY,TW4 7LR,51.470621,-0.39469337
GWR PCN HUB,TW4 7LR,51.470621,-0.39469337
GREENBROOK CHINCHILLA,TW4 7NN,51.471026,-0.39734284
SKYWAYS MEDICAL CENTRE,TW5 9BJ,51.477415,-0.39310123
DR SOOD'S PRACTICE,TW5 9ER,51.483967,-0.38238601
JERSEY PRACTICE,TW5 9ER,51.483967,-0.38238601
HMC HEALTH HESTON GREAT WEST,TW5 9ER,51.483967,-0.38238601
CRANFORD MEDICAL CENTRE,TW5 9RG,51.481887,-0.41242957
THORNBURY ROAD CENTRE FOR HEALTH,TW7 4HQ,51.474432,-0.34544323
SPRING GROVE MEDICAL PRACTICE,TW7 4HQ,51.474432,-0.34544323
HOUNSLOW DIABETES ICS,TW7 4JE,51.475913,-0.34016247
THE GROVE ISLEWORTH,TW7 4JE,51.475913,-0.34016247
URGENT CARE CENTRE HRCH,TW7 6AF,51.474078,-0.32618972
HOUNSLOW PERINATEL MH SERVICE,TW7 6AF,51.474078,-0.32618972
ISLEWORTH CENTRE FOR HEALTH,TW7 7DJ,51.468051,-0.32920338
ARGYLE HEALTH-ISLEWORTH PRACTICE,TW7 7DJ,51.468051,-0.32920338
ALBANY PRACTICE,TW8 8DS,51.48676,-0.31005452
BRENTFORD GROUP PRACTICE,TW8 8DS,51.48676,-0.31005452
GREENBROOK MANOR,TW8 8DS,51.48676,-0.31005452
BRENTFORD FAMILY PRACTICE,TW8 8DS,51.48676,-0.31005452
CARE UK SERVICES SOUTHALL OOH,UB2 5NH,51.497045,-0.40029138
CROSSLANDS SURGERY,UB2 5QY,51.491313,-0.37326712
NORTH HYDE MEDICAL PRACTICE,UB2 5TH,51.493683,-0.38791955
HOLLY ROAD MEDICAL CENTRE,W4 1NU,51.492787,-0.26037819
CHISWICK HEALTH PRACTICE,W4 1RX,51.493318,-0.25981056
WEST4 GPS,W4 1RX,51.493318,-0.25981056
CHISWICK FAMILY DRS PRACTICE,W4 1RX,51.493318,-0.25981056
CHISWICK PCN EXTENDED HOURS HUB,W4 1RX,51.493318,-0.25981056
GLEBE STREET SURGERY,W4 2BD,51.491386,-0.2568591
GROVE PARK SURGERY,W4 3ET,51.481587,-0.2649809
GROVE PARK TERRACE SURGERY,W4 3JL,51.484669,-0.27333277
WELLESLEY ROAD PRACTICE,W4 4BJ,51.490926,-0.27139662
DR SEGARAJASINGHE,EC1R 0JH,51.525191,-0.10960911
CLERKENWELL MEDICAL PRACTICE,EC1R 0LP,51.524864,-0.1088442
CITY ROADS-CRISIS INTERVENTION,EC1V 2PY,51.530731,-0.10237268
CITY ROAD MEDICAL CENTRE,EC1V 2QH,51.527895,-0.091115764
ISLINGTON PCCS,EC1V 2QH,51.527895,-0.091115764
ISLINGTON GP FEDERATION,EC1V 2QH,51.527895,-0.091115764
DR FLINDERS,N1 0AL,51.539341,-0.11937664
DR HAFFIZ,N1 0AL,51.539341,-0.11937664
RITCHIE STREET GROUP PRACTICE,N1 0DG,51.534685,-0.10775951
ANGEL MEDICAL PRACTICE,N1 0DG,51.534685,-0.10775951
ROMAN WAY MEDICAL CENTRE,N1 1SW,51.544461,-0.10565214
ISLINGTON CENTRAL MEDICAL CENTRE,N1 1SW,51.544461,-0.10565214
RIVER PLACE HEALTH CENTRE,N1 2DE,51.54101,-0.097431357
ELIZABETH AVENUE GROUP PRACTICE,N1 3BS,51.539023,-0.091904749
SOUTHGATE ROAD MEDICAL CENTRE,N1 3JS,51.540736,-0.085531213
THE MITCHISON ROAD SURGERY,N1 3NG,51.544992,-0.087357244
NEW NORTH HEALTH CENTRE,N1 7AA,51.537534,-0.091577694
ST PETER'S STREET MEDICAL PRACTICE,N1 8JG,51.535606,-0.10075686
KILLICK STREET HEALTH CENTRE,N1 9RH,51.534246,-0.11908197
ARCHWAY MEDICAL CENTRE,N19 3NU,51.562541,-0.12612395
ST JOHNS WAY MEDICAL CENTRE,N19 3RN,51.568031,-0.13091965
THE RISE GROUP PRACTICE,N19 3YU,51.571444,-0.12500749
THE BEAUMONT PRACTICE,N19 3YU,51.571444,-0.12500749
DR HUSSAIN,N19 4DL,51.563098,-0.12941949
TUFNELL PARK SURGERY,N19 5EW,51.557177,-0.13657243
THE JUNCTION MEDICAL PRACTICE,N19 5EW,51.557177,-0.13657243
WHITTINGTON HEALTH (HARINGEY),N19 5NF,51.566681,-0.13817508
WHITTINGTON HEALTH (ISLINGTON),N19 5NF,51.566681,-0.13817508
HANLEY PRIMARY CARE CENTRE,N4 3DU,51.567881,-0.12094071
MEDEFER LTD,N4 3JH,51.565235,-0.10903085
STROUD GREEN MEDICAL CENTRE,N4 3PZ,51.570059,-0.1143141
THE 157 MEDICAL PRACTICE,N4 3PZ,51.570059,-0.1143141
THE 157 MEDICAL PRACTICE (NUBI),N4 3PZ,51.570059,-0.1143141
THE MILLER PRACTICE,N5 2ET,51.551419,-0.092164998
HIGHBURY GRANGE MEDICAL PRACTICE,N5 2QB,51.555095,-0.095343454
HMP HOLLOWAY,N7 0NU,51.553851,-0.12423082
PARTNERSHIP PRIMARY CARE CENTRE,N7 0SL,51.554717,-0.12099283
COMMUNITY DERMATOLOGY SERVICE,N7 0SL,51.554717,-0.12099283
COMMUNITY DIABETES SERVICE,N7 0SL,51.554717,-0.12099283
THE NORTHERN MEDICAL CENTRE,N7 6LB,51.560973,-0.12363482
SOBELL MEDICAL CENTRE,N7 6NE,51.553884,-0.11333868
THE VILLAGE PRACTICE,N7 7JJ,51.559756,-0.10997948
THE ISIS PROJECT,N7 7QP,51.560643,-0.11481905
ISLINGTON PRIMARY CARE SERVICE,N7 7QP,51.560643,-0.11481905
ANDOVER MEDICAL CENTRE,N7 7QZ,51.561766,-0.1164606
THE MEDICAL CENTRE,N7 8DD,51.550945,-0.10956577
DR WOOLF,N7 8JG,51.549635,-0.10803351
DRS BOWRY & BOWRY'S PRACTICE,N7 8LT,51.548077,-0.10677122
HMP PENTONVILLE,N7 8TT,51.544221,-0.1169833
THE GOODINGE GROUP PRACTICE,N7 9EW,51.54825,-0.12544198
DR HANS,NW5 1HL,51.557917,-0.13899463
AMWELL GROUP PRACTICE,WC1X 0GB,51.527973,-0.11087792
THE GOOD PRACTICE,SW10 0LR,51.48266,-0.17797947
KINGS ROAD MEDICAL CENTRE,SW10 0UD,51.480364,-0.18475331
THE REDCLIFFE SURGERY,SW10 9DT,51.486263,-0.18884006
KNIGHTSBRIDGE MEDICAL CENTRE,SW1X 0ET,51.498142,-0.159915
KNIGHTSBRIDGE MEDICAL CENTRE WIC,SW1X 0ET,51.498142,-0.159915
DR ROSE'S PRACTICE,SW3 3JD,51.490931,-0.16346085
ROYAL HOSPITAL CHELSEA,SW3 4SR,51.486879,-0.15911531
THE CHELSEA PRACTICE,SW3 5RR,51.486813,-0.16693916
THE SURGERY,SW3 6PX,51.490403,-0.17111659
BROMPTON MEDICAL CENTRE,SW5 0EA,51.489425,-0.18980948
"HEALTH AND WELLBEING CENTRE, EARLS COURT",SW5 0PT,51.492822,-0.19252725
HWB CENTRE EARLS COURT WIC,SW5 0PT,51.492822,-0.19252725
EARLS COURT MEDICAL CENTRE,SW5 9AD,51.491747,-0.19281464
EARLS COURT MED CENTRE (WALK-IN-SERVICE),SW5 9AD,51.491747,-0.19281464
EARLS COURT SURGERY,SW5 9JA,51.488694,-0.19197026
THE SURGERY,SW5 9JZ,51.488828,-0.19539318
THE SURGERY,SW7 2SU,51.49434,-0.17326402
EMPEROR'S GATE CENTRE FOR HEALTH,SW7 4HJ,51.496312,-0.18620875
ROSARY GARDEN SURGERY,SW7 4NQ,51.4921,-0.18304832
THE SURGERY,SW7 4QS,51.497626,-0.1845142
STANHOPE MEWS SURGERY,SW7 5RB,51.494062,-0.1820195
KENSINGTON AND CHELSEA DAWS,W10 5AW,51.524803,-0.21096723
MEANWHILE GARDEN MEDICAL CENTRE,W10 5NT,51.522235,-0.2029956
THE GOLBORNE MEDICAL CENTRE,W10 5PE,51.524021,-0.20631288
THE GOLBORNE MEDICAL CENTRE,W10 5PG,51.524011,-0.20678901
BARLBY SURGERY,W10 6DZ,51.522437,-0.21741688
THE EXMOOR SURGERY,W10 6DZ,51.522437,-0.21741688
LCW EALING CCG OOH,W10 6DZ,51.522437,-0.21741688
ST CHARLES UCC PRACTICE,W10 6DZ,51.522437,-0.21741688
ST CHARLES UCC CENTRE WIC,W10 6DZ,51.522437,-0.21741688
BARLBY SURGERY (WALK IN SERVICE),W10 6DZ,51.522437,-0.21741688
LCW CLCCG OOH,W10 6DZ,51.522437,-0.21741688
LCW HOUNSLOW CCG OOH,W10 6DZ,51.522437,-0.21741688
LCW HAM+FUL CCG OOH,W10 6DZ,51.522437,-0.21741688
LCW WLCCG OOH,W10 6DZ,51.522437,-0.21741688
CIS THREE BOROUGHS,W10 6DZ,51.522437,-0.21741688
WLCCG EXTENDED HOURS HUBS,W10 6DZ,51.522437,-0.21741688
LCWUCC - IUC NCL,W10 6DZ,51.522437,-0.21741688
COMMUNITY PALLIATIVE CARE TEAM - CLCH,W10 6DZ,51.522437,-0.21741688
THE SURGERY,W10 6HS,51.51774,-0.21367984
NORTH KENSINGTON MEDICAL CENTRE,W10 6NX,51.519208,-0.22032482
ST. QUINTIN HEALTH CENTRE,W10 6NX,51.519208,-0.22032482
COLVILLE HEALTH CENTRE,W11 1PA,51.515811,-0.20627512
THE COLVILLE HEALTH CENTRE,W11 1PA,51.515811,-0.20627512
COLVILLE HEALTH CENTRE (WALK-IN-SERVICE),W11 1PA,51.515811,-0.20627512
THE PRACTICE BEACON,W11 1QT,51.51637,-0.2111247
THE NOTTING HILL MEDICAL CENTRE,W11 2EH,51.514853,-0.20719188
PORTOBELLO MEDICAL CENTRE,W11 2EH,51.514853,-0.20719188
WESTBOURNE GROVE MEDICAL CENTRE,W11 2SE,51.514218,-0.20037101
THE PEMBRIDGE VILLAS SURGERY,W11 3EP,51.51299,-0.19706147
THE SURGERY,W11 4EG,51.511861,-0.21500508
THE FORELAND MEDICAL CENTRE,W11 4ES,51.512527,-0.21268759
PORTLAND ROAD PRACTICE,W11 4LA,51.507375,-0.2080186
THE SURGERY,W11 4NH,51.509597,-0.21101532
KENSINGTON PARK MEDICAL CENTRE,W14 8HW,51.497403,-0.20862585
SCARSDALE MEDICAL CENTRE,W8 5SX,51.499465,-0.19181779
THE ABINGDON HEALTH CENTRE,W8 6EG,51.496085,-0.19712351
THE SURGERY,W8 6PR,51.497802,-0.19358366
RAPID RESPONSE TEAM,W8 7NX,51.501964,-0.1946726
COMMUNITY INDEPENDENCE SERVICE-WEST LDN,W8 7NX,51.501964,-0.1946726
KENSINGTON PLACE SURGERY,W8 7PT,51.507774,-0.1964604
HOLLAND PARK SURGERY,W8 7RX,51.501457,-0.1944621
BRACKENDALE SURGERY,KT1 3RL,51.411772,-0.28098399
KINGSTON HEALTH CENTRE,KT2 5AD,51.414188,-0.30489453
KINGSTON PRIMARY CARE EXTENDED SERVICE,KT2 5AD,51.414188,-0.30489453
ST ALBANS MEDICAL CENTRE,KT2 5HF,51.42195,-0.30247871
TUDOR DRIVE SURGERY,KT2 5QH,51.425944,-0.29640438
CANBURY MEDICAL CENTRE,KT2 6HR,51.414338,-0.29719539
CHURCHILL MEDICAL CENTRE,KT2 6PG,51.413389,-0.2882573
SELDOC HEALTHCARE,KT2 7AZ,51.412661,-0.28333775
WANDSWORTH CCG SLDUC OOH,KT2 7AZ,51.412661,-0.28333775
MERTON CCG SLDUC OOH,KT2 7AZ,51.412661,-0.28333775
KINGSTON CCG SLDUC OOH,KT2 7AZ,51.412661,-0.28333775
SWL CCG SELDOC COVID CAS,KT2 7AZ,51.412661,-0.28333775
FAIRHILL MEDICAL PRACTICE,KT2 7PX,51.41706,-0.28285656
KINGSTON HEALTH ON CALL OOH,KT2 7QB,51.414285,-0.28308997
KHOC PRIMARY CARE SERVICES,KT2 7QB,51.414285,-0.28308997
THE GROVES MEDICAL CENTRE,KT3 3TX,51.410029,-0.26219808
NEW MALDEN HEALTH CENTRE,KT3 4AD,51.400479,-0.25492623
VILLAGE SURGERY,KT3 4BH,51.399614,-0.25600861
ROSELAWN,KT3 6AA,51.397181,-0.25571299
HOLMWOOD CORNER SURGERY,KT3 6DR,51.397557,-0.25495119
MANOR DRIVE MEDICAL CENTRE,KT4 7LG,51.380716,-0.24847853
YOUR HEALTHCARE COMM. PRACT,KT5 9AL,51.386524,-0.29286728
YOUR HEALTHCARE NON MED PRES,KT5 9AL,51.386524,-0.29286728
KINGSTON ADULT ADHD SERVICE,KT5 9AL,51.386524,-0.29286728
KINGSTON LEARNING DISABILITY,KT5 9AL,51.386524,-0.29286728
SUNRAY SURGERY,KT5 9QD,51.382674,-0.2749753
MAYPOLE SURGERY,KT6 5BH,51.380604,-0.30193949
CLAREMONT MEDICAL CENTRE,KT6 6BS,51.390808,-0.30613244
BRUNSWICK SURGERY,KT6 6EZ,51.39108,-0.30011433
CENTRAL SURGERY,KT6 6EZ,51.39108,-0.30011433
BERRYLANDS SURGERY,KT6 6EZ,51.39108,-0.30011433
LANGLEY MEDICAL PRACTICE,KT6 6EZ,51.39108,-0.30011433
KINGSTON DEMENTIA SUPPORT SERVICE,KT6 6EZ,51.39108,-0.30011433
GP LED DERMATOLOGY SERVICE,KT6 6EZ,51.39108,-0.30011433
GP LED ORTHOPAEDIC SERVICE,KT6 6EZ,51.39108,-0.30011433
KINGSDOWNE SURGERY,KT6 6LA,51.385239,-0.29601934
RED LION ROAD SURGERY,KT6 7QG,51.38161,-0.29016165
THE ORCHARD PRACTICE,KT9 1AG,51.369116,-0.30354251
GRAY'S MEDICAL CENTRE,KT9 1AG,51.369116,-0.30354251
GOSBURY HILL GP CLINIC,KT9 1AG,51.369116,-0.30354251
HOOK SURGERY,KT9 2GY,51.359178,-0.31212552
CHESSINGTON PARK SURGERY,KT9 2GY,51.359178,-0.31212552
HOSPITAL@HOME,SE1 7EH,51.497908,-0.1196707
BAIRD MEDICAL CENTRE,SE1 7EH,51.497908,-0.1196707
CYPHP,SE1 7EU,51.499939,-0.11623007
A&E HUB,SE1 7NJ,51.503286,-0.11521311
CCG PHARMACIST PRESCRIBERS,SE1 7NT,51.500077,-0.11360216
WATERLOO HEALTH CENTRE,SE1 7RJ,51.500509,-0.11312322
A&E DIVERSION SCHEME (WATERLOO HC) WIC,SE1 7RJ,51.500509,-0.11312322
LAS S.E. LONDON IUC CAS,SE1 8SD,51.500174,-0.10903082
HURLEY AND RIVERSIDE PRACTICES,SE11 4HJ,51.490773,-0.10715823
SASHC,SE11 4HJ,51.490773,-0.10715823
GP HEALTH SERVICE,SE11 4HJ,51.490773,-0.10715823
COMMUNITY PAEDIATRICIANS-LAMBETH,SE11 4TH,51.492315,-0.10514965
DR IRANI,SE11 5DN,51.48716,-0.11337192
THE VAUXHALL SURGERY,SE11 5NH,51.489893,-0.11894895
LAMBETH WALK GROUP PRACTICE,SE11 6SP,51.495812,-0.11180452
A&E DIVERSION SCHEME (LAMBETH WALK) WIC,SE11 6SP,51.495812,-0.11180452
NORTH WOOD GROUP PRACTICE,SE19 3NY,51.42273,-0.098492917
DIABETES INTERMEDIATE CARE TEAM,SE19 3NY,51.42273,-0.098492917
THE OLD DAIRY HEALTH CENTRE,SE21 8SZ,51.436403,-0.091033331
HERNE HILL ROAD MEDICAL PRACTICE,SE24 0AU,51.465333,-0.10104147
BROCKWELL PARK SURGERY,SE24 9AE,51.448945,-0.1013761
HERNE HILL GROUP PRACTICE,SE24 9QP,51.455628,-0.099256383
KNIGHTS HILL SURGERY SUITE 1,SE27 0DF,51.431903,-0.1063411
THE DEERBROOK SURGERY,SE27 9AW,51.437852,-0.10603755
AT HOME SERVICE,SE27 9AW,51.437852,-0.10603755
COMMUNITY HEART FAILURE TEAM,SE27 9AW,51.437852,-0.10603755
NORWOOD SURGERY,SE27 9DJ,51.43594,-0.10403041
THE CORNER SURGERY,SE5 9NS,51.469672,-0.095749909
KINGS BCSC,SE5 9RS,51.468357,-0.092305953
DR. GUNASUNTHARAM SURGERY,SW16 1QB,51.430707,-0.13267391
DR. MASTERTON'S SURGERY,SW16 1XU,51.430468,-0.13009418
ELDERLY CARE CONSULTANT CLINIC,SW16 2DQ,51.42559,-0.12758904
THE STREATHAM HILL GROUP PRACTICE,SW16 2PG,51.437281,-0.12650669
CN HIV THREE BOROUGHS TEAM,SW16 2PG,51.437281,-0.12650669
STREATHAM HIGH PRACTICE,SW16 2ST,51.432463,-0.12660312
THE EXCHANGE SURGERY,SW16 2ST,51.432463,-0.12660312
COMMUNITY CARDIOLOGY SERVICE,SW16 2ST,51.432463,-0.12660312
SOUTH WEST HUB 1,SW16 2ST,51.432463,-0.12660312
EQUITABLE ACCESS,SW16 2ST,51.432463,-0.12660312
INTERGRATED CARE PHARMACIST,SW16 2ST,51.432463,-0.12660312
VALLEY ROAD SURGERY,SW16 2XT,51.428616,-0.11942391
BALDRY GARDENS FAMILY PRACTICE,SW16 3NP,51.418467,-0.12698844
STREATHAM COMMON GROUP PRACTICE,SW16 5LS,51.416371,-0.12862732
THE VALE SURGERY,SW16 5SE,51.417246,-0.13665981
BRIXTON HILL GROUP PRACTICE,SW2 1AE,51.452344,-0.12033445
WATER LANE SURGERY,SW2 1QE,51.455086,-0.1124492
THE TULSE HILL PRACTICE,SW2 3DX,51.440948,-0.10841322
PALACE ROAD SURGERY,SW2 3DY,51.443797,-0.12062788
STREATHAM PLACE SURGERY,SW2 4QY,51.446916,-0.12785369
EDITH CAVELL PRACTICE,SW2 4TP,51.441223,-0.12441723
SASECP,SW2 4TP,51.441223,-0.12441723
HMP BRIXTON,SW2 5XF,51.451965,-0.12471105
GRAFTON SQUARE SURGERY,SW4 0DE,51.464314,-0.13955161
TRINITY HOSPICE,SW4 0RN,51.461928,-0.14615558
DR SHEILA SANTAMARIA,SW4 6EB,51.465148,-0.13603363
DR CURRAN & PARTNERS,SW4 6EB,51.465148,-0.13603363
BINFIELD ROAD SURGERY,SW4 6TB,51.47447,-0.12563141
CLAPHAM FAMILY PRACTICE,SW4 7DB,51.463214,-0.1336795
SASCFP,SW4 7DB,51.463214,-0.1336795
HETHERINGTON GROUP PRACTICE,SW4 7NU,51.460934,-0.1283022
THREE BOROUGHS PRIMARY CARE,SW4 7NU,51.460934,-0.1283022
SANDMERE PRACTICE,SW4 7QJ,51.462594,-0.12754325
SPMS CLAPHAM,SW4 7TL,51.463603,-0.13216638
CLAPHAM PARK GROUP PRACTICE,SW4 8JP,51.451908,-0.13523446
THE COURTYARD SURGERY,SW4 8NU,51.450731,-0.14213314
THE SOUTH LAMBETH RD PRACTICE,SW8 1UL,51.47657,-0.12367326
NORTH HUB,SW8 1UL,51.47657,-0.12367326
NHS PRACTITIONER HEALTH PROGRAMME,SW8 2JB,51.485149,-0.12653301
RIVERSIDE MEDICAL PRACTICE,SW8 2JW,51.485534,-0.12586908
LONDON SHA PHP,SW8 2JW,51.485534,-0.12586908
HT THREE BOROUGHS TEAM,SW8 2JW,51.485534,-0.12586908
SPRINGFIELD MEDICAL CENTRE,SW8 2SH,51.470721,-0.13304197
REPRODUCTIVE & SEXUAL HEALTH DEPARTMENT,SW8 2UD,51.479283,-0.12523245
MAWBEY GROUP PRACTICE,SW8 2UD,51.479283,-0.12523245
REPRODUCTIVE AND SEXUAL HEALTH SERVICES,SW8 2UD,51.479283,-0.12523245
QUEENSTOWN ROAD MEDICAL PRACTICE,SW8 3RX,51.466848,-0.15023219
MYATTS FIELD MED PRACTICE,SW9 6AF,51.475533,-0.10506756
MINET GREEN HEALTH PRACTICE,SW9 6AF,51.475533,-0.10506756
AKERMAN MEDICAL PRACTICE,SW9 6AF,51.475533,-0.10506756
VASSALL MEDICAL CENTRE,SW9 6NA,51.477639,-0.10850849
SOUTH EAST HUB 1,SW9 6NA,51.477639,-0.10850849
PHYSIOTHERAPY,SW9 8AE,51.463981,-0.12149752
HETHERINGTON AT THE PAVILION,SW9 8DJ,51.461516,-0.11637308
SOUTH WEST HUB 2,SW9 8DJ,51.461516,-0.11637308
BECKETT HOUSE PRACTICE,SW9 9DL,51.469581,-0.12357125
DR WICKREMESINGHE SSG,SW9 9DL,51.469581,-0.12357125
STOCKWELL GROUP PRACTICE,SW9 9TJ,51.468019,-0.11757386
DOWNHAM FAMILY MEDICAL PRACTICE,BR1 5EP,51.426793,0.009908358
MOORSIDE CLINIC,BR1 5EP,51.426793,0.009908358
ICO HEALTH GROUP,BR1 5EP,51.426793,0.009908358
SEL SPECIAL ALLOCATION PRACTICE,BR1 5EP,51.426793,0.009908358
OAKVIEW FAMILY PRACTICE,BR1 5NJ,51.429828,0.00702049
WINLATON SURGERY,BR1 5QA,51.42718,-0.002187008
BRYMORE HOUSE,SE12 0BE,51.43591,0.019977226
BARING ROAD MEDICAL CENTRE,SE12 0DS,51.435023,0.019736705
BURNT ASH SURGERY,SE12 8NP,51.452782,0.009912613
NIGHTINGALE SURGERY,SE12 8NP,51.452782,0.009912613
LPCT PRIMARY CARE SERVICE,SE12 8RN,51.455973,0.012096769
BELMONT HILL SURGERY,SE13 5AY,51.462653,-0.004640303
LEWISHAM MEDICAL CENTRE,SE13 5PJ,51.458425,0.004416881
TRIANGLE GROUP PRACTICE,SE13 6DQ,51.457798,-0.011070595
LEW GP EXTENDED ACCESS SERVICE,SE13 6LH,51.45433,-0.017050825
SOUTH EAST LONDON BCSC,SE13 6LH,51.45433,-0.017050825
ACUTE MEDICINE DIR.,SE13 6LH,51.45433,-0.017050825
CHILDREN & YP DIR.,SE13 6LH,51.45433,-0.017050825
SPECIALIST MEDICINE DIR.,SE13 6LH,51.45433,-0.017050825
SURGERY DIR.,SE13 6LH,51.45433,-0.017050825
LEWISHAM PCT LOCUM,SE13 6LL,51.451686,-0.017582784
LEWISHAM DAT,SE13 6LZ,51.459812,-0.01212
MORTON HOUSE,SE13 6QZ,51.452019,-0.012861825
WOODLANDS HEALTH CENTRE,SE13 6RN,51.449867,-0.005816686
MORDEN HILL SURGERY,SE13 7NN,51.469149,-0.012232809
ST JOHNS MEDICAL CENTRE,SE13 7SX,51.467393,-0.022200417
THE LEWISHAM COMMUNITY DIABETES TEAM,SE13 7SX,51.467393,-0.022200417
THE QRP SURGERY,SE14 5HD,51.474264,-0.04743433
SOUTHWARK RESTART,SE14 6BL,51.476724,-0.039668093
NEW CROSS HEALTH CENTRE,SE14 6BL,51.476724,-0.039668093
NEW CROSS CENTRE (HURLEY GROUP),SE14 6LD,51.476288,-0.031910464
AMERSHAM VALE TRAINING PRACTICE,SE14 6LD,51.476288,-0.031910464
MORNINGTON SURGERY,SE14 6TD,51.475889,-0.030645995
DEPTFORD MEDICAL CENTRE,SE14 6TG,51.474535,-0.027089936
DEPTFORD SURGERY,SE14 6TJ,51.474885,-0.027046035
THE JENNER PRACTICE,SE23 1HU,51.442394,-0.040965903
VALE MEDICAL CENTRE,SE23 2JF,51.435406,-0.044156818
WOOLSTONE MEDICAL CENTRE,SE23 2SG,51.438421,-0.036776145
SYDENHAM GREEN GROUP PRACTICE,SE26 4TH,51.429181,-0.039215013
SYDENHAM SURGERY,SE26 5QW,51.426232,-0.05384112
WELLS PARK PRACTICE,SE26 6JQ,51.430508,-0.063326898
LEE ROAD SURGERY,SE3 9RT,51.462503,0.009418334
BMI-THE BLACKHEALTH HOSPITAL,SE3 9UD,51.463474,0.006264952
HILLY FIELDS MEDICAL CENTRE,SE4 1JN,51.456803,-0.024011302
HONOR OAK GROUP PRACTICE,SE4 2LA,51.458097,-0.041114066
VESTA ROAD SURGERY,SE4 2NH,51.468737,-0.040643991
THE BROCKLEY ROAD SURGERY,SE4 2PJ,51.452906,-0.038270553
PARKVIEW SURGERY,SE6 1AT,51.444864,-0.007732782
MUIRKIRK SURGERY,SE6 1BQ,51.440455,-0.009176529
BOUNDFIELD SURGERY,SE6 1PG,51.435047,0.003695477
TORRIDON ROAD MEDICAL PRACTICE,SE6 1RB,51.44011,-0.002112026
SOUTH LEWISHAM GROUP PRACTICE,SE6 2SP,51.430388,-0.013196324
BELLINGHAM GREEN SURGERY,SE6 3JB,51.430378,-0.024259747
KALEIDOSCOPE,SE6 4JF,51.450012,-0.017511369
SPECIAL ALLOCATION SCHEME (NEL),SE6 4JH,51.449319,-0.018045087
NOVUM HEALTH PARTNERSHIP,SE6 4JH,51.449319,-0.018045087
GROVE MEDICAL CENTRE,SE8 3QH,51.490256,-0.035227153
CLIFTON RISE FAMILY PRACTICE,SE8 4BG,51.476307,-0.031405647
DR BK BATRA'S PRACTICE,SE8 4BG,51.476307,-0.031405647
LEWISHAM SEXUAL HEALTH,SE8 4BG,51.476307,-0.031405647
LEWISHAM GP LED HEALTH CENTRE,SE8 4BG,51.476307,-0.031405647
WALDRON - HURLEY UNREGISTERED PRACT WIC,SE8 4BG,51.476307,-0.031405647
KINGFISHER MEDICAL CENTRE,SE8 5DA,51.481876,-0.030503308
EAST HUB MERTON CCG GP ACCESS HUB,CR4 1BP,51.401824,-0.1344544
WIDE WAY MEDICAL CENTRE,CR4 1BP,51.401824,-0.1344544
TAMWORTH HOUSE MEDICAL CENTRE.,CR4 1DL,51.40122,-0.14625355
WDP MERTON,CR4 2PF,51.405023,-0.16274943
CRICKET GREEN MEDICAL PRACTICE,CR4 3DA,51.404596,-0.17395247
CRICKET GREEN ANTICOAGULATION SERVICE,CR4 3DA,51.404596,-0.17395247
EAST MERTON ACCESS HUB,CR4 3DA,51.404596,-0.17395247
MITCHAM FAMILY PRACTICE,CR4 3HS,51.410109,-0.16711824
FIGGES MARSH SURGERY,CR4 3LD,51.410694,-0.16199004
THE MITCHAM MEDICAL CENTRE.,CR4 3PR,51.407342,-0.18167943
IPCC OPTHALMOLOGY SERVICE,CR4 3YU,51.401943,-0.171096
RAVENSBURY PARK MEDICAL CENTRE,CR4 4DQ,51.398658,-0.1784442
FAMILY PLANNING SERVICES,CR4 4TP,51.397252,-0.16326205
OPARS (SUTTON),CR4 4TP,51.397252,-0.16326205
GPSI DERM CLINIC (SUTTON),CR4 4TP,51.397252,-0.16326205
GP LED HEALTH CENTRE,CR4 4TP,51.397252,-0.16326205
OPARS (MERTON),CR4 4TP,51.397252,-0.16326205
GPSI DERM CLINIC (MERTON),CR4 4TP,51.397252,-0.16326205
WEST BARNES SURGERY,KT3 6JD,51.397642,-0.23367223
MERIT URGENT,SM4 5DX,51.401405,-0.19613349
CENTRAL MEDICAL CENTRE,SM4 5RT,51.398227,-0.18892687
FACCINI HOUSE SURGERY,SM4 6RS,51.389682,-0.18937927
ROWANS SURGERY,SW16 5HF,51.410001,-0.13853613
THE MERTON MEDICAL PRACTICE,SW19 1DG,51.415926,-0.18549503
WIMBLEDON MEDICAL PRACTICE,SW19 1NX,51.417559,-0.19866163
CLCH SEXUAL HEALTH - MERTON,SW19 1NX,51.417559,-0.19866163
RIVERHOUSE MEDICAL PRACTICE,SW19 1YG,51.420823,-0.18350324
COLLIERS WOOD SURGERY,SW19 2BY,51.420697,-0.17595726
SUTTON OOH,SW19 3DA,51.404552,-0.1920414
MORDEN RD CLINIC OOH,SW19 3DA,51.404552,-0.1920414
MORDEN HALL MEDICAL CENTRE,SW19 3DA,51.404552,-0.1920414
CLCH DIABETES - MERTON,SW19 3DA,51.404552,-0.1920414
FRANCIS GROVE SURGERY,SW19 4DL,51.419859,-0.20911357
WIMBLEDON VILLAGE PRACTICE,SW19 5BY,51.425232,-0.219404
MERTON REHAB BEDS,SW19 5NJ,51.437407,-0.22413902
THE VINEYARD HILL ROAD SURGERY,SW19 7JL,51.43194,-0.20111718
ALEXANDRA SURGERY,SW19 7JZ,51.422912,-0.2058874
LAMBTON ROAD MEDICAL PRACTICE,SW20 0LW,51.411419,-0.23128635
THE NELSON MEDICAL PRACTICE,SW20 8DA,51.409894,-0.21138666
WEST HUB MERTON CCG GP ACCESS HUB,SW20 8DA,51.409894,-0.21138666
CLCH HARI - MERTON,SW20 8DA,51.409894,-0.21138666
GASTROENTEROLOGY,SW20 8DA,51.409894,-0.21138666
COLORECTAL SURGERY,SW20 8DA,51.409894,-0.21138666
UROLOGY,SW20 8DA,51.409894,-0.21138666
CARDIOLOGY,SW20 8DA,51.409894,-0.21138666
ENDOCRINOLOGY,SW20 8DA,51.409894,-0.21138666
TRAUMA AND ORTHOPAEDICS,SW20 8DA,51.409894,-0.21138666
DERMATOLOGY,SW20 8DA,51.409894,-0.21138666
RHEUMATOLOGY,SW20 8DA,51.409894,-0.21138666
RESPIRATORY MEDICINE,SW20 8DA,51.409894,-0.21138666
GENERAL SURGERY,SW20 8DA,51.409894,-0.21138666
GENERAL MEDICINE,SW20 8DA,51.409894,-0.21138666
GYNAECOLOGY,SW20 8DA,51.409894,-0.21138666
GENERAL MEDICINE-MERTON CCG,SW20 8DA,51.409894,-0.21138666
GYNAECOLOGY-MERTON CCG,SW20 8DA,51.409894,-0.21138666
GENERAL SURGERY-MERTON CCG,SW20 8DA,51.409894,-0.21138666
RESPIRATORY MEDICINE-MERTON CCG,SW20 8DA,51.409894,-0.21138666
RHEUMATOLOGY-MERTON CCG,SW20 8DA,51.409894,-0.21138666
DERMATOLOGY-MERTON CCG,SW20 8DA,51.409894,-0.21138666
TRAUMA AND ORTHOPAEDICS-MERTON CCG,SW20 8DA,51.409894,-0.21138666
ENDOCRINOLOGY-MERTON CCG,SW20 8DA,51.409894,-0.21138666
CARDIOLOGY-MERTON CCG,SW20 8DA,51.409894,-0.21138666
UROLOGY-MERTON CCG,SW20 8DA,51.409894,-0.21138666
COLORECTAL SURGERY-MERTON CCG,SW20 8DA,51.409894,-0.21138666
GASTROENTEROLOGY-MERTON CCG,SW20 8DA,51.409894,-0.21138666
WEST MERTON ACCESS HUB,SW20 8DA,51.409894,-0.21138666
OPHTHALMOLOGY (MOOREFIELDS) - MERTON CCG,SW20 8DA,51.409894,-0.21138666
OPHTHALMOLOGY (MOOREFIELDS),SW20 8DA,51.409894,-0.21138666
PEPYS ROAD SURGERY,SW20 8PF,51.412313,-0.22797318
CANNON HILL LANE MEDICAL PRACTICE,SW20 9DA,51.40295,-0.21480619
GRAND DRIVE SURGERY,SW20 9EA,51.402155,-0.2288115
MANOR PARK MEDICAL CENTRE,E12 5AJ,51.55184,0.051275117
THE MANOR PARK PRACTICE,E12 5JG,51.553903,0.057253424
RODING PRACTICE,E12 5JR,51.554856,0.059301594
E12 HEALTH,E12 6AQ,51.547707,0.053151713
PSU CHURCH ROAD,E12 6AQ,51.547707,0.053151713
NEWHAM TRANSITIONAL PRACTICE,E12 6AQ,51.547707,0.053151713
SANGAM PRACTICE,E12 6BE,51.549395,0.04864096
THE SURGERY - DR A ARSHAD,E12 6NR,51.541478,0.052957865
E12 MEDICAL CENTRE,E12 6SJ,51.541146,0.0503471
THE GRAHAM PRACTICE,E12 6SU,51.541525,0.04872011
ESSEX LODGE,E13 0AS,51.527907,0.026656164
UPPER ROAD MEDICAL CENTRE,E13 0DH,51.52968,0.018776403
THE PROJECT SURGERY,E13 0LN,51.532264,0.020635385
PRIME MEDICAL CENTRE,E13 0LY,51.535984,0.02238628
EAST END MEDICAL CENTRE,E13 0QA,51.537353,0.025388644
LUCAS AVENUE PRACTICE,E13 0QP,51.536262,0.030761987
PLASHET ROAD MEDICAL CENTRE,E13 0QT,51.537464,0.033036159
BALAAM STREET PRACTICE,E13 8AF,51.526716,0.023777605
ESK ROAD MEDICAL CENTRE,E13 8LJ,51.522472,0.024252544
CUMBERLAND MEDICAL CENTRE,E13 8LS,51.519707,0.026032652
GREENGATE MEDICAL CENTRE,E13 8PS,51.525193,0.027588027
GENERAL SURGERY SERVICES,E13 8PS,51.525193,0.027588027
GREENGATE MINOR SURGERY,E13 8PS,51.525193,0.027588027
GLEN ROAD MEDICAL CENTRE,E13 8RU,51.522239,0.032530947
NEWHAM NHS URGENT CARE CENTRE,E13 8SH,51.523008,0.035390609
NEWHAM GP CO-OP OOH,E13 8SL,51.523008,0.035390609
NEWHAM PRIMARY CARE EXTENDED ACCESS,E13 8SL,51.523008,0.035390609
NEWHAM MEDICAL CENTRE,E13 9DA,51.531447,0.037208861
SCHOOL COMMUNITY CLINICS,E13 9EH,51.529974,0.032428534
STRATFORD HEALTH CENTRE,E15 1EN,51.54465,0.004728295
STRATFORD MEDICAL CENTRE,E15 1SQ,51.54918,0.005432233
CARPENTERS PRACTICE,E15 2JA,51.537344,-0.003437239
WEST HAM MEDICAL PRACTICE,E15 3DJ,51.530606,0.007211067
ABBEY ROAD MEDICAL PRACTICE,E15 3LT,51.534783,0.005924057
COMMUNITY CARDIOLOGY CLINIC,E15 3LT,51.534783,0.005924057
STRATFORD VILLAGE SURGERY,E15 4BZ,51.542105,0.006361393
GYNAECOLOGY SERVICES,E15 4BZ,51.542105,0.006361393
PATIENT FIRST SOCIAL ENTERPRISE,E15 4BZ,51.542105,0.006361393
OPHTHAMOLOGY SERVICES,E15 4BZ,51.542105,0.006361393
DR SAMUEL AND DR KHAN,E15 4ES,51.541412,0.010051602
DMC HEALTHCARE 1,E15 4ES,51.541412,0.010051602
DR PCL KNIGHT,E15 4ES,51.541412,0.010051602
VICARAGE LANE TRANSITIONAL TEAM,E15 4ES,51.541412,0.010051602
DMC VICARAGE LANE,E15 4ES,51.541412,0.010051602
VICARAGE LANE PRACTICE,E15 4ES,51.541412,0.010051602
NEWHAM PCN,E15 4ES,51.541412,0.010051602
RAPID PRESCRIBING CLINIC,E15 4ES,51.541412,0.010051602
DMC MINOR SURGERY CLINIC,E15 4ES,51.541412,0.010051602
WEST HAM LANE CLINIC,E15 4PT,51.53754,0.005612684
THE RUIZ MEDICAL PRACTICE,E16 1HT,51.511847,0.013563443
ST LUKES HEALTH CENTRE - PSU,E16 1HT,51.511847,0.013563443
COMMUNITY DERMATOLOGY CLINIC,E16 1LQ,51.510974,0.016234322
THE PRACTICE ALBERT ROAD,E16 2DY,51.501487,0.052989908
HEALTH VISITORS LONDON BOROUGH OF NEWHAM,E16 2QU,51.507701,0.047303255
DR T LWIN,E16 3JL,51.515205,0.03207369
CUSTOM HOUSE SURGERY,E16 3NA,51.512625,0.025271616
CUSTOM HOUSE MINOR SURGERY,E16 3NA,51.512625,0.025271616
CGL-NEWHAM RISE,E16 4ED,51.517391,0.028942305
STAR LANE MEDICAL CENTRE,E16 4QH,51.519782,0.010699055
LIBERTY BRIDGE ROAD PRACTICE,E20 1AS,51.548199,-0.00612075
EAST HAM MEDICAL CENTRE,E6 2DS,51.537465,0.052589793
LATHOM ROAD MEDICAL CENTRE,E6 2DU,51.538102,0.052690543
MARKET STREET HEALTH GROUP,E6 2RA,51.531003,0.057504007
ST. BARTHOLOMEWS SURGERY,E6 3BA,51.532499,0.052712424
BOLEYN MEDICAL CENTRE,E6 3BD,51.531226,0.044768459
THE AZAD PRACTICE,E6 3BD,51.531226,0.044768459
BARKING ROAD MEDICAL CENTRE,E6 3BP,51.530494,0.040338208
TOLLGATE MEDICAL CENTRE,E6 5JS,51.515546,0.056418169
ROYAL DOCKS MEDICAL PRACTICE,E6 5NA,51.509496,0.06293342
THE FOREST PRACTICE,E7 0EP,51.550581,0.024894327
LORD LISTER HEALTH CENTRE,E7 0EP,51.550581,0.024894327
FIRST 4 HEALTH GROUP - E7 HEALTH,E7 0EP,51.550581,0.024894327
DR SKS SWEDAN,E7 0EP,51.550581,0.024894327
WOODGRANGE MEDICAL PRACTICE,E7 0QH,51.548589,0.025152046
CLAREMONT CLINIC,E7 8AB,51.54749,0.033598485
BIRCHDALE ROAD MEDICAL CENTRE,E7 8AR,51.546795,0.038413612
WESTBURY ROAD MEDICAL PRACTICE,E7 8BU,51.545786,0.030219712
KATHERINE ROAD MEDICAL CENTRE,E7 8DR,51.545482,0.036321363
DR CM PATEL'S SURGERY,E7 8LZ,51.540957,0.03539828
THE SHREWSBURY CENTRE,E7 8QP,51.540928,0.043270927
DAY HOSPITAL,E7 8QP,51.540928,0.043270927
SHREWSBURY MINOR SURGERY,E7 8QP,51.540928,0.043270927
DR T KRISHNAMURTHY,E7 8QR,51.539602,0.044033502
THE SUMMITT PRACTICE,E7 8QR,51.539602,0.044033502
UPTON LANE MEDICAL CENTRE,E7 9PB,51.543109,0.026408576
BOLEYN ROAD PRACTICE,E7 9QJ,51.538882,0.03112375
THE EVERGREEN SURGERY,E11 2AQ,51.578105,0.025554684
WANSTEAD PLACE SURGERY,E11 2SW,51.578101,0.023187509
ALDERSBROOK MEDICAL CENTRE,E12 5DL,51.560671,0.038356032
SOUTHDENE SURGERY,E18 1BD,51.593869,0.02554851
THE SHRUBBERIES MEDICAL CENTRE,E18 1BD,51.593869,0.02554851
GLEBELANDS PRACTICE,E18 2AB,51.5925,0.024130468
THE ELMHURST PRACTICE,E18 2QS,51.597442,0.021736757
QUEEN MARY PRACTICE,E18 2QS,51.597442,0.021736757
DMC COMMUNITY DERMATOLOGY SERVICE,E18 2QS,51.597442,0.021736757
DMC COMMUNITY MINOR SURGERY SERVICE,E18 2QS,51.597442,0.021736757
ILFORD MEDICAL CENTRE,IG1 1EE,51.556822,0.074292692
WDP REDBRIDGE,IG1 2DR,51.557698,0.070509535
PELC REDBRIDGE OOH,IG1 2QX,51.55684,0.066647608
THE V & M PRACTICE,IG1 2SF,51.549816,0.075329843
MATHUKIA'S SURGERY,IG1 2SF,51.549816,0.075329843
ILFORD LANE SURGERY,IG1 2SN,51.546489,0.076837077
LOXFORD ACCESS SERVICE WIC,IG1 2SN,51.546489,0.076837077
AT MEDICS - THE LOXFORD PRACTICE,IG1 2SN,51.546489,0.076837077
YORK ROAD SURGERY,IG1 3AF,51.559165,0.065858546
THE COURTLAND SURGERY,IG1 3DP,51.562908,0.059607674
THE DRIVE SURGERY,IG1 3HZ,51.567634,0.060384001
BALFOUR ROAD SURGERY,IG1 4JE,51.563043,0.075917641
GRANVILLE MEDICAL CENTRE,IG1 4JY,51.563158,0.070959546
ST CLEMENT'S SURGERY,IG1 4LA,51.563581,0.072493725
THE EASTERN AVENUE MEDICAL CENTRE,IG2 6RJ,51.581055,0.073433075
CRANBROOK SURGERY,IG2 6RJ,51.581055,0.073433075
GANTS HILL MEDICAL CENTRE,IG2 6UW,51.577157,0.064451751
KENWOOD MEDICAL,IG2 6YG,51.581413,0.072005967
NEWBURY GROUP PRACTICE,IG2 7LE,51.576334,0.086106353
NELFT REDBRIDGE DIABETES SERVICE,IG2 7LR,51.577147,0.085393085
THE PALMS MEDICAL CENTRE,IG2 7NW,51.576983,0.088531907
SEVEN KINGS PRACTICE,IG3 8BG,51.563463,0.096829019
PAULZ SURGERY,IG3 8BG,51.563463,0.096829019
THE DOCTORS HOUSE,IG3 8LF,51.565389,0.094190583
GOODMAYES MEDICAL CENTRE,IG3 8XB,51.567626,0.10990631
HEALTH 1000 LTD,IG3 8YB,51.580545,0.11210686
SPEARPOINT SURGERY,IG3 8YB,51.580545,0.11210686
CASTLETON ROAD HEALTH CENTRE,IG3 9QW,51.563935,0.11263556
"GREEN LANE, GOODMAYES MEDICAL PRACTICE",IG3 9RN,51.563316,0.11355913
OAK TREE MEDICAL CENTRE,IG3 9TJ,51.560744,0.09647312
THE REDBRIDGE SURGERY,IG4 5BZ,51.577651,0.053721702
CLAYHALL CLINIC,IG5 0LG,51.591252,0.051447693
THE HEATHCOTE PRIMARY CARE CENTRE,IG5 0QS,51.593832,0.062767795
THE FULLWELL AVENUE SURGERY,IG5 0SB,51.596366,0.072108948
FULLWELL CROSS MED. CTR.,IG6 2HG,51.594621,0.083782264
FULWELL X ACCESS HUB OOH,IG6 2HG,51.594621,0.083782264
FENCE PIECE ROAD MEDICAL CENTRE,IG6 2NB,51.60017,0.084296186
CHIGWELL MEDICAL CENTRE,IG6 2TA,51.60551,0.083876443
HAINAULT SURGERY,IG6 2XG,51.602179,0.086106632
DMC MUSCOSKELETAL SERVICE,IG7 4DF,51.60776,0.10441554
THE FOREST EDGE PRACTICE,IG7 4DF,51.60776,0.10441554
THE WILLOWS PRACTICE,IG7 4DF,51.60776,0.10441554
THE BROADWAY SURGERY,IG8 0HF,51.608555,0.033322328
FERNDALE SURGERY,IG8 7QQ,51.608055,0.036217359
RODING (LANE) SURGERY,IG8 8NR,51.604748,0.05414999
RYDAL,IG8 9QJ,51.608432,0.020101964
HEALTHBRIDGE DIRECT,IG8 9QJ,51.608432,0.020101964
CHADWELL HEATH SURGERY,RM6 4AF,51.57356,0.12491581
GROVE SURGERY,RM6 4YU,51.576472,0.12254036
O'FLYNN (HAMPTON WICK),KT1 4DY,51.415601,-0.31308257
RICHMOND GP ALLIANCE,KT1 4DY,51.415601,-0.31308257
RICHMOND LEARNING DISABILITY,KT1 4DY,51.415601,-0.31308257
BOTTING (GLEBE),SW13 0DR,51.473618,-0.24248913
RTPCT DERMATOLOGY GPWSI,SW13 0DR,51.473618,-0.24248913
FLOOD (ESSEX HOUSE),SW13 0LW,51.472733,-0.24769238
PALACCI (CASTELNAU),SW13 9RU,51.476882,-0.23827397
SAYER (DEANHILL),SW14 7DF,51.463465,-0.27457947
RICHMOND MEDICAL GROUP,SW14 8LP,51.465857,-0.26726203
JOHNSON (SHEEN LANE),SW14 8LP,51.465857,-0.26726203
COLE PARK SURGERY,TW1 1EU,51.457007,-0.33034076
ST. MARGARETS PRACTICE,TW1 1NE,51.459403,-0.32304158
SMITH (RICHMOND LOCK),TW1 1PS,51.46457,-0.32285214
JOHAL (TWICKENHAM PARK),TW1 2AR,51.454974,-0.31522994
YORK MEDICAL PRACTICE,TW1 3PA,51.449051,-0.32547883
GP OUT OF HOURS RCCG (EAST BERKS),TW1 3PA,51.449051,-0.32547883
JACKSON (ACORN),TW1 4EA,51.447081,-0.32923494
CGL RICHMOND UPON THAMES,TW1 4HF,51.445937,-0.3309604
O'DONNELL (CROSS DEEP),TW1 4QP,51.445009,-0.33018839
COOPER (QUEENS MEDICAL CENTRE),TW10 6HF,51.458869,-0.28985278
THE VINEYARD SURGERY,TW10 6PP,51.458195,-0.30101924
BROCKBANK (PARK ROAD),TW11 0AU,51.423921,-0.33456739
DERMATOLOGY GPSWI,TW11 0JL,51.426115,-0.340903
TEDDINGTON WALK IN CENTRE,TW11 0JL,51.426115,-0.340903
IN-PATIENT UNIT,TW11 0JL,51.426115,-0.340903
RTPCT GP-LED ENT SERVICE,TW11 0JL,51.426115,-0.340903
DIABETES SERVICE TMH,TW11 0JL,51.426115,-0.340903
CHILDS (THAMESIDE),TW11 8HU,51.427432,-0.32661449
REFUGEES & HOMELESS,TW11 8HU,51.427432,-0.32661449
HRCH NHS TRUST,TW11 8HU,51.427432,-0.32661449
HOUNSLOW CCG - HRCH (NMP),TW11 8HU,51.427432,-0.32661449
HAMPTON HILL MEDICAL CENTRE,TW12 1NY,51.42745,-0.35462075
HAMPTON MEDICAL CENTRE,TW12 2PB,51.418512,-0.37266012
BHATIA (BROAD LANE),TW12 3AX,51.422883,-0.36814679
TWICKENHAM PARK MEDICAL CENTRE,TW13 6HD,51.436677,-0.37528065
SARAJLIC (STAINES ROAD),TW2 5AU,51.439681,-0.35792228
SOOD (THE GREEN & FIR ROAD),TW2 5TU,51.443835,-0.34062066
KUDRA (WOODLAWN),TW2 6EE,51.444444,-0.36668763
JUBILEE SURGERY,TW2 6JL,51.445115,-0.36132492
CRANE PARK SURGERY,TW2 6JL,51.445115,-0.36132492
KNELLER HALL MEDICAL CENTRE,TW2 7DU,51.455093,-0.35079158
SAYER (RICHMOND GREEN),TW9 1PX,51.46085,-0.30552712
LEE (PARADISE ROAD),TW9 1SA,51.460152,-0.30137844
HUDSON (SEYMOUR HOUSE),TW9 1UU,51.46241,-0.29275794
BATES (PARKSHOT MEDICAL PRACTICE),TW9 2RG,51.463888,-0.30227625
LAWRENCE (KEW GARDENS),TW9 3HN,51.480319,-0.288186
FITZMAURICE (KEW),TW9 4BH,51.475874,-0.28312569
CROWLEY (NORTH ROAD),TW9 4HQ,51.474154,-0.285379
THE NEW MILL STREET SURGERY,SE1 2BP,51.500708,-0.071144038
THE GRANGE ROAD PRACTICE,SE1 3BW,51.494377,-0.0760789
VIRTUAL WARD - SOUTHWARK,SE1 3BW,51.494377,-0.0760789
GP DERMATOLOGY SERVICE (CONCORDIA),SE1 3ER,51.499855,-0.084420916
M&A COMMUNITY DERMATOLOGY SERVICE,SE1 3ER,51.499855,-0.084420916
COMMUNITY ENT SERVICE (HARINGEY),SE1 3ER,51.499855,-0.084420916
N MANCS COMM DERMATOLOGY,SE1 3ER,51.499855,-0.084420916
BEDFORDSHIRE COMMUNITY DERMATOLOGY,SE1 3ER,51.499855,-0.084420916
WHANTS COMM ENT,SE1 3ER,51.499855,-0.084420916
HILLINGDON COMMUNITY DERMATOLOGY,SE1 3ER,51.499855,-0.084420916
MEDWAY COMMUNITY DERMATOLOGY,SE1 3ER,51.499855,-0.084420916
"S,C&T MANCS COMM DERMATOLOGY",SE1 3ER,51.499855,-0.084420916
MID-SUSSEX COMMUNITY ENT SERVICE,SE1 3ER,51.499855,-0.084420916
COASTAL WEST SUSSEX COMM ENT SERVICE,SE1 3ER,51.499855,-0.084420916
GUY'S COMMUNITY ENT SERVICE,SE1 3ER,51.499855,-0.084420916
BARNET COMMUNITY ENT SERVICE,SE1 3ER,51.499855,-0.084420916
LEWISHAM AND GREENWICH COMM DERM SERVICE,SE1 3ER,51.499855,-0.084420916
GUILDFORD & WAVERLEY INT DERM SERVICE,SE1 3ER,51.499855,-0.084420916
IMPERIAL COMMUNITY DERMATOLOGY SERVICE,SE1 3ER,51.499855,-0.084420916
NEE INTEGRATED DERMATOLOGY SERVICE,SE1 3ER,51.499855,-0.084420916
MERTON & WANDSWORTH COMM ENT SERVICE,SE1 3ER,51.499855,-0.084420916
CITY & HACKNEY COMMUNITY ENT SERVICE,SE1 3ER,51.499855,-0.084420916
MERTON & WANDSWORTH COMM DERM SERVICE,SE1 3ER,51.499855,-0.084420916
STAFFS & CANNOCK COMMUNITY ENT SERVICE,SE1 3ER,51.499855,-0.084420916
HOUNSLOW COMMUNITY DERMATOLOGY SERVICE,SE1 3ER,51.499855,-0.084420916
NORTH STAFFS & STOKE COMM ENT SERVICE,SE1 3ER,51.499855,-0.084420916
SOUTHWARK PCT SERVICE (1),SE1 3GF,51.493939,-0.074584713
FALMOUTH ROAD GROUP PRACTICE,SE1 4JW,51.496427,-0.093122304
BERMONDSEY AND LANSDOWNE MEDICAL MISSION,SE1 4QX,51.497213,-0.082846085
DR SLC LEE'S PRACTICE,SE1 5LU,51.489731,-0.079011398
OLD KENT ROAD SURGERY,SE1 5TY,51.490341,-0.081117684
DR KK MISRA'S PRACTICE,SE1 6ED,51.499125,-0.096481924
DR R SHARMA'S PRACTICE,SE1 6ED,51.499125,-0.096481924
NEXUS HEALTH GROUP,SE1 6JP,51.495626,-0.10195813
BLACKFRIARS MEDICAL PRACTICE,SE1 8EE,51.505364,-0.10577553
URGENT CARE CENTRE,SE1 9RT,51.504642,-0.088989696
GUY'S & ST THOMAS' COMMUNITY SERVICES,SE1 9RT,51.504642,-0.088989696
COMMUNITY PALLIATIVE CARE,SE1 9RT,51.504642,-0.088989696
THERAPY SERVICES,SE1 9RT,51.504642,-0.088989696
CHILDRENS SERVICES,SE1 9RT,51.504642,-0.088989696
ADULT COMMUNITY NURSING,SE1 9RT,51.504642,-0.088989696
TISSUE VIABILITY,SE1 9RT,51.504642,-0.088989696
COMMUNITY DERMATOLOGY SOUTHWARK GSTT,SE1 9RT,51.504642,-0.088989696
EQUINOX BROOK DRIVE,SE11 4TQ,51.49385,-0.10554698
DMC GYNAECOLOGY CLINIC,SE15 1PD,51.481365,-0.058091056
QUEENS ROAD SURGERY,SE15 2UA,51.475099,-0.064203634
THE NUNHEAD SURGERY,SE15 3LY,51.464117,-0.058060374
STERNHALL LANE SURGERY,SE15 4NT,51.466791,-0.067506801
DMC CHADWICK ROAD,SE15 4PU,51.467817,-0.074115251
DR A ULLAH'S PRACTICE,SE15 5LJ,51.474549,-0.075574096
DR SMS HOSSAIN'S PRACTICE,SE15 5LJ,51.474549,-0.075574096
THE LISTER PRIMARY CARE CENTRE,SE15 5LJ,51.474549,-0.075574096
THE LISTER PRACTICE,SE15 5LJ,51.474549,-0.075574096
LISTER GP WALK IN CLINIC,SE15 5LJ,51.474549,-0.075574096
HEALTH LOCALITY SERVICE,SE15 5LJ,51.474549,-0.075574096
THE ACORN & GAUMONT HOUSE SURGERY,SE15 5SL,51.474167,-0.066561479
THE AYLESBURY PARTNERSHIP,SE15 6DB,51.477383,-0.073453103
TRAFALGAR SURGERY,SE15 6NR,51.485672,-0.074414458
PARK MEDICAL CENTRE,SE16 2PE,51.492402,-0.049626922
SILVERLOCK MEDICAL CENTRE,SE16 3HA,51.485967,-0.063368914
AVICENNA HEALTH CENTRE,SE16 3HA,51.485967,-0.063368914
ST JAMES CHURCH SURGERY,SE16 4AA,51.496424,-0.067089296
BERMONDSEY SPA MEDICAL CENTRE,SE16 4BL,51.496908,-0.069229834
QHS GP CARE HOME SERVICE,SE16 4BL,51.496908,-0.069229834
QUAY HEALTH EAC,SE16 4BN,51.496908,-0.069229834
SURREY DOCKS HEALTH CENTRE,SE16 6AE,51.500881,-0.036628841
ALBION STREET GROUP PRACTICE,SE16 7JX,51.501007,-0.050642759
THE VILLA STREET MEDICAL CENTRE,SE17 2EL,51.486545,-0.088176457
DR AT BRADFORD'S PRACTICE,SE17 2SX,51.490065,-0.082382496
DERMATOLOGY CLINIC AYLESBURY PARTNERSHIP,SE17 2XE,51.488354,-0.08664593
MANOR PLACE SURGERY,SE17 3BD,51.489057,-0.097247011
PENROSE SURGERY,SE17 3DW,51.48752,-0.097858344
DR RHK SINHA'S PRACTICE,SE17 3NH,51.48272,-0.10295494
SOUTHWARK PCT SERVICE 3,SE19 1SZ,51.42206,-0.078398314
CCG PHARMACIST PRESCRIBERS,SE1P 5LX,51.492762,-0.080151673
PAXTON GREEN GROUP PRACTICE,SE21 8AU,51.430298,-0.086094491
FOREST HILL GROUP PRACTICE,SE22 0SQ,51.453617,-0.061543001
TESSA JOWELL GP SURGERY,SE22 8EY,51.45913,-0.08001
THE LORDSHIP LANE SURGERY,SE22 8JN,51.448369,-0.073221093
THE THREE ZERO SIX MEDICAL CENTRE,SE22 8LY,51.450741,-0.076402693
SELDOC OOH,SE22 8PT,51.459076,-0.081234516
EAST DULWICH PRIMARY CARE CENTRE,SE22 8PT,51.459076,-0.081234516
SASSELDOC,SE22 8PT,51.459076,-0.081234516
SOUTHWARK DIABETES COMMUNITY TEAM,SE22 8PT,51.459076,-0.081234516
COMMUNITY DIABETES TEAM,SE22 8PT,51.459076,-0.081234516
SUTTON CCG SLDUC OOH,SE22 8PT,51.459076,-0.081234516
THE DULWICH MEDICAL CENTRE,SE22 9EP,51.455454,-0.072087892
THE GARDENS SURGERY,SE22 9QU,51.460629,-0.066845785
ELM LODGE SURGERY,SE24 9HJ,51.451571,-0.096359282
COMMUNITY DERMATOLOGY SOUTHWARK SERVICE,SE24 9HJ,51.451571,-0.096359282
SIR JOHN KIRK CLOSE SURGERY,SE5 0BB,51.479589,-0.099498913
CGL SOUTHWARK,SE5 0HF,51.480596,-0.093956
CRI (CRIME REDUCTION INITIATIVES),SE5 0JG,51.476252,-0.096138305
DR RS DURSTON'S PRACTICE,SE5 7AF,51.474609,-0.093557112
PARKSIDE MEDICAL CENTRE,SE5 7AQ,51.475826,-0.092642346
ST GILES SURGERY,SE5 7RF,51.474546,-0.084170991
ST GILES SURGERY DR PATEL,SE5 7RF,51.474546,-0.084170991
THE HAMBLEDEN CLINIC,SE5 8HL,51.463482,-0.0895004
COMMUNITY PAEDIATRICIANS-SOUTHWARK,SE5 8UH,51.474294,-0.079775183
BEDDINGTON MEDICAL CENTRE,CR0 4PG,51.367839,-0.12981646
WANDLE VALLEY HEALTH CENTRE.,CR4 4AX,51.384121,-0.16485132
WANDLE VALLEY S/CARE SERVICE,CR4 4AX,51.384121,-0.16485132
THE GROVE ROAD PRACTICE,SM1 2DB,51.358201,-0.20234124
CHEAM FAMILY PRACTICE S/CARE SERVICE,SM1 2HD,51.370355,-0.20794251
THE HEALTH CENTRE,SM1 2RJ,51.362965,-0.19695469
MUSCULO SKELETAL CENTRE,SM1 2RJ,51.362965,-0.19695469
M/SKELETAL CENTRE (MERTON),SM1 2RJ,51.362965,-0.19695469
ANTICOAGULATION GP ADVISER,SM1 2RJ,51.362965,-0.19695469
THE OLD COURT HOUSE SURGERY,SM1 4AF,51.363517,-0.19133073
BENHILL & BELMONT PRACTICE,SM1 4EB,51.366612,-0.19028936
THE SURGERY-181 CARSHALTON ROAD,SM1 4NG,51.363284,-0.17690326
GPWSI DERMATOLOGY CLINIC,SM2 5NF,51.34687,-0.19356579
GPSI DERM CLINIC (SUTTON),SM2 5NF,51.34687,-0.19356579
GPSI DERM CLINIC (MERTON),SM2 5NF,51.34687,-0.19356579
THE SURGERY - 48 MULGRAVE ROAD,SM2 6LX,51.358359,-0.1962594
CHEAM FAMILY PRACTICE,SM3 8BS,51.358255,-0.21767899
THE G.P. CENTRE,SM3 8EP,51.368527,-0.22492311
DR MUKTAR & DR AL-SANJARY,SM3 8EP,51.368527,-0.22492311
CHEAM GP CENTRE,SM3 8EP,51.368527,-0.22492311
ST RAPHAEL'S HOSP (SUTTON),SM3 9DX,51.378853,-0.22090256
ST RAPHAEL'S HOSP (MERTON),SM3 9DX,51.378853,-0.22090256
STONECOT SURGERY,SM3 9EY,51.386636,-0.20999413
JAMES O'RIORDAN MEDICAL CENTRE,SM3 9HE,51.385107,-0.21291374
BISHOPSFORD ROAD SURGERY,SM4 6BH,51.388817,-0.18055977
DERMATOLOGY GPSI (MERTON),SM5 1AA,51.380072,-0.18319141
SUTTON COMMUNITY SERVICES,SM5 1AA,51.380072,-0.18319141
GPSI DERM CLINIC (MERTON),SM5 1AA,51.380072,-0.18319141
DERMATOLOGY GPSI (SUTTON),SM5 1AA,51.380072,-0.18319141
GREEN WRYTHE SURGERY,SM5 1JF,51.384519,-0.17364511
CONTRACEPTION AND SEXUAL HEALTH (SUTTON),SM5 1JL,51.385883,-0.17576097
THE WRYTHE GREEN SURGERY,SM5 2RE,51.371767,-0.17130784
THE CHESSER SURGERY,SM5 2RT,51.374936,-0.17730253
CARSHALTON FIELDS SURGERY,SM5 3LS,51.355316,-0.16877457
THE BEECHES SURGERY,SM5 3RB,51.358323,-0.17129749
SHOTFIELD MEDICAL PRACTICE,SM6 0HY,51.357896,-0.15099062
WALLINGTON FAMILY PRACTICE,SM6 0HY,51.357896,-0.15099062
M/SKELETAL CENTRE (SUTTON),SM6 0HY,51.357896,-0.15099062
SCS DIABETES SERVICE,SM6 0HY,51.357896,-0.15099062
OUTPATIENTS JUBILEE HEALTH CENTRE,SM6 0HY,51.357896,-0.15099062
DERMATOLOGY GPSI (SUTTON),SM6 0HY,51.357896,-0.15099062
COMMUNITY SURGICAL SERVICE,SM6 0HY,51.357896,-0.15099062
GPSI DERM CLINIC (MERTON),SM6 0XY,51.36016,-0.153111
HACKBRIDGE MEDICAL CENTRE,SM6 7HF,51.380618,-0.15596689
PARK ROAD MEDICAL CENTRE,SM6 8AW,51.363579,-0.15040261
DR SUGUMAR AND PARTNER,SM6 8BL,51.365024,-0.14791666
19 BANDON RISE,SM6 8PT,51.360499,-0.13873386
WALLINGTON MEDICAL CENTRE,SM6 9BY,51.357346,-0.12938205
SUTTON GP SERVICES LIMITED,SM6 9BY,51.357346,-0.12938205
MANOR PRACTICE,SM6 9DW,51.353428,-0.13406561
COMMUNITY DRUG TEAM,E1 0AQ,51.511568,-0.050869297
CGL TOWER HAMLETS,E1 0AQ,51.511568,-0.050869297
JUBILEE STREET PRACTICE,E1 0LS,51.513625,-0.050723846
BRAYFORD SQUARE SURGERY,E1 0SG,51.514213,-0.050367274
TOWER HAMLETS SERVICE OOH,E1 1BB,51.519026,-0.058075032
ALBION HEALTH CENTRE,E1 1BU,51.520017,-0.057658092
DIGITAL MEDICAL SUPPLY UK LTD (LIVI),E1 1EW,51.516738,-0.067670685
URGENT TREATMENT CENTRE,E1 1FR,51.518701,-0.060164466
WHITECHAPEL HEALTH CENTRE,E1 2LP,51.514127,-0.06254948
CITY WELLBEING PRACTICE,E1 2LX,51.513304,-0.061748475
EAST ONE HEALTH,E1 2QA,51.513667,-0.054887212
SMOKERS CLINIC,E1 4AH,51.522199,-0.047186417
QMUL TOBACCO CESSATION SERVICE,E1 4AH,51.522199,-0.047186417
XX PLACE HEALTH CENTRE,E1 4DG,51.524507,-0.042647639
C&H CCG HOME VISITING SERVICE OOH,E1 4DG,51.524507,-0.042647639
CLINICAL ASSESSMENT SERVICE,E1 4DG,51.524507,-0.042647639
CHS NMP TOWER HAMLETS CCG,E1 4DG,51.524507,-0.042647639
THGPCG SERVICE OOH,E1 4DG,51.524507,-0.042647639
BARTS HEALTH NHS TRUST CHS,E1 4DG,51.524507,-0.042647639
TOWER HAMLETS EPCT,E1 4DG,51.524507,-0.042647639
HARFORD HEALTH CENTRE,E1 4FG,51.518665,-0.038545109
ISIS WOMEN'S SERVICE,E1 5NG,51.517666,-0.06832326
THE SPITALFIELDS PRACTICE,E1 5PB,51.517159,-0.069209514
COMMUNITY HEALTH NEWHAM,E1 6LP,51.516355,-0.072241468
HEALTH E1,E1 6PU,51.51814,-0.071416585
GOUGH WALK PRACTICE,E14 0EY,51.510477,-0.012624882
ALL SAINTS PRACTICE,E14 0EY,51.510477,-0.012624882
ABERFELDY PRACTICE,E14 0PU,51.514483,-0.004927103
ISLAND HEALTH,E14 3BQ,51.495357,-0.013513117
ROSERTON STREET SURGERY,E14 3PG,51.498482,-0.010049091
THE CHRISP STREET HTH CTR,E14 6PG,51.514211,-0.014335996
ST. PAUL'S WAY MEDICAL CTR,E14 7LJ,51.518008,-0.024577592
THE LIMEHOUSE PRACTICE,E14 8HQ,51.511253,-0.028746565
THE BARKANTINE PRACTICE,E14 8JH,51.500814,-0.025666996
BARKANTINE WALK-IN CTR,E14 8JH,51.500814,-0.025666996
DOCKLANDS MEDICAL CENTRE,E14 9WU,51.491188,-0.021127525
ST. KATHERINE'S DOCK PRACTICE,E1W 1UA,51.506983,-0.068285215
THE WAPPING GROUP PRACTICE,E1W 2RL,51.506136,-0.058954559
THE GLOBE TOWN SURGERY,E2 0PJ,51.528411,-0.049212931
THE BLITHEHALE MED.CTR.,E2 6JA,51.523752,-0.065470924
BETHNAL GREEN HEALTH CTR.,E2 6LL,51.526916,-0.064255605
POLLARD ROW SURGERY,E2 6NA,51.528266,-0.064356906
STROUTS PLACE MEDICAL CENTRE,E2 7QU,51.529409,-0.074213119
THE SAFE HAVEN SERVICE,E2 7QU,51.529409,-0.074213119
ADHD CLINIC,E2 9AG,51.532028,-0.062899705
THE MISSION PRACTICE,E2 9LS,51.531373,-0.056482689
DRUG INTERVENTION PROGRAMME,E2 9NN,51.532222,-0.056662831
HARLEY GROVE MEDICAL CTR.,E3 2AT,51.527847,-0.02785686
RUSTON STREET CLINIC,E3 2LR,51.536341,-0.027085962
ST ANDREWS HEALTH CENTRE,E3 3FF,51.523864,-0.014564782
ST ANDREWS EXTENDED ACCESS HUB,E3 3FP,51.523869,-0.013814939
THE STROUDLEY WLK HTH CTR,E3 4NE,51.525917,-0.024840773
MERCHANT STREET PRACTICE,E3 4NE,51.525917,-0.024840773
ST. STEPHENS HEALTH CENTRE,E3 5ED,51.532215,-0.030912192
TREDEGAR PRACTICE,E3 5JD,51.531313,-0.031830603
THE GROVE ROAD SURGERY,E3 5TW,51.529785,-0.038874543
THE TOWER OF LONDON SURGERY,EC3N 4AB,51.508602,-0.076012889
VICARAGE ROAD MEDICAL CENTRE,E10 5DU,51.569839,-0.016443963
CRAWLEY ROAD MEDICAL CENTRE,E10 5EL,51.564276,-0.011318719
LEYTON HEALTHCARE 4TH FLOOR,E10 5LG,51.559912,-0.013312475
SEXUAL HEALTH & COMM. GYNAE SERVICES,E10 5LG,51.559912,-0.013312475
ORIENT PRACTICE,E10 5LG,51.559912,-0.013312475
CSS ENT SERVICE 1,E10 5LG,51.559912,-0.013312475
LEYTON GREEN NEIGHBOURHOOD HS,E10 6BT,51.577958,-0.005771027
THE LYNDHURST SURGERY,E10 6JB,51.571964,-0.003868769
FRANCIS ROAD MEDICAL CENTRE,E10 6PP,51.561936,-0.003831821
SMA MEDICAL PRACTICE,E10 6RA,51.571154,-0.008594201
THE MANOR PRACTICE,E10 7DY,51.571326,-0.021992728
DR S PHILLIPS AND DR M PATEL PRACTICE,E10 7LD,51.569073,-0.028093386
THE ALLUM MEDICAL CENTRE,E11 1BN,51.569923,0.003458992
DR MOHAMMED GREEN MAN MEDICAL CENTRE,E11 1GA,51.571436,0.014911343
PELC OOH,E11 1NR,51.578306,0.002860624
URGENT CARE CENTRE (NELFT),E11 1NR,51.578306,0.002860624
NELFT OOH,E11 1NR,51.578306,0.002860624
HARROW ROAD GP CENTRE,E11 3QE,51.559538,0.012856126
HAMPTON MEDICAL CENTRE,E11 4BB,51.566492,4.71711E-05
HIGH ROAD SURGERY,E11 4HH,51.553486,0.004958098
LL MEDICAL CARE LTD,E11 4HX,51.555406,0.00209967
KIYANI MEDICAL PRACTICE,E11 4HX,51.555406,0.00209967
LANGTHORNE SHARMA FAMILY PRACTICE,E11 4HX,51.555406,0.00209967
ORTHOPAEDIC INTERFACE,E11 4HX,51.555406,0.00209967
LIME TREE SURGERY,E11 4JT,51.555772,0.00541924
THATCHED HOUSE MEDICAL CENTRE,E15 1UA,51.551966,0.00604521
UNIDENTIFIABLE PATIENTS IN WF,E17 3BL,51.588909,-0.014689448
COMMUNITY SPECIALIST DERMATOLOGY SERVICE,E17 3BL,51.588909,-0.014689448
NELFT COMMUNITY DIABETES SERVICE,E17 3BL,51.588909,-0.014689448
SPECIALIST CHILDRENS SERVICE,E17 3LA,51.587749,-0.003018105
DR DHITAL PRACTICE,E17 3LA,51.587749,-0.003018105
WALTHAM FOREST COMM & FAM HTH SERV LTD,E17 3LA,51.587749,-0.003018105
ADULT SICKLE CELL,E17 3LA,51.587749,-0.003018105
THE FOREST SURGERY,E17 4BA,51.594726,-0.005036632
THE PENRHYN SURGERY,E17 5DB,51.597091,-0.023674555
DR SHANTIR PRACTICE,E17 5JL,51.589758,-0.026057288
SINNOTT ROAD SURGERY,E17 5QB,51.598327,-0.039417391
CLAREMONT MEDICAL CENTRE,E17 5RJ,51.594357,-0.033813172
HIGHAM HILL MEDICAL CENTRE,E17 5RQ,51.594829,-0.034615755
THE FIRS,E17 7JT,51.580297,-0.0351418
ST JAMES MEDICAL PRACTICE LIMITED,E17 7NH,51.58038,-0.032049451
DR UDUKU PRACTICE,E17 7NT,51.580589,-0.031607441
HAYAT MEDICAL CENTRE,E17 8NE,51.572659,-0.026365211
QUEENS ROAD MEDICAL CENTRE,E17 8PX,51.579799,-0.020470187
GROVE SURGERY,E17 9BU,51.579197,-0.010970442
THE ECCLESBOURNE PRACTICE,E17 9DP,51.580627,-0.00145398
THE BAILEY PRACTICE,E17 9HS,51.583657,-0.007195932
CGL WALTHAM FOREST,E17 9LG,51.58162,-0.010114094
ADDISON ROAD MEDICAL PRACTICE,E17 9LY,51.583176,-0.009050154
THE OLD CHURCH SURGERY,E4 6UN,51.620089,-0.001049631
EMC CLINICS,E4 6UN,51.620089,-0.001049631
COMMUNITY SPECIALIST MSK SERVICE,E4 6UN,51.620089,-0.001049631
COMMUNITY SPEC CARDIOLOGY SERVICE,E4 6UN,51.620089,-0.001049631
COMMUNITY SPEC UROLOGY SERVICE,E4 6UN,51.620089,-0.001049631
CSS DERMATOLOGY SERVICE,E4 6UN,51.620089,-0.001049631
CSS ENT SERVICE 2,E4 6UN,51.620089,-0.001049631
LARKSHALL MEDICAL CENTRE,E4 7HS,51.626945,0.002964947
THE RIDGEWAY SURGERY,E4 7JX,51.628702,-0.011030843
KINGS HEAD MEDICAL PRACTICE,E4 7NX,51.635688,-0.011447793
COMMUNITY SPECIALIST COLORECTAL SERVICE,E4 8DA,51.61902,-0.018084866
COMMUNITY SPECIALIST CTS SERVICE,E4 8DA,51.61902,-0.018084866
CHURCHILL MEDICAL CENTRE,E4 8DG,51.618304,-0.018303841
CHINGFORD MEDICAL PRACTICE,E4 8LF,51.616074,-0.022546676
WALTHAM FOREST CCG(NMP-COMMUNITY HEALTH),E4 8LF,51.616074,-0.022546676
THE MICROFACULTY,E4 8LT,51.612918,-0.018336229
CSS GYNAECOLOGY SERVICE,E4 8YD,51.607835,-0.02514324
ENHANCED GP SERVICE,E4 9HH,51.609349,-0.001420369
HANDSWORTH MEDICAL PRACTICE,E4 9PD,51.607864,0.000767401
BATTERSEA RISE GROUP PRACTICE,SW11 1HG,51.460762,-0.16347739
THE HAIDER PRACTICE,SW11 1SW,51.460012,-0.17941417
BEGG PRACTICE,SW11 1SW,51.460012,-0.17941417
KCA WANDSWORTH,SW11 1SW,51.460012,-0.17941417
CLAPHAM JUNCTION MEDICAL PRACTICE,SW11 2EJ,51.465978,-0.17390738
WANDSWORTH SEXUAL HEALTH - CLCH,SW11 2LN,51.464118,-0.16825182
THE JUNCTION HTH CTR-REGISTERED PATIENTS,SW11 2NU,51.465357,-0.17039056
THE JUNCTION HC - UNREGISTERED PATIENTS,SW11 2NU,51.465357,-0.17039056
THE FALCON ROAD MEDICAL CENTRE,SW11 2PH,51.468933,-0.17078023
BRIDGE LANE GROUP PRACTICE,SW11 3AD,51.474233,-0.16693953
FRESH START CLINIC,SW11 3AD,51.474233,-0.16693953
CHATFIELD MEDICAL CENTRE,SW11 3UJ,51.465891,-0.18217477
BATTERSEA FIELDS PRACTICE,SW11 5JP,51.473628,-0.15478177
LAVENDER HILL GROUP PRACTICE,SW11 5TU,51.466051,-0.15674311
BOLINGBROKE MEDICAL CENTRE (THMP),SW11 6BF,51.456125,-0.16828397
WANDSWORTH COMMUNITY DERMATOLOGY SERVICE,SW11 6BF,51.456125,-0.16828397
MUSCULOSKELETAL INTERFACE ASSESSMT SVCE,SW11 6BF,51.456125,-0.16828397
SAI MEDICAL CENTRE,SW12 8DT,51.442884,-0.15774802
OPEN DOOR SURGERY,SW12 8EU,51.443149,-0.15569401
NIGHTINGALE HOUSE,SW12 8NB,51.448871,-0.15986731
THURLEIGH ROAD PRACTICE,SW12 8TT,51.45279,-0.15519034
BALHAM HILL MEDICAL PRACTICE,SW12 9DL,51.448833,-0.14779417
BEDFORD HILL FAMILY PRACTICE,SW12 9HS,51.440707,-0.14910142
BALHAM HEALTH CENTRE,SW12 9HS,51.440707,-0.14910142
THE HEATHBRIDGE PRACTICE,SW15 2TL,51.460076,-0.21516921
KINGSTON HARMONI HS OOH,SW15 2TL,51.460076,-0.21516921
RHND,SW15 3SW,51.452239,-0.2136758
MAYFIELD SURGERY,SW15 4AA,51.448266,-0.23753351
DANEBURY AVENUE SURGERY,SW15 4DU,51.452362,-0.24863083
THE ROEHAMPTON SURGERY,SW15 4HN,51.451163,-0.24243046
THE ALTON PRACTICE,SW15 4LE,51.449136,-0.23981704
QUEEN MARY'S POLYCLINIC WIC,SW15 5PN,51.455541,-0.24174414
MINOR INJURIES UNTI (QMH),SW15 5PN,51.455541,-0.24174414
MINOR INJURIES TC,SW15 5PN,51.455541,-0.24174414
CHARTFIELD SURGERY,SW15 6HG,51.457172,-0.2276759
PUTNEYMEAD GROUP MEDICAL PRACTICE,SW15 6TQ,51.461659,-0.21994438
THE PRACTICE FURZEDOWN,SW16 6BL,51.422144,-0.13932288
STREATHAM PARK SURGERY,SW16 6LY,51.4245,-0.14103956
THE GREYSWOOD PRACTICE,SW16 6PX,51.419489,-0.14485291
INTERMEDIATE CARE UNIT,SW17 0AN,51.440009,-0.17626715
ST GEORGES BCSC,SW17 0QT,51.426727,-0.17574589
COMMUNITY SERVICES,SW17 0QT,51.426727,-0.17574589
URGENT TREATMENT CENTRE QMH,SW17 0QT,51.426727,-0.17574589
GRAFTON MEDICAL PARTNERS,SW17 0RT,51.424736,-0.17143805
WATERFALL HOUSE,SW17 0TD,51.423286,-0.172474
TRINITY MEDICAL CENTRE,SW17 7AL,51.437403,-0.15802611
INTERMEDIATE ENT CLINIC,SW17 7AL,51.437403,-0.15802611
BALHAM PARK SURGERY,SW17 7AW,51.440487,-0.15570051
TOOTING BEC SURGERY,SW17 7BA,51.436028,-0.1586713
TOOTING SOUTH MEDICAL CENTRE,SW17 9HQ,51.421738,-0.16146072
HMP WANDSWORTH,SW18 3HS,51.44823,-0.19152553
WANDSWORTH MEDICAL CENTRE,SW18 4DD,51.45392,-0.19255288
BROCKLEBANK GROUP PRACTICE,SW18 4DU,51.448598,-0.189122
EARLSFIELD SURGERY,SW18 4HH,51.438296,-0.18761582
TRIANGLE SURGERY,SW18 4HX,51.456761,-0.19834226
DR KOONER AND PARTNERS,SW18 5AE,51.441723,-0.19758152
ELBOROUGH STREET SURGERY,SW18 5DS,51.441036,-0.2008749
GRANVILLE ROAD SURGERY,SW18 5SG,51.450275,-0.20576487
TUDOR LODGE HEALTH CENTRE,SW19 6AE,51.446027,-0.21971768
WANDSWORTH PRIMARY EXTRA SERVICE,SW19 6AE,51.446027,-0.21971768
INNER PARK ROAD HEALTH CENTRE,SW19 6DA,51.44115,-0.22127431
ST PAUL'S COTTAGE PRACTICE,SW19 6EW,51.443196,-0.21805782
WANDSWORTH COMMUNITY WARDS,SW8 3HE,51.472301,-0.14590787
WESTMINSTER ZT PRACTICE,NW1 5JD,51.522838,-0.15153914
NON REGISTERED PATIENTS,NW1 5JD,51.522838,-0.15153914
KENSINGTON & CHELSEA ZT PRACTICE,NW1 5JD,51.522838,-0.15153914
MARYLEBONE HEALTH CENTRE,NW1 5LT,51.522772,-0.15246439
CENTRAL LONDON EXTENDED HOURS HUBS,NW1 6SE,51.522069,-0.16439945
LISSON GROVE HEALTH CENTRE,NW8 8EG,51.524736,-0.16932326
WESTMINSTER DIABETES CENTRE,NW8 8EG,51.524736,-0.16932326
WESTMINSTER LDP,NW8 8LW,51.526264,-0.17220283
ST JOHNS WOOD MEDICAL PRACTICE,NW8 9NH,51.533473,-0.17546101
WELLINGTON HEALTH CENTRE,NW8 9SP,51.532275,-0.17128444
THE GEORGE GUTHRIE HEALTH FACILITY,SW1E 6HQ,51.499958,-0.13769701
WELLINGTON MEDICAL CENTRE,SW1E 6HQ,51.499958,-0.13769701
SIC,SW1H 9HP,51.501001,-0.13091145
THE PASSAGE,SW1P 1NL,51.495768,-0.14169992
THE DOCTOR HICKEY SURGERY,SW1P 2BG,51.49575,-0.13150084
WESTMINSTER SCHOOL,SW1P 3PA,51.498762,-0.12810715
MILLBANK MEDICAL CENTRE,SW1P 4EN,51.49403,-0.13023141
VICTORIA MEDICAL CENTRE,SW1V 1SN,51.492791,-0.13883903
WESTMINSTER AND PIMLICO HEALTH CENTRE,SW1V 2HF,51.491678,-0.1400944
PIMLICO HEALTH AT THE MARVEN SURGERY,SW1V 3EB,51.488449,-0.1377771
THE ALCOHOL SERVICE,SW1V 3EQ,51.488074,-0.14021226
THE ROYAL MEWS SURGERY,SW1W 0QH,51.498764,-0.14522313
DR VICTORIA MUIR'S PRACTICE,SW1W 8NA,51.490651,-0.15135761
DR MAHER SHAKARCHI'S PRACTICE,SW1W 8NA,51.490651,-0.15135761
BELGRAVIA SURGERY,SW1W 9PY,51.495004,-0.14855955
IMPERIAL COLLEGE HEALTH CENTRE,SW7 1LY,51.4986,-0.17254621
HYDE PARK MEDICAL CENTRE,SW7 1SE,51.502268,-0.16326448
NAGARAJAN QUEENS PARK HEALTH CENTRE,W10 4LY,51.530998,-0.20619729
LAI CHUNG FONG QUEENS PARK HEALTH CENTRE,W10 4LY,51.530998,-0.20619729
QUEENS PARK HEALTH CENTRE,W10 4LY,51.530998,-0.20619729
SRIKRISHNAMURTHY HARROW ROAD SURGERY,W10 4NJ,51.526519,-0.20676254
HALF PENNY STEPS HEALTH CENTRE,W10 4RE,51.525838,-0.20575134
HALF PENNY STEPS WIC,W10 4RE,51.525838,-0.20575134
SOHO SQUARE GENERAL PRACTICE,W1D 3HZ,51.514524,-0.13191451
SOHO CENTRE FOR HEALTH AND CARE,W1D 3QS,51.514524,-0.13191451
SOHO WALK IN CENTRE (WIC),W1D 3QS,51.514524,-0.13191451
TURNING POINT,W1D 6PT,51.511274,-0.13226362
WESTMINSTER DAWS,W1D 6PT,51.511274,-0.13226362
GREAT CHAPEL STREET MEDICAL CENTRE,W1F 8FL,51.515212,-0.13393294
HARLEY STREET MEDICAL CENTRE,W1G 6BB,51.522236,-0.14873819
THE LONDON CLINIC,W1G 6BW,51.523022,-0.15007577
CAVENDISH HEALTH CENTRE,W1G 9TQ,51.519331,-0.14809209
WEST LONDON DAY CENTRE,W1H 1NT,51.520455,-0.16358505
CRAWFORD STREET SURGERY,W1H 2HJ,51.519321,-0.16122355
MAYFAIR MEDICAL CENTRE,W1K 5LS,51.513536,-0.15017184
PADDINGTON GREEN HEALTH CENTRE,W2 1LQ,51.520958,-0.17329458
LITTLE VENICE MEDICAL CENTRE,W2 1ND,51.523763,-0.1767573
CROMPTON MEDICAL CENTRE,W2 1ND,51.523763,-0.1767573
WEST TWO HEALTH CENTRE,W2 1NR,51.518227,-0.17060761
ST MARY'S HOSPITAL UCC,W2 1NY,51.517123,-0.1742119
COMMUNITY GYNAECOLOGY CLINICS,W2 1NY,51.517123,-0.1742119
COMMUNITY OPHTHALMOLOGY CLINICS,W2 1NY,51.517123,-0.1742119
COMMUNITY UROLOGY CLINICS,W2 1NY,51.517123,-0.1742119
COMMUNITY DERMATOLOGY CLINICS,W2 1NY,51.517123,-0.1742119
COMM CARDIOLOGY AND RESP CLINIC (H&F),W2 1NY,51.517123,-0.1742119
COMM CARDIOLOGY AND RESP CLINIC (C&W),W2 1NY,51.517123,-0.1742119
COMM CARDIOLOGY CLINIC (EALING),W2 1NY,51.517123,-0.1742119
MILNE HOUSE MEDICAL CENTRE,W2 1RU,51.515476,-0.17351391
CONNAUGHT SQUARE PRACTICE,W2 2HL,51.513974,-0.16426371
LANCASTER GATE MEDICAL CENTRE,W2 3ET,51.511798,-0.18337436
BAYSWATER MEDICAL CENTRE,W2 3QA,51.513732,-0.17934851
GRAND UNION HEALTH CENTRE,W2 5EH,51.520063,-0.19100208
THE WESTBOURNE GREEN SURGERY,W2 5ES,51.520936,-0.19160174
NEWTON MEDICAL CENTRE,W2 5LT,51.516297,-0.19167018
THE GARWAY MEDICAL PRACTICE,W2 6HF,51.515392,-0.18549417
MAIDA VALE MEDICAL CENTRE,W9 1HT,51.528419,-0.18879672
THE RANDOLPH SURGERY,W9 1NH,51.529819,-0.18685252
GROUND FLOOR LANARK MEDICAL CENTRE,W9 1NZ,51.530501,-0.18561435
THIRD FLOOR LANARK ROAD MEDICAL CENTRE,W9 1NZ,51.530501,-0.18561435
NORTH WEST LONDON MEDICAL CENTRE,W9 1PP,51.531538,-0.18463597
NEW ELGIN PRACTICE,W9 2AF,51.524323,-0.19786798
ATHLONE HOUSE REHABILITATION UNIT,W9 2BA,51.522829,-0.20007483
SHIRLAND ROAD MEDICAL CENTRE,W9 3JJ,51.5292,-0.20390356
ELGIN CLINIC,W9 3QT,51.524791,-0.19845498
WOODFIELD ROAD MEDICAL CENTRE,W9 3XZ,51.522718,-0.19758539
ST PHILIPS MEDICAL CENTRE,WC2A 2AZ,51.513476,-0.11473489
KINGS COLLEGE HEALTH CENTRE,WC2B 4PJ,51.512578,-0.11709225
CONNECTION AT ST MARTINS,WC2N 4HW,51.509234,-0.12613601
